{
"type": "FeatureCollection",
"name": "JPT_KOD_JE_1461",
"features": [
{ "type": "Feature", "properties": { "ref:csioz": 1090780, "name": "Dbam O Zdrowie", "addr:street": "Jana Pawła II", "addr:housenumber": "4", "addr:city": "Ostrołęka", "addr:postcode": "07-410", "amenity": "pharmacy" }, "geometry": { "type": "Point", "coordinates": [ 21.582476401974837, 53.072187592096967 ] } },
{ "type": "Feature", "properties": { "ref:csioz": 1090805, "name": "Nova", "addr:street": "gen. Józefa Hallera", "addr:housenumber": "39", "addr:city": "Ostrołęka", "addr:postcode": "07-410", "amenity": "pharmacy" }, "geometry": { "type": "Point", "coordinates": [ 21.580691559947709, 53.081875144264217 ] } },
{ "type": "Feature", "properties": { "ref:csioz": 1090818, "name": "Klemer", "addr:street": "gen. Władysława Sikorskiego", "addr:housenumber": "6", "addr:city": "Ostrołęka", "addr:postcode": "07-413", "amenity": "pharmacy" }, "geometry": { "type": "Point", "coordinates": [ 21.587305735998044, 53.074945301357715 ] } },
{ "type": "Feature", "properties": { "ref:csioz": 1090826, "name": "Dbam o Zdrowie", "addr:street": "Bartosza Głowackiego", "addr:housenumber": "37", "addr:city": "Ostrołęka", "addr:postcode": "07-400", "amenity": "pharmacy" }, "geometry": { "type": "Point", "coordinates": [ 21.571518240102641, 53.083230211873683 ] } },
{ "type": "Feature", "properties": { "ref:csioz": 1090860, "name": "Propolis", "addr:street": "Mikołaja Kopernika", "addr:housenumber": "20", "addr:city": "Ostrołęka", "addr:postcode": "07-410", "amenity": "pharmacy" }, "geometry": { "type": "Point", "coordinates": [ 21.570521357421487, 53.081004409408173 ] } },
{ "type": "Feature", "properties": { "ref:csioz": 1090894, "name": "Na Polnej", "addr:street": "Polna", "addr:housenumber": "17", "addr:city": "Ostrołęka", "addr:postcode": "07-417", "amenity": "pharmacy" }, "geometry": { "type": "Point", "coordinates": [ 21.606021237586674, 53.057234239907686 ] } },
{ "type": "Feature", "properties": { "ref:csioz": 1090901, "name": "APTEKA \"NOWA\"", "addr:street": "Stefana Żeromskiego", "addr:housenumber": "21", "addr:city": "Ostrołęka", "addr:postcode": "07-417", "amenity": "pharmacy" }, "geometry": { "type": "Point", "coordinates": [ 21.621695000008398, 53.059170000017225 ] } },
{ "type": "Feature", "properties": { "ref:csioz": 1116344, "name": "Apteka Melisa", "addr:street": "Henryka Sienkiewicza", "addr:housenumber": "50", "addr:city": "Ostrołęka", "addr:postcode": "07-410", "amenity": "pharmacy" }, "geometry": { "type": "Point", "coordinates": [ 21.56426732627483, 53.07590936811291 ] } },
{ "type": "Feature", "properties": { "ref:csioz": 1116353, "name": "Sokrates", "addr:street": "gen. Władysława Sikorskiego", "addr:housenumber": "37", "addr:city": "Ostrołęka", "addr:postcode": "07-410", "amenity": "pharmacy" }, "geometry": { "type": "Point", "coordinates": [ 21.588274104290047, 53.074994911569114 ] } },
{ "type": "Feature", "properties": { "ref:csioz": 1117287, "name": "Arnica", "addr:street": "marsz. Józefa Piłsudskiego", "addr:housenumber": "40", "addr:city": "Ostrołęka", "addr:postcode": "07-410", "amenity": "pharmacy" }, "geometry": { "type": "Point", "coordinates": [ 21.581931149290806, 53.084985376534036 ] } },
{ "type": "Feature", "properties": { "ref:csioz": 1123551, "name": "Klemer", "addr:street": "Aleja Wojska Polskiego", "addr:housenumber": "26", "addr:city": "Ostrołęka", "addr:postcode": "07-401", "amenity": "pharmacy" }, "geometry": { "type": "Point", "coordinates": [ 21.611442665569029, 53.099141326253985 ] } },
{ "type": "Feature", "properties": { "ref:csioz": 1172373, "name": "Dr. Optima", "addr:street": "marsz. Józefa Piłsudskiego", "addr:housenumber": "17", "addr:city": "Ostrołęka", "addr:postcode": "07-410", "amenity": "pharmacy" }, "geometry": { "type": "Point", "coordinates": [ 21.57861818098749, 53.085137089546755 ] } },
{ "type": "Feature", "properties": { "ref:csioz": 1174126, "name": "SUPER PHARM APTEKA\t", "addr:street": "Gen. Augusta Emila Fieldorfa \"Nila\"", "addr:housenumber": "28", "addr:flats": "22", "addr:city": "Ostrołęka", "addr:postcode": "07-410", "amenity": "pharmacy" }, "geometry": { "type": "Point", "coordinates": [ 21.578679802001833, 53.076032126350391 ] } },
{ "type": "Feature", "properties": { "ref:csioz": 1091391, "name": "Wracam Do Zdrowia", "addr:street": "11 Listopada", "addr:housenumber": "72", "addr:city": "Ostrołęka", "addr:postcode": "07-410", "amenity": "pharmacy" }, "geometry": { "type": "Point", "coordinates": [ 21.589740004882234, 53.07874336515782 ] } },
{ "type": "Feature", "properties": { "ref:csioz": 1091430, "name": "Rodzinna", "addr:street": "11 Listopada", "addr:housenumber": "9", "addr:city": "Ostrołęka", "addr:postcode": "07-410", "amenity": "pharmacy" }, "geometry": { "type": "Point", "coordinates": [ 21.575952020623646, 53.083111061647635 ] } },
{ "type": "Feature", "properties": { "ref:csioz": 1091449, "name": "Dbam o Zdrowie", "addr:street": "gen. Józefa Hallera", "addr:housenumber": "15", "addr:city": "Ostrołęka", "addr:postcode": "07-410", "amenity": "pharmacy" }, "geometry": { "type": "Point", "coordinates": [ 21.58293552257836, 53.084447276741237 ] } },
{ "type": "Feature", "properties": { "ref:csioz": 1120114, "name": "Dr. Max", "addr:street": "gen. Józefa Hallera", "addr:housenumber": "27", "addr:city": "Ostrołęka", "addr:postcode": "07-400", "amenity": "pharmacy" }, "geometry": { "type": "Point", "coordinates": [ 21.581628975427179, 53.082782594918413 ] } },
{ "type": "Feature", "properties": { "ref:csioz": 1123156, "name": "Za Rogiem", "addr:street": "Henryka Sienkiewicza", "addr:housenumber": "55", "addr:flats": "5, 6", "addr:city": "Ostrołęka", "addr:postcode": "07-410", "amenity": "pharmacy" }, "geometry": { "type": "Point", "coordinates": [ 21.563556848888229, 53.073029284870614 ] } },
{ "type": "Feature", "properties": { "ref:csioz": 1153246, "name": "Apteka Szpitalna", "addr:street": "Jana Pawła II", "addr:housenumber": "120A", "addr:city": "Ostrołęka", "addr:postcode": "07-410", "amenity": "pharmacy" }, "geometry": { "type": "Point", "coordinates": [ 21.589428035001283, 53.063095593265714 ] } },
{ "type": "Feature", "properties": { "ref:csioz": 1166407, "name": "Przy Św. Franciszku", "addr:street": "ks. Stanisława Pędzicha", "addr:housenumber": "7", "addr:city": "Ostrołęka", "addr:postcode": "07-410", "amenity": "pharmacy" }, "geometry": { "type": "Point", "coordinates": [ 21.596868797772046, 53.072821174133999 ] } },
{ "type": "Feature", "properties": { "ref:csioz": 1201166, "name": "Gemini", "addr:street": "Gen. Augusta Emila Fieldorfa \"Nila\"", "addr:housenumber": "14", "addr:city": "Ostrołęka", "addr:postcode": "07-410", "amenity": "pharmacy" }, "geometry": { "type": "Point", "coordinates": [ 21.574674722008677, 53.079511004667957 ] } },
{ "type": "Feature", "properties": { "ref:csioz": 1210513, "name": "Rodzinna", "addr:street": "ppłk. Łukasza Cieplińskiego 'Pługa'", "addr:housenumber": "4/1", "addr:city": "Ostrołęka", "addr:postcode": "07-410", "amenity": "pharmacy" }, "geometry": { "type": "Point", "coordinates": [ 21.594213000008011, 53.067659000017251 ] } },
{ "type": "Feature", "properties": { "ref:csioz": 1116302, "name": "Apteka Alfa", "addr:street": "Gen. Augusta Emila Fieldorfa \"Nila\"", "addr:housenumber": "5C", "addr:city": "Ostrołęka", "addr:postcode": "07-410", "amenity": "pharmacy" }, "geometry": { "type": "Point", "coordinates": [ 21.573426242034841, 53.080821740203433 ] } },
{ "type": "Feature", "properties": { "ref:csioz": 1175984, "name": "Rodzinna", "addr:street": "Gen. Augusta Emila Fieldorfa \"Nila\"", "addr:housenumber": "10", "addr:city": "Ostrołęka", "addr:postcode": "07-410", "amenity": "pharmacy" }, "geometry": { "type": "Point", "coordinates": [ 21.574089850484143, 53.080060148541108 ] } },
{ "type": "Feature", "properties": { "ref:csioz": 1224812, "name": "Dbam o Zdrowie", "addr:street": "Gen. Augusta Emila Fieldorfa \"Nila\"", "addr:housenumber": "2", "addr:city": "Ostrołęka", "addr:postcode": "07-410", "amenity": "pharmacy" }, "geometry": { "type": "Point", "coordinates": [ 21.571720614742773, 53.081090174910123 ] } },
{ "type": "Feature", "properties": { "ref:csioz": 1215414, "name": "NOWA TOMASZ BOBROWSKI\t", "addr:street": "Aleja Jana Pawła II", "addr:housenumber": "120A", "addr:flats": "B", "addr:city": "Ostrołęka", "addr:postcode": "07-410", "amenity": "pharmacy" }, "geometry": { "type": "Point", "coordinates": [ 21.589428035001283, 53.063095593265714 ] } },
{ "type": "Feature", "properties": { "ref:csioz": 1231183, "name": "APTEKA PRZY FORTACH", "addr:street": "Stacha Konwy", "addr:housenumber": "3D/2", "addr:flats": null, "addr:city": "Ostrołęka", "addr:postcode": "07-410", "amenity": "pharmacy" }, "geometry": { "type": "Point", "coordinates": [ 21.554520644541611, 53.089422538143623 ] } },
{ "type": "Feature", "properties": { "ref:csioz": 1170822, "name": "Klemer", "addr:street": "rtm. Witolda Pileckiego", "addr:housenumber": "14", "addr:flats": null, "addr:city": "Ostrołęka", "addr:postcode": "07-410", "amenity": "pharmacy" }, "geometry": { "type": "Point", "coordinates": [ 21.585002261564039, 53.071832064835178 ] } }
]
}
