{
"type": "FeatureCollection",
"name": "woj_lodzkie-pow_tomaszowski-JPT_KOD_JE_1016 jk",
"crs": { "type": "name", "properties": { "name": "urn:ogc:def:crs:OGC:1.3:CRS84" } },
"features": [
{ "type": "Feature", "properties": { "ref:csioz": 1009430, "name": "Apteka Wspólna", "addr:street": "Graniczna", "addr:housenumber": "4A", "addr:city": "Tomaszów Mazowiecki", "addr:postcode": "97-200", "amenity": "pharmacy", "addr:flats": null }, "geometry": { "type": "Point", "coordinates": [ 20.016124406134953, 51.5237087349959 ] } },
{ "type": "Feature", "properties": { "ref:csioz": 1009713, "name": null, "addr:street": "Warszawska", "addr:housenumber": "46", "addr:city": "Tomaszów Mazowiecki", "addr:postcode": "97-200", "amenity": "pharmacy", "addr:flats": null }, "geometry": { "type": "Point", "coordinates": [ 20.010864967293468, 51.538156208855483 ] } },
{ "type": "Feature", "properties": { "ref:csioz": 1010475, "name": null, "addr:street": "Henryka Sienkiewicza", "addr:housenumber": "27", "addr:city": "Ujazd", "addr:postcode": "97-225", "amenity": "pharmacy", "addr:flats": null }, "geometry": { "type": "Point", "coordinates": [ 19.927228345919165, 51.60895249641613 ] } },
{ "type": "Feature", "properties": { "ref:csioz": 1014941, "name": "Ka-Med", "addr:street": "Dworcowa", "addr:housenumber": "1", "addr:city": "Tomaszów Mazowiecki", "addr:postcode": "97-200", "amenity": "pharmacy", "addr:flats": "15" }, "geometry": { "type": "Point", "coordinates": [ 20.033481000000418, 51.546138000014786 ] } },
{ "type": "Feature", "properties": { "ref:csioz": 1015781, "name": "Mgr Farm.E.Nowiczewski", "addr:street": "Wolności", "addr:housenumber": "3", "addr:city": "Ujazd", "addr:postcode": "97-225", "amenity": "pharmacy", "addr:flats": null }, "geometry": { "type": "Point", "coordinates": [ 19.922439199353526, 51.598320985249686 ] } },
{ "type": "Feature", "properties": { "ref:csioz": 1018358, "name": "Krokus", "addr:street": "Jana Chryzostoma Paska", "addr:housenumber": "62", "addr:city": "Budziszewice", "addr:postcode": "97-212", "amenity": "pharmacy", "addr:flats": null }, "geometry": { "type": "Point", "coordinates": [ 19.936507095356681, 51.667862828968723 ] } },
{ "type": "Feature", "properties": { "ref:csioz": 1018285, "name": "Apteka Dbam O Zdrowie", "addr:street": "Konstytucji 3 Maja", "addr:housenumber": "1/3", "addr:city": "Tomaszów Mazowiecki", "addr:postcode": "97-200", "amenity": "pharmacy", "addr:flats": null }, "geometry": { "type": "Point", "coordinates": [ 20.010535000000399, 51.534325000014753 ] } },
{ "type": "Feature", "properties": { "ref:csioz": 1018650, "name": "Centrum", "addr:street": "Plac Tadeusza Kościuszki", "addr:housenumber": "9", "addr:city": "Tomaszów Mazowiecki", "addr:postcode": "97-200", "amenity": "pharmacy", "addr:flats": null }, "geometry": { "type": "Point", "coordinates": [ 20.006266458396887, 51.530457160846005 ] } },
{ "type": "Feature", "properties": { "ref:csioz": 1022230, "name": "Lekmar", "addr:street": "marsz. Józefa Piłsudskiego", "addr:housenumber": "12", "addr:city": "Spała", "addr:postcode": "92-215", "amenity": "pharmacy", "addr:flats": null }, "geometry": { "type": "Point", "coordinates": [ 20.138265051665265, 51.542457702819235 ] } },
{ "type": "Feature", "properties": { "ref:csioz": 1023687, "name": "Flora Ii Mgr Farm. Jacek Cieciura", "addr:street": "Juliusza Słowackiego", "addr:housenumber": "8/10", "addr:city": "Tomaszów Mazowiecki", "addr:postcode": "97-200", "amenity": "pharmacy", "addr:flats": null }, "geometry": { "type": "Point", "coordinates": [ 20.00266194681603, 51.527831609686771 ] } },
{ "type": "Feature", "properties": { "ref:csioz": 1026462, "name": "Apteka Słoneczna", "addr:street": "Łódzka", "addr:housenumber": "2", "addr:city": "Lubochnia", "addr:postcode": "97-217", "amenity": "pharmacy", "addr:flats": null }, "geometry": { "type": "Point", "coordinates": [ 20.052865361881917, 51.608008074773032 ] } },
{ "type": "Feature", "properties": { "ref:csioz": 1178413, "name": "\"Apteka Cef@Rm 36,6\"", "addr:street": "Jana Pawła II", "addr:housenumber": "22", "addr:city": "Tomaszów Mazowiecki", "addr:postcode": "97-200", "amenity": "pharmacy", "addr:flats": "01" }, "geometry": { "type": "Point", "coordinates": [ 20.002869523062081, 51.522928506908606 ] } },
{ "type": "Feature", "properties": { "ref:csioz": 1009721, "name": null, "addr:street": "Plac Tadeusza Kościuszki", "addr:housenumber": "20", "addr:city": "Tomaszów Mazowiecki", "addr:postcode": "97-200", "amenity": "pharmacy", "addr:flats": null }, "geometry": { "type": "Point", "coordinates": [ 20.005639000000393, 51.531536000014754 ] } },
{ "type": "Feature", "properties": { "ref:csioz": 1009792, "name": null, "addr:street": "Jałowcowa", "addr:housenumber": "13", "addr:city": "Tomaszów Mazowiecki", "addr:postcode": "97-200", "amenity": "pharmacy", "addr:flats": null }, "geometry": { "type": "Point", "coordinates": [ 20.026238173257681, 51.526545489207805 ] } },
{ "type": "Feature", "properties": { "ref:csioz": 1011836, "name": "Familypharm", "addr:street": "Józefa Montwiłła Mireckiego", "addr:housenumber": "88", "addr:city": "Tomaszów Mazowiecki", "addr:postcode": "97-200", "amenity": "pharmacy", "addr:flats": null }, "geometry": { "type": "Point", "coordinates": [ 20.032545000000422, 51.529441000014742 ] } },
{ "type": "Feature", "properties": { "ref:csioz": 1012486, "name": "Apteka Codzienna", "addr:street": "św. Antoniego", "addr:housenumber": "32", "addr:city": "Tomaszów Mazowiecki", "addr:postcode": "97-200", "amenity": "pharmacy", "addr:flats": null }, "geometry": { "type": "Point", "coordinates": [ 20.011733000000408, 51.528161000014734 ] } },
{ "type": "Feature", "properties": { "ref:csioz": 1013080, "name": "Flora", "addr:street": "Juliusza Słowackiego", "addr:housenumber": "22", "addr:city": "Tomaszów Mazowiecki", "addr:postcode": "97-200", "amenity": "pharmacy", "addr:flats": null }, "geometry": { "type": "Point", "coordinates": [ 20.00040365234528, 51.527678525135933 ] } },
{ "type": "Feature", "properties": { "ref:csioz": 1016800, "name": "Apteka Gemini", "addr:street": "Smugowa", "addr:housenumber": "6", "addr:city": "Tomaszów Mazowiecki", "addr:postcode": "97-200", "amenity": "pharmacy", "addr:flats": null }, "geometry": { "type": "Point", "coordinates": [ 20.003604128265692, 51.524842538195145 ] } },
{ "type": "Feature", "properties": { "ref:csioz": 1118743, "name": null, "addr:street": null, "addr:housenumber": "1", "addr:city": "SOKOŁÓWKA", "addr:postcode": "62-840", "amenity": "pharmacy", "addr:flats": null }, "geometry": { "type": "Point", "coordinates": [ 20.056020316130372, 51.710561213127903 ] } },
{ "type": "Feature", "properties": { "ref:csioz": 1185398, "name": null, "addr:street": "Prezydenta Ignacego Mościckiego", "addr:housenumber": "5", "addr:city": "Rzeczyca", "addr:postcode": "97-220", "amenity": "pharmacy", "addr:flats": null }, "geometry": { "type": "Point", "coordinates": [ 20.29026806554463, 51.595566798869797 ] } },
{ "type": "Feature", "properties": { "ref:csioz": 1192980, "name": "Apteka Przyjazna", "addr:street": "Bohaterów 14 Brygady", "addr:housenumber": "17", "addr:city": "Tomaszów Mazowiecki", "addr:postcode": "97-200", "amenity": "pharmacy", "addr:flats": "SEGMENT B" }, "geometry": { "type": "Point", "coordinates": [ 20.017197800398634, 51.527218251702692 ] } },
{ "type": "Feature", "properties": { "ref:csioz": 1192972, "name": "\"Apteka \"\"Flora Iii\"\"\"", "addr:street": "Tomasza Ostrowskiego", "addr:housenumber": "12", "addr:city": "Tomaszów Mazowiecki", "addr:postcode": "97-200", "amenity": "pharmacy", "addr:flats": null }, "geometry": { "type": "Point", "coordinates": [ 19.99839712839864, 51.542191855817613 ] } },
{ "type": "Feature", "properties": { "ref:csioz": 1193219, "name": "Mirmed - Leczenie Szpitalne", "addr:street": "Józefa Montwiłła Mireckiego", "addr:housenumber": "90", "addr:city": "Tomaszów Mazowiecki", "addr:postcode": "97-200", "amenity": "pharmacy", "addr:flats": null }, "geometry": { "type": "Point", "coordinates": [ 20.032727000000413, 51.529388000014734 ] } },
{ "type": "Feature", "properties": { "ref:csioz": 1200121, "name": "Apteka Słoneczna Centrum Farmaceutyczne", "addr:street": "Tadeusza Kościuszki", "addr:housenumber": "5", "addr:city": "Tomaszów Mazowiecki", "addr:postcode": "97-200", "amenity": "pharmacy", "addr:flats": null }, "geometry": { "type": "Point", "coordinates": [ 20.006919951049333, 51.530833198592802 ] } },
{ "type": "Feature", "properties": { "ref:csioz": 1203936, "name": "Koniczynka Ii", "addr:street": "Mazowiecka", "addr:housenumber": "62", "addr:city": "Czerniewice", "addr:postcode": "97-216", "amenity": "pharmacy", "addr:flats": null }, "geometry": { "type": "Point", "coordinates": [ 20.15704986892354, 51.655582334996005 ] } },
{ "type": "Feature", "properties": { "ref:csioz": 1213756, "name": "Dr.Max", "addr:street": "Warszawska", "addr:housenumber": "1", "addr:city": "Tomaszów Mazowiecki", "addr:postcode": "97-200", "amenity": "pharmacy", "addr:flats": null }, "geometry": { "type": "Point", "coordinates": [ 20.005851218160398, 51.535344127426583 ] } },
{ "type": "Feature", "properties": { "ref:csioz": 1218029, "name": null, "addr:street": "Główna", "addr:housenumber": "13", "addr:city": "Smardzewice", "addr:postcode": "97-213", "amenity": "pharmacy", "addr:flats": "17" }, "geometry": { "type": "Point", "coordinates": [ 20.031647864889649, 51.481946532697187 ] } },
{ "type": "Feature", "properties": { "ref:csioz": 1220309, "name": "Apteka Primula", "addr:street": "Fabryczna", "addr:housenumber": "36", "addr:city": "Tomaszów Mazowiecki", "addr:postcode": "97-200", "amenity": "pharmacy", "addr:flats": null }, "geometry": { "type": "Point", "coordinates": [ 19.995945592406319, 51.534841935029846 ] } },
{ "type": "Feature", "properties": { "ref:csioz": 1223118, "name": "Apteka Flora Iv", "addr:street": "Bartosza Głowackiego", "addr:housenumber": "3", "addr:city": "Tomaszów Mazowiecki", "addr:postcode": "97-200", "amenity": "pharmacy", "addr:flats": null }, "geometry": { "type": "Point", "coordinates": [ 20.020490401729727, 51.529595379696815 ] } },
{ "type": "Feature", "properties": { "ref:csioz": 1222843, "name": "Apteka Na Szóstkę", "addr:street": "Plac Gabriela Narutowicza", "addr:housenumber": "7", "addr:city": "Tomaszów Mazowiecki", "addr:postcode": "97-200", "amenity": "pharmacy", "addr:flats": null }, "geometry": { "type": "Point", "coordinates": [ 20.002587904384402, 51.533089343652698 ] } },
{ "type": "Feature", "properties": { "ref:csioz": 1227718, "name": "Vita", "addr:street": null, "addr:housenumber": "41", "addr:city": "Osiedle Niewiadów", "addr:postcode": "97-225", "amenity": "pharmacy", "addr:flats": null }, "geometry": { "type": "Point", "coordinates": [ 19.928316839095871, 51.613192704334139 ] } },
{ "type": "Feature", "properties": { "ref:csioz": 1229279, "name": null, "addr:street": "Zapiecek", "addr:housenumber": "16", "addr:city": "Tomaszów Mazowiecki", "addr:postcode": "97-200", "amenity": "pharmacy", "addr:flats": null }, "geometry": { "type": "Point", "coordinates": [ 20.017631399211389, 51.528090935193561 ] } },
{ "type": "Feature", "properties": { "ref:csioz": 1019610, "name": "\"Apteka \"\"Św. Antoniego\"\" S.C.\"", "addr:street": "Jana Susika", "addr:housenumber": "5", "addr:city": "Żelechlinek", "addr:postcode": "97-226", "amenity": "pharmacy", "addr:flats": null }, "geometry": { "type": "Point", "coordinates": [ 20.041082260770008, 51.715348426336213 ] } },
{ "type": "Feature", "properties": { "ref:csioz": 1193160, "name": "\"Apteka \"\"Primula\"\"\"", "addr:street": "Jana Pawła II", "addr:housenumber": "6", "addr:city": "Tomaszów Mazowiecki", "addr:postcode": "97-200", "amenity": "pharmacy", "addr:flats": null }, "geometry": { "type": "Point", "coordinates": [ 20.004438622166642, 51.526251524541934 ] } },
{ "type": "Feature", "properties": { "ref:csioz": 1021576, "name": "\"Apteka \"\"Salubris\"\"\"", "addr:street": "Dzieci Polskich", "addr:housenumber": "28", "addr:city": "Tomaszów Mazowiecki", "addr:postcode": "97-200", "amenity": "pharmacy", "addr:flats": null }, "geometry": { "type": "Point", "coordinates": [ 20.005860919091361, 51.545347769869863 ] } },
{ "type": "Feature", "properties": { "ref:csioz": 1230732, "name": "Apteka Primula", "addr:street": "Legionów", "addr:housenumber": "57", "addr:city": "Tomaszów Mazowiecki", "addr:postcode": "97-200", "amenity": "pharmacy", "addr:flats": null }, "geometry": { "type": "Point", "coordinates": [ 19.99748835913018, 51.527077444890338 ] } },
{ "type": "Feature", "properties": { "ref:csioz": 1026328, "name": "Doz Apteka Dbam O Zdrowie", "addr:street": "Władysława Stanisława Reymonta", "addr:housenumber": "5A", "addr:city": "Będków", "addr:postcode": "97-319", "amenity": "pharmacy", "addr:flats": null }, "geometry": { "type": "Point", "coordinates": [ 19.744210856687051, 51.588413335432257 ] } },
{ "type": "Feature", "properties": { "ref:csioz": 1230729, "name": "Lawenda", "addr:street": "Tomaszowska", "addr:housenumber": "1A", "addr:city": "Rokiciny-Kolonia", "addr:postcode": "97-221", "amenity": "pharmacy", "addr:flats": null }, "geometry": { "type": "Point", "coordinates": [ 19.781258863557948, 51.665974784617923 ] } }
]
}
