{
    "type": "FeatureCollection",
    "name": "JPT_KOD_JE_2005",
    "features": [
        {
            "type": "Feature",
            "properties": {
                "ref:csioz": 1017668,
                "name": "Apteka Dbam O Zdrowie",
                "addr:street": "Stefana Batorego",
                "addr:housenumber": "18",
                "addr:city": "Hajnówka",
                "addr:postcode": "17-200",
                "amenity": "pharmacy"
            },
            "geometry": {
                "type": "Point",
                "coordinates": [
                    23.587580151410236,
                    52.74155336943427
                ]
            }
        },
        {
            "type": "Feature",
            "properties": {
                "ref:csioz": 1021666,
                "name": "Oak",
                "addr:street": "3 Maja",
                "addr:housenumber": "55A",
                "addr:city": "Hajnówka",
                "addr:postcode": "17-200",
                "amenity": "pharmacy"
            },
            "geometry": {
                "type": "Point",
                "coordinates": [
                    23.5920683,
                    52.7377187
                ]
            }
        },
        {
            "type": "Feature",
            "properties": {
                "ref:csioz": 1021846,
                "name": "Arnika",
                "addr:street": "1 Maja",
                "addr:housenumber": "86D",
                "addr:city": "Czeremcha",
                "addr:postcode": "17-240",
                "amenity": "pharmacy"
            },
            "geometry": {
                "type": "Point",
                "coordinates": [
                    23.3523226,
                    52.5156160
                ]
            }
        },
        {
            "type": "Feature",
            "properties": {
                "ref:csioz": 1023930,
                "name": "Dr. Max",
                "addr:street": "Marszałka Józefa Piłsudskiego",
                "addr:housenumber": "10",
                "addr:city": "Hajnówka",
                "addr:postcode": "17-200",
                "amenity": "pharmacy"
            },
            "geometry": {
                "type": "Point",
                "coordinates": [
                    23.59111111111111,
                    52.73555555555556
                ]
            }
        },
        {
            "type": "Feature",
            "properties": {
                "ref:csioz": 1024468,
                "name": "\"Apteka \"\"Salix S.C.\"\"\"",
                "addr:street": "Doc. Adama Dowgirda",
                "addr:housenumber": "9",
                "addr:city": "Hajnówka",
                "addr:postcode": "17-200",
                "amenity": "pharmacy"
            },
            "geometry": {
                "type": "Point",
                "coordinates": [
                    23.609722222222224,
                    52.74638888888889
                ]
            }
        },
        {
            "type": "Feature",
            "properties": {
                "ref:csioz": 1180699,
                "name": "Punkt apteczny Aqua",
                "addr:street": "Kolejowa",
                "addr:housenumber": "6",
                "addr:city": "Czeremcha",
                "addr:postcode": "17-240",
                "amenity": "pharmacy"
            },
            "geometry": {
                "type": "Point",
                "coordinates": [
                    23.355,
                    52.525
                ]
            }
        },
        {
            "type": "Feature",
            "properties": {
                "ref:csioz": 1019842,
                "name": "Melisa",
                "addr:street": "Lipowa",
                "addr:housenumber": "53",
                "addr:city": "Hajnówka",
                "addr:postcode": "17-200",
                "amenity": "pharmacy"
            },
            "geometry": {
                "type": "Point",
                "coordinates": [
                    23.586840837396903,
                    52.74472186463854
                ]
            }
        },
        {
            "type": "Feature",
            "properties": {
                "ref:csioz": 1022681,
                "name": "\"Apteka Cef@Rm 36,6\"",
                "addr:street": "3 Maja",
                "addr:housenumber": "39",
                "addr:city": "Hajnówka",
                "addr:postcode": "17-200",
                "amenity": "pharmacy"
            },
            "geometry": {
                "type": "Point",
                "coordinates": [
                    23.584462092927343,
                    52.738954103724424
                ]
            }
        },
        {
            "type": "Feature",
            "properties": {
                "ref:csioz": 1024382,
                "name": "Aqua",
                "addr:street": "Parkowy",
                "addr:housenumber": "5",
                "addr:city": "Kleszczele",
                "addr:postcode": "17-250",
                "amenity": "pharmacy"
            },
            "geometry": {
                "type": "Point",
                "coordinates": [
                    23.325833333333332,
                    52.57361111111111
                ]
            }
        },
        {
            "type": "Feature",
            "properties": {
                "ref:csioz": 1175103,
                "name": "Apteka Bliska Samoobsługowa",
                "addr:street": "3 Maja",
                "addr:housenumber": "47",
                "addr:city": "Hajnówka",
                "addr:postcode": "17-200",
                "amenity": "pharmacy"
            },
            "geometry": {
                "type": "Point",
                "coordinates": [
                    23.5875,
                    52.73861111111111
                ]
            }
        },
        {
            "type": "Feature",
            "properties": {
                "ref:csioz": 1202171,
                "name": "Apteka Społeczna Na Batorego Grupa Nowa Farmacja",
                "addr:street": "Stefana Batorego",
                "addr:housenumber": "4",
                "addr:flats": "1",
                "addr:city": "Hajnówka",
                "addr:postcode": "17-200",
                "amenity": "pharmacy"
            },
            "geometry": {
                "type": "Point",
                "coordinates": [
                    23.588662373142718,
                    52.739011738562056
                ]
            }
        },
        {
            "type": "Feature",
            "properties": {
                "ref:csioz": 1188075,
                "name": "Dr. Max",
                "addr:street": "Puszczańska",
                "addr:housenumber": "2",
                "addr:city": "Białowieża",
                "addr:postcode": "17-230",
                "amenity": "pharmacy"
            },
            "geometry": {
                "type": "Point",
                "coordinates": [
                    23.8575,
                    52.703611111111115
                ]
            }
        },
        {
            "type": "Feature",
            "properties": {
                "ref:csioz": 1015530,
                "name": "Tamara Sachacka Prywatny Punkt Apteczny",
                "addr:street": "Bielska",
                "addr:housenumber": "5",
                "addr:city": "Narew",
                "addr:postcode": "17-210",
                "amenity": "pharmacy"
            },
            "geometry": {
                "type": "Point",
                "coordinates": [
                    23.518923811095455,
                    52.91325959984086
                ]
            }
        },
        {
            "type": "Feature",
            "properties": {
                "ref:csioz": 1015558,
                "name": "Apteka Fikus Krystyna Wnorowska",
                "addr:street": "Piaski",
                "addr:housenumber": "1",
                "addr:city": "Narew",
                "addr:postcode": "17-210",
                "amenity": "pharmacy"
            },
            "geometry": {
                "type": "Point",
                "coordinates": [
                    23.517010949755818,
                    52.91489297678721
                ]
            }
        },
        {
            "type": "Feature",
            "properties": {
                "ref:csioz": 1023289,
                "name": "Wiesława Chlabicz Apteka Prywatna",
                "addr:street": "Hajnowska",
                "addr:housenumber": "58",
                "addr:city": "Narewka",
                "addr:postcode": "17-220",
                "amenity": "pharmacy"
            },
            "geometry": {
                "type": "Point",
                "coordinates": [
                    23.75750848558144,
                    52.837927120316934
                ]
            }
        }
    ]
}