{
"type": "FeatureCollection",
"name": "JPT_KOD_JE_1018",
"features": [
{ "type": "Feature", "properties": { "ref:csioz": 1009636, "addr:street": "Tadeusza Kościuszki", "addr:housenumber": "6", "addr:city": "Bolesławiec", "addr:postcode": "98-430", "amenity": "pharmacy" }, "geometry": { "type": "Point", "coordinates": [ 18.190377365400902, 51.197358094989013 ] } },
{ "type": "Feature", "properties": { "ref:csioz": 1011580, "addr:street": "Wieluńska", "addr:housenumber": "2B", "addr:city": "Łubnice", "addr:postcode": "98-432", "amenity": "pharmacy" }, "geometry": { "type": "Point", "coordinates": [ 18.288438189361447, 51.171790173260447 ] } },
{ "type": "Feature", "properties": { "ref:csioz": 1011740, "addr:street": "Warszawska", "addr:housenumber": "96", "addr:city": "Wieruszów", "addr:postcode": "98-400", "amenity": "pharmacy" }, "geometry": { "type": "Point", "coordinates": [ 18.163746708306689, 51.294549336584652 ] } },
{ "type": "Feature", "properties": { "ref:csioz": 1013673, "addr:street": "Jana Pawła Stalskiego", "addr:housenumber": "6", "addr:city": "Lututów", "addr:postcode": "98-360", "amenity": "pharmacy", "name": "Apteka Dbam O Zdrowie" }, "geometry": { "type": "Point", "coordinates": [ 18.431742154026999, 51.371523127057095 ] } },
{ "type": "Feature", "properties": { "ref:csioz": 1017613, "addr:street": "Szkolna", "addr:housenumber": "6", "addr:city": "Czastary", "addr:postcode": "98-410", "amenity": "pharmacy", "name": "\"Apteka \"\"Familia\"\" J.B. Sobkowscy S.C.\"" }, "geometry": { "type": "Point", "coordinates": [ 18.323472308916742, 51.258431190581028 ] } },
{ "type": "Feature", "properties": { "ref:csioz": 1021297, "addr:street": "Mikołaja Kopernika", "addr:housenumber": "4", "addr:city": "Wieruszów", "addr:postcode": "98-400", "amenity": "pharmacy", "name": "Dr. Max" }, "geometry": { "type": "Point", "coordinates": [ 18.15672522182626, 51.293102165706379 ] } },
{ "type": "Feature", "properties": { "ref:csioz": 1025663, "addr:housenumber": "185B", "addr:city": "Osiek", "addr:postcode": "98-405", "amenity": "pharmacy" }, "geometry": { "type": "Point", "coordinates": [ 18.204352927526617, 51.375602231083761 ] } },
{ "type": "Feature", "properties": { "ref:csioz": 1121097, "addr:street": "Rynek", "addr:housenumber": "20", "addr:city": "Wieruszów", "addr:postcode": "98-400", "amenity": "pharmacy", "name": "W Rynku" }, "geometry": { "type": "Point", "coordinates": [ 18.150301631849285, 51.295348909240133 ] } },
{ "type": "Feature", "properties": { "ref:csioz": 1171899, "addr:street": "Fabryczna", "addr:housenumber": "4A", "addr:city": "Wieruszów", "addr:postcode": "98-400", "amenity": "pharmacy", "name": "Dr.Max", "addr:flats": "3" }, "geometry": { "type": "Point", "coordinates": [ 18.161550892840399, 51.296316917080503 ] } },
{ "type": "Feature", "properties": { "ref:csioz": 1012407, "addr:street": "Warszawska", "addr:housenumber": "55", "addr:city": "Wieruszów", "addr:postcode": "98-400", "amenity": "pharmacy", "name": "Św.Rocha" }, "geometry": { "type": "Point", "coordinates": [ 18.15803155359416, 51.294674495656608 ] } },
{ "type": "Feature", "properties": { "ref:csioz": 1016876, "addr:street": "Ogrodowa", "addr:housenumber": "18", "addr:city": "Sokolniki", "addr:postcode": "98-420", "amenity": "pharmacy", "name": "Św.Mikołaja" }, "geometry": { "type": "Point", "coordinates": [ 18.323351479318891, 51.306522125546614 ] } },
{ "type": "Feature", "properties": { "ref:csioz": 1121100, "addr:street": "Warszawska", "addr:housenumber": "41", "addr:city": "Wieruszów", "addr:postcode": "98-400", "amenity": "pharmacy", "name": "Dr. Max" }, "geometry": { "type": "Point", "coordinates": [ 18.156218750641553, 51.294708474603908 ] } },
{ "type": "Feature", "properties": { "ref:csioz": 1200723, "addr:street": "Warszawska", "addr:housenumber": "99", "addr:city": "Wieruszów", "addr:postcode": "98-400", "amenity": "pharmacy", "name": "Drofarm" }, "geometry": { "type": "Point", "coordinates": [ 18.16376163140092, 51.294795509965311 ] } },
{ "type": "Feature", "properties": { "ref:csioz": 1211624, "addr:street": "Rynek", "addr:housenumber": "15", "addr:city": "Lututów", "addr:postcode": "98-360", "amenity": "pharmacy", "name": "\"Apteki Burchacińscy; Wejdź Po Zdrowie\"" }, "geometry": { "type": "Point", "coordinates": [ 18.433538047258399, 51.37139266404057 ] } },
{ "type": "Feature", "properties": { "ref:csioz": 1228228, "addr:street": "Wieruszowska", "addr:housenumber": "10C", "addr:city": "Galewice", "addr:postcode": "98-405", "amenity": "pharmacy", "name": "Fitfarm" }, "geometry": { "type": "Point", "coordinates": [ 18.252889930448418, 51.341898081824176 ] } }
]
}
