{
"type": "FeatureCollection",
"name": "woj_lubelskie-pow_tomaszowski-JPT_KOD_JE_0618",
"crs": { "type": "name", "properties": { "name": "urn:ogc:def:crs:OGC:1.3:CRS84" } },
"features": [
{ "type": "Feature", "properties": { "ref:csioz": 1153844, "addr:street": "Lubelska", "addr:housenumber": "53", "addr:city": "Tarnawatka", "addr:postcode": "22-604", "amenity": "pharmacy", "name": null, "addr:flats": null }, "geometry": { "type": "Point", "coordinates": [ 23.39630125911485, 50.529430375455327 ] } },
{ "type": "Feature", "properties": { "ref:csioz": 1153877, "addr:street": "Rynek", "addr:housenumber": "6", "addr:city": "Tomaszów Lubelski", "addr:postcode": "22-600", "amenity": "pharmacy", "name": null, "addr:flats": null }, "geometry": { "type": "Point", "coordinates": [ 23.418154000150768, 50.453438000015886 ] } },
{ "type": "Feature", "properties": { "ref:csioz": 1154014, "addr:street": "Wańkowicza", "addr:housenumber": "2", "addr:city": "Tomaszów Lubelski", "addr:postcode": "22-600", "amenity": "pharmacy", "name": null, "addr:flats": null }, "geometry": { "type": "Point", "coordinates": [ 23.413369244642634, 50.439899364017343 ] } },
{ "type": "Feature", "properties": { "ref:csioz": 1154038, "addr:street": "Lwowska", "addr:housenumber": "69", "addr:city": "Tomaszów Lubelski", "addr:postcode": "22-600", "amenity": "pharmacy", "name": null, "addr:flats": null }, "geometry": { "type": "Point", "coordinates": [ 23.416952199781758, 50.44536590337551 ] } },
{ "type": "Feature", "properties": { "ref:csioz": 1154051, "addr:street": "Traugutta", "addr:housenumber": "5", "addr:city": "Tomaszów Lubelski", "addr:postcode": "22-600", "amenity": "pharmacy", "name": "Doz Apteka Dbam O Zdrowie", "addr:flats": null }, "geometry": { "type": "Point", "coordinates": [ 23.41656600618014, 50.451836279749159 ] } },
{ "type": "Feature", "properties": { "ref:csioz": 1154206, "addr:street": "Lwowska", "addr:housenumber": "56", "addr:city": "Tomaszów Lubelski", "addr:postcode": "22-600", "amenity": "pharmacy", "name": null, "addr:flats": "3" }, "geometry": { "type": "Point", "coordinates": [ 23.416632509815031, 50.448723277904016 ] } },
{ "type": "Feature", "properties": { "ref:csioz": 1154211, "addr:street": "3 Maja", "addr:housenumber": "16a", "addr:city": "Łaszczów", "addr:postcode": "22-650", "amenity": "pharmacy", "name": null, "addr:flats": null }, "geometry": { "type": "Point", "coordinates": [ 23.726723000211642, 50.5323610000179 ] } },
{ "type": "Feature", "properties": { "ref:csioz": 1154287, "addr:street": "Lwowska", "addr:housenumber": "85", "addr:city": "Tomaszów Lubelski", "addr:postcode": "22-600", "amenity": "pharmacy", "name": null, "addr:flats": null }, "geometry": { "type": "Point", "coordinates": [ 23.417949374094881, 50.442834884884761 ] } },
{ "type": "Feature", "properties": { "ref:csioz": 1154417, "addr:street": "Kościuszki", "addr:housenumber": "26", "addr:city": "Tomaszów Lubelski", "addr:postcode": "22-600", "amenity": "pharmacy", "name": null, "addr:flats": null }, "geometry": { "type": "Point", "coordinates": [ 23.412623850810476, 50.451513119507659 ] } },
{ "type": "Feature", "properties": { "ref:csioz": 1155148, "addr:street": "Tomaszowska", "addr:housenumber": "134", "addr:city": "Ulhówek", "addr:postcode": "22-678", "amenity": "pharmacy", "name": null, "addr:flats": "1" }, "geometry": { "type": "Point", "coordinates": [ 23.774347749836593, 50.449151132601024 ] } },
{ "type": "Feature", "properties": { "ref:csioz": 1155161, "addr:street": "Partyzantów", "addr:housenumber": "104", "addr:city": "Rachanie", "addr:postcode": "22-640", "amenity": "pharmacy", "name": null, "addr:flats": null }, "geometry": { "type": "Point", "coordinates": [ 23.5384107108009, 50.537582537941532 ] } },
{ "type": "Feature", "properties": { "ref:csioz": 1155394, "addr:street": "Kościuszki", "addr:housenumber": "21", "addr:city": "Tomaszów Lubelski", "addr:postcode": "22-600", "amenity": "pharmacy", "name": null, "addr:flats": null }, "geometry": { "type": "Point", "coordinates": [ 23.414143503034939, 50.450904911974938 ] } },
{ "type": "Feature", "properties": { "ref:csioz": 1174461, "addr:street": "Janusza Petera", "addr:housenumber": "2 A", "addr:city": "Tomaszów Lubelski", "addr:postcode": "22-600", "amenity": "pharmacy", "name": "Vita Pharma Centrum Farmaceutyczne", "addr:flats": null }, "geometry": { "type": "Point", "coordinates": [ 23.41779439070222, 50.444162988916553 ] } },
{ "type": "Feature", "properties": { "ref:csioz": 1204815, "addr:street": "Henryka Sienkiewicza", "addr:housenumber": "12", "addr:city": "Tomaszów Lubelski", "addr:postcode": "22-600", "amenity": "pharmacy", "name": "Apteka Specjalistyczna Prima", "addr:flats": "3" }, "geometry": { "type": "Point", "coordinates": [ 23.41454076899646, 50.441314718331043 ] } },
{ "type": "Feature", "properties": { "ref:csioz": 1223955, "addr:street": null, "addr:housenumber": "21", "addr:city": "Wożuczyn", "addr:postcode": "22-640", "amenity": "pharmacy", "name": "Punkt Apteczny Mgr Farm. Iwona Ferenc", "addr:flats": "5" }, "geometry": { "type": "Point", "coordinates": [ 23.571715994256387, 50.565211749560554 ] } },
{ "type": "Feature", "properties": { "ref:csioz": 1106014, "addr:street": "Kościelna", "addr:housenumber": "34", "addr:city": "Tyszowce", "addr:postcode": "22-630", "amenity": "pharmacy", "name": null, "addr:flats": null }, "geometry": { "type": "Point", "coordinates": [ 23.704234547679601, 50.612933964433665 ] } },
{ "type": "Feature", "properties": { "ref:csioz": 1112845, "addr:street": "Józefa Piłsudskiego", "addr:housenumber": "2", "addr:city": "Tomaszów Lubelski", "addr:postcode": "22-600", "amenity": "pharmacy", "name": "Apteka Kresowa", "addr:flats": "3" }, "geometry": { "type": "Point", "coordinates": [ 23.417396614439493, 50.453950104133483 ] } },
{ "type": "Feature", "properties": { "ref:csioz": 1115156, "addr:street": "Kościuszki", "addr:housenumber": "27A", "addr:city": "Tomaszów Lubelski", "addr:postcode": "22-600", "amenity": "pharmacy", "name": null, "addr:flats": null }, "geometry": { "type": "Point", "coordinates": [ 23.41318280394588, 50.451131190488873 ] } },
{ "type": "Feature", "properties": { "ref:csioz": 1154496, "addr:street": "Józefa Piłsudskiego", "addr:housenumber": "3", "addr:city": "Jarczów", "addr:postcode": "22-664", "amenity": "pharmacy", "name": "", "addr:flats": null }, "geometry": { "type": "Point", "coordinates": [ 23.588069583468794, 50.423522169871056 ] } },
{ "type": "Feature", "properties": { "ref:csioz": 1153921, "addr:street": "Lwowska", "addr:housenumber": "42", "addr:city": "Tomaszów Lubelski", "addr:postcode": "22-600", "amenity": "pharmacy", "name": "", "addr:flats": null }, "geometry": { "type": "Point", "coordinates": [ 23.417761476290064, 50.450846765415854 ] } },
{ "type": "Feature", "properties": { "ref:csioz": 1154153, "addr:street": "Piłsudskiego", "addr:housenumber": "2", "addr:city": "Tomaszów Lubelski", "addr:postcode": "22-600", "amenity": "pharmacy", "name": null, "addr:flats": "2" }, "geometry": { "type": "Point", "coordinates": [ 23.418042227146366, 50.453780909079263 ] } },
{ "type": "Feature", "properties": { "ref:csioz": 1154560, "addr:street": "Zamojska", "addr:housenumber": "1", "addr:city": "Lubycza Królewska", "addr:postcode": "22-680", "amenity": "pharmacy", "name": null, "addr:flats": null }, "geometry": { "type": "Point", "coordinates": [ 23.518950000172399, 50.340819000016225 ] } },
{ "type": "Feature", "properties": { "ref:csioz": 1154594, "addr:street": "Partyzantów", "addr:housenumber": "4", "addr:city": "Tyszowce", "addr:postcode": "22-630", "amenity": "pharmacy", "name": null, "addr:flats": null }, "geometry": { "type": "Point", "coordinates": [ 23.697180838020472, 50.618064698345705 ] } },
{ "type": "Feature", "properties": { "ref:csioz": 1154829, "addr:street": "Żwirki i Wigury", "addr:housenumber": "1", "addr:city": "Lubycza Królewska", "addr:postcode": "22-680", "amenity": "pharmacy", "name": "Apteka Mgr Farm. Iwona Ferenc", "addr:flats": null }, "geometry": { "type": "Point", "coordinates": [ 23.520068674224657, 50.341536666775212 ] } },
{ "type": "Feature", "properties": { "ref:csioz": 1154841, "addr:street": null, "addr:housenumber": "84 D", "addr:city": "Krynice", "addr:postcode": "22-610", "amenity": "pharmacy", "name": null, "addr:flats": null }, "geometry": { "type": "Point", "coordinates": [ 23.380826496225769, 50.58630810514893 ] } },
{ "type": "Feature", "properties": { "ref:csioz": 1155054, "addr:street": "Lwowska", "addr:housenumber": "36 c", "addr:city": "Bełżec", "addr:postcode": "22-670", "amenity": "pharmacy", "name": null, "addr:flats": null }, "geometry": { "type": "Point", "coordinates": [ 23.446797921398421, 50.377454941315563 ] } },
{ "type": "Feature", "properties": { "ref:csioz": 1155221, "addr:street": "Lwowska", "addr:housenumber": "75", "addr:city": "Tomaszów Lubelski", "addr:postcode": "22-600", "amenity": "pharmacy", "name": null, "addr:flats": null }, "geometry": { "type": "Point", "coordinates": [ 23.417309381665106, 50.44450924616654 ] } },
{ "type": "Feature", "properties": { "ref:csioz": 1182191, "addr:street": "Chopina", "addr:housenumber": "1", "addr:city": "Łaszczów", "addr:postcode": "22-650", "amenity": "pharmacy", "name": null, "addr:flats": null }, "geometry": { "type": "Point", "coordinates": [ 23.721641235971923, 50.532892164395932 ] } },
{ "type": "Feature", "properties": { "ref:csioz": 1191175, "addr:street": "Jana Matejki", "addr:housenumber": "5", "addr:city": "Tomaszów Lubelski", "addr:postcode": "22-600", "amenity": "pharmacy", "name": "Apteka Kresowa", "addr:flats": "25" }, "geometry": { "type": "Point", "coordinates": [ 23.415256357735437, 50.448050734794379 ] } },
{ "type": "Feature", "properties": { "ref:csioz": 1202703, "addr:street": "Henryka Sienkiewicza", "addr:housenumber": "12", "addr:city": "Tomaszów Lubelski", "addr:postcode": "22-600", "amenity": "pharmacy", "name": "-", "addr:flats": "1" }, "geometry": { "type": "Point", "coordinates": [ 23.414886331402311, 50.441334355583962 ] } },
{ "type": "Feature", "properties": { "ref:csioz": 1208157, "addr:street": "ul. Mickiewicza", "addr:housenumber": "6A", "addr:city": "Tomaszów Lubelski", "addr:postcode": "22-600", "amenity": "pharmacy", "name": "Doz Apteka. Dbam O Zdrowie", "addr:flats": null }, "geometry": { "type": "Point", "coordinates": [ 23.415103000150442, 50.44371500001585 ] } },
{ "type": "Feature", "properties": { "ref:csioz": 1221877, "addr:street": "Czarnieckiego", "addr:housenumber": "18", "addr:city": "Tyszowce", "addr:postcode": "22-630", "amenity": "pharmacy", "name": "Apteka Prima", "addr:flats": null }, "geometry": { "type": "Point", "coordinates": [ 23.701800604970789, 50.615497619153068 ] } },
{ "type": "Feature", "properties": { "ref:csioz": 1154240, "addr:street": "Partyzantów", "addr:housenumber": "2 A", "addr:city": "Susiec", "addr:postcode": "22-672", "amenity": "pharmacy", "name": "Doz Apteka.Dbam O Zdrowie", "addr:flats": null }, "geometry": { "type": "Point", "coordinates": [ 23.219173150402483, 50.41318336763706 ] } },
{ "type": "Feature", "properties": { "ref:csioz": 1154700, "addr:street": "Tomaszowska", "addr:housenumber": "20", "addr:city": "Susiec", "addr:postcode": "22-672", "amenity": "pharmacy", "name": null, "addr:flats": null }, "geometry": { "type": "Point", "coordinates": [ 23.221051932949539, 50.414255995978685 ] } },
{ "type": "Feature", "properties": { "ref:csioz": 1191142, "addr:street": null, "addr:housenumber": "112A", "addr:city": "Majdan Sopocki Pierwszy", "addr:postcode": "22-672", "amenity": "pharmacy", "name": "-", "addr:flats": null }, "geometry": { "type": "Point", "coordinates": [ 23.17351900011214, 50.458349000014913 ] } },
{ "type": "Feature", "properties": { "ref:csioz": 1154425, "addr:street": "Fryderyka Chopina", "addr:housenumber": "3", "addr:city": "Telatyn", "addr:postcode": "22-652", "amenity": "pharmacy", "name": null, "addr:flats": "2" }, "geometry": { "type": "Point", "coordinates": [ 23.842546995818392, 50.526569798173519 ] } }
]
}
