{
    "type": "FeatureCollection",
    "name": "JPT_KOD_JE_0201",
    "features": [
        {
            "type": "Feature",
            "properties": {
                "ref:csioz": 1130787,
                "name": "-",
                "addr:street": "Stefana Starzyńskiego",
                "addr:housenumber": "6e",
                "addr:city": "Bolesławiec",
                "addr:postcode": "59-700",
                "amenity": "pharmacy"
            },
            "geometry": {
                "type": "Point",
                "coordinates": [
                    15.577358999963169,
                    51.25525600001475
                ]
            }
        },
        {
            "type": "Feature",
            "properties": {
                "ref:csioz": 1130798,
                "name": "\"\"\"Pod Klonami\"\"\"",
                "addr:street": "Grunwaldzka",
                "addr:housenumber": "3d",
                "addr:city": "Bolesławiec",
                "addr:postcode": "59-700",
                "amenity": "pharmacy"
            },
            "geometry": {
                "type": "Point",
                "coordinates": [
                    15.560879697881873,
                    51.26441100109824
                ]
            }
        },
        {
            "type": "Feature",
            "properties": {
                "ref:csioz": 1131195,
                "name": "\"\"\"Viola\"\"\"",
                "addr:street": "22 Lipca",
                "addr:housenumber": "27",
                "addr:city": "Wykroty",
                "addr:postcode": "59-730",
                "amenity": "pharmacy"
            },
            "geometry": {
                "type": "Point",
                "coordinates": [
                    15.275194999943567,
                    51.23274000001508
                ]
            }
        },
        {
            "type": "Feature",
            "properties": {
                "ref:csioz": 1131389,
                "name": "Panaceum",
                "addr:street": "Tomaszów Bolesławiecki",
                "addr:housenumber": "23",
                "addr:city": "Tomaszów Bolesławiecki",
                "addr:postcode": "59-255",
                "amenity": "pharmacy"
            },
            "geometry": {
                "type": "Point",
                "coordinates": [
                    15.683481999968526,
                    51.26012400001467
                ]
            }
        },
        {
            "type": "Feature",
            "properties": {
                "ref:csioz": 1131585,
                "name": "\"\"\"W Centrum\"\"\"",
                "addr:street": "Rynek",
                "addr:housenumber": "3",
                "addr:flats": "1",
                "addr:city": "Nowogrodziec",
                "addr:postcode": "59-730",
                "amenity": "pharmacy"
            },
            "geometry": {
                "type": "Point",
                "coordinates": [
                    15.397679999952059,
                    51.19730200001484
                ]
            }
        },
        {
            "type": "Feature",
            "properties": {
                "ref:csioz": 1131786,
                "name": "Rodzinna S.C.",
                "addr:street": "Staszica",
                "addr:housenumber": "27",
                "addr:city": "Bolesławiec",
                "addr:postcode": "59-700",
                "amenity": "pharmacy"
            },
            "geometry": {
                "type": "Point",
                "coordinates": [
                    15.56140233373294,
                    51.270493818641214
                ]
            }
        },
        {
            "type": "Feature",
            "properties": {
                "ref:csioz": 1131987,
                "name": "\"Apteka Cef@Rm 36,6\"",
                "addr:street": "Rynek",
                "addr:housenumber": "7/8",
                "addr:city": "Bolesławiec",
                "addr:postcode": "59-700",
                "amenity": "pharmacy"
            },
            "geometry": {
                "type": "Point",
                "coordinates": [
                    15.564513999962506,
                    51.26267100001476
                ]
            }
        },
        {
            "type": "Feature",
            "properties": {
                "ref:csioz": 1135442,
                "name": "Aloes",
                "addr:housenumber": "59",
                "addr:city": "Raciborowice Dolne",
                "addr:postcode": "59-720",
                "amenity": "pharmacy"
            },
            "geometry": {
                "type": "Point",
                "coordinates": [
                    15.694273301922227,
                    51.196322246888556
                ]
            }
        },
        {
            "type": "Feature",
            "properties": {
                "ref:csioz": 1135450,
                "name": "\"Punkt Apteczny 'Chumed'\"",
                "addr:housenumber": "40d",
                "addr:city": "Warta Bolesławiecka",
                "addr:postcode": "59-722",
                "amenity": "pharmacy"
            },
            "geometry": {
                "type": "Point",
                "coordinates": [
                    15.667414932982956,
                    51.23412512830198
                ]
            }
        },
        {
            "type": "Feature",
            "properties": {
                "ref:csioz": 1136127,
                "name": "Apteka U Nelli",
                "addr:street": "Dolne Młyny",
                "addr:housenumber": "21C",
                "addr:city": "Bolesławiec",
                "addr:postcode": "59-700",
                "amenity": "pharmacy"
            },
            "geometry": {
                "type": "Point",
                "coordinates": [
                    15.557026245393423,
                    51.26549282793583
                ]
            }
        },
        {
            "type": "Feature",
            "properties": {
                "ref:csioz": 1136099,
                "name": "\"Apteka \"\"Pod Klonami +\"\"\"",
                "addr:street": "Adama Asnyka",
                "addr:housenumber": "1",
                "addr:city": "Bolesławiec",
                "addr:postcode": "59-700",
                "amenity": "pharmacy"
            },
            "geometry": {
                "type": "Point",
                "coordinates": [
                    15.568827933803282,
                    51.26270521440477
                ]
            }
        },
        {
            "type": "Feature",
            "properties": {
                "ref:csioz": 1136134,
                "name": "Dr. Max",
                "addr:street": "Kościuszki",
                "addr:housenumber": "15",
                "addr:city": "Bolesławiec",
                "addr:postcode": "59-700",
                "amenity": "pharmacy"
            },
            "geometry": {
                "type": "Point",
                "coordinates": [
                    15.566269999962635,
                    51.270583000014774
                ]
            }
        },
        {
            "type": "Feature",
            "properties": {
                "ref:csioz": 1161161,
                "name": "Szpital Powiatowy",
                "addr:street": "Jeleniogórska",
                "addr:housenumber": "4",
                "addr:city": "Bolesławiec",
                "addr:postcode": "59-700",
                "amenity": "pharmacy"
            },
            "geometry": {
                "type": "Point",
                "coordinates": [
                    15.566941065154069,
                    51.25449259211689
                ]
            }
        },
        {
            "type": "Feature",
            "properties": {
                "ref:csioz": 1202500,
                "name": "Medica",
                "addr:street": "Rynek",
                "addr:housenumber": "21",
                "addr:flats": "lok. 2",
                "addr:city": "Nowogrodziec",
                "addr:postcode": "59-730",
                "amenity": "pharmacy"
            },
            "geometry": {
                "type": "Point",
                "coordinates": [
                    15.397328084561993,
                    51.19680648461923
                ]
            }
        },
        {
            "type": "Feature",
            "properties": {
                "ref:csioz": 1131283,
                "name": "Konwalia",
                "addr:street": "Zebrzydowa",
                "addr:housenumber": "111a",
                "addr:city": "Zebrzydowa",
                "addr:postcode": "59-730",
                "amenity": "pharmacy"
            },
            "geometry": {
                "type": "Point",
                "coordinates": [
                    15.392382650420357,
                    51.25310527009188
                ]
            }
        },
        {
            "type": "Feature",
            "properties": {
                "ref:csioz": 1131366,
                "name": "Paprotka",
                "addr:street": "11 Listopada",
                "addr:housenumber": "22",
                "addr:city": "Gromadka",
                "addr:postcode": "59-527",
                "amenity": "pharmacy"
            },
            "geometry": {
                "type": "Point",
                "coordinates": [
                    15.767933316409023,
                    51.35945485355394
                ]
            }
        },
        {
            "type": "Feature",
            "properties": {
                "ref:csioz": 1131481,
                "name": "Centrum",
                "addr:street": "Karola Miarki",
                "addr:housenumber": "29b",
                "addr:city": "Bolesławiec",
                "addr:postcode": "59-700",
                "amenity": "pharmacy"
            },
            "geometry": {
                "type": "Point",
                "coordinates": [
                    15.56919231059216,
                    51.26003992681187
                ]
            }
        },
        {
            "type": "Feature",
            "properties": {
                "ref:csioz": 1131497,
                "name": "Nova",
                "addr:street": "10 Marca",
                "addr:housenumber": "2",
                "addr:city": "Bolesławiec",
                "addr:postcode": "59-700",
                "amenity": "pharmacy"
            },
            "geometry": {
                "type": "Point",
                "coordinates": [
                    15.552799033440115,
                    51.26420256019878
                ]
            }
        },
        {
            "type": "Feature",
            "properties": {
                "ref:csioz": 1131548,
                "name": "Rumiankowa",
                "addr:street": "Lipowa",
                "addr:housenumber": "5",
                "addr:city": "Nowogrodziec",
                "addr:postcode": "59-730",
                "amenity": "pharmacy"
            },
            "geometry": {
                "type": "Point",
                "coordinates": [
                    15.399869625371204,
                    51.19201533691479
                ]
            }
        },
        {
            "type": "Feature",
            "properties": {
                "ref:csioz": 1131692,
                "name": "Apteka Corax",
                "addr:street": "1000 lecia",
                "addr:housenumber": "34",
                "addr:city": "Bolesławiec",
                "addr:postcode": "59-700",
                "amenity": "pharmacy"
            },
            "geometry": {
                "type": "Point",
                "coordinates": [
                    15.592864133633821,
                    51.26018282408852
                ]
            }
        },
        {
            "type": "Feature",
            "properties": {
                "ref:csioz": 1131863,
                "name": "Quercus",
                "addr:street": "Piaskowa",
                "addr:housenumber": "1A",
                "addr:city": "Osiecznica",
                "addr:postcode": "59-724",
                "amenity": "pharmacy"
            },
            "geometry": {
                "type": "Point",
                "coordinates": [
                    15.41985928395511,
                    51.32553172971841
                ]
            }
        },
        {
            "type": "Feature",
            "properties": {
                "ref:csioz": 1132115,
                "name": "Apteka Targowa",
                "addr:street": "Targowa",
                "addr:housenumber": "4B",
                "addr:city": "Bolesławiec",
                "addr:postcode": "59-700",
                "amenity": "pharmacy"
            },
            "geometry": {
                "type": "Point",
                "coordinates": [
                    15.561252823559837,
                    51.26488327225967
                ]
            }
        },
        {
            "type": "Feature",
            "properties": {
                "ref:csioz": 1136238,
                "name": "Apteka Im. Szymona Fabiana",
                "addr:street": "Adama Asnyka",
                "addr:housenumber": "21",
                "addr:flats": "9a",
                "addr:city": "Bolesławiec",
                "addr:postcode": "59-700",
                "amenity": "pharmacy"
            },
            "geometry": {
                "type": "Point",
                "coordinates": [
                    15.573384870453609,
                    51.26153354282829
                ]
            }
        },
        {
            "type": "Feature",
            "properties": {
                "ref:csioz": 1136479,
                "name": "Dział Farmacji Szpitalnej Chirurgia Jednego Dnia",
                "addr:street": "Piaskowa",
                "addr:housenumber": "15",
                "addr:city": "Bolesławiec",
                "addr:postcode": "59-700",
                "amenity": "pharmacy"
            },
            "geometry": {
                "type": "Point",
                "coordinates": [
                    15.560535984062302,
                    51.262898117895176
                ]
            }
        },
        {
            "type": "Feature",
            "properties": {
                "ref:csioz": 1137814,
                "name": "Apteka Pod Klonami Bis",
                "addr:street": "Dolne Młyny",
                "addr:housenumber": "1",
                "addr:city": "Bolesławiec",
                "addr:postcode": "59-700",
                "amenity": "pharmacy"
            },
            "geometry": {
                "type": "Point",
                "coordinates": [
                    15.558525276476226,
                    51.264517891784244
                ]
            }
        },
        {
            "type": "Feature",
            "properties": {
                "ref:csioz": 1159301,
                "name": "Arnika",
                "addr:street": "Leśna",
                "addr:housenumber": "4",
                "addr:city": "Trzebień",
                "addr:postcode": "59-707",
                "amenity": "pharmacy"
            },
            "geometry": {
                "type": "Point",
                "coordinates": [
                    15.599868169866923,
                    51.3896263589459
                ]
            }
        },
        {
            "type": "Feature",
            "properties": {
                "ref:csioz": 1161173,
                "name": "Wojewódzki Szpital Dla Nerwowo I Psychicznie Chorych -Szpital",
                "addr:street": "Aleja Tysiąclecia",
                "addr:housenumber": "30",
                "addr:city": "Bolesławiec",
                "addr:postcode": "59-700",
                "amenity": "pharmacy"
            },
            "geometry": {
                "type": "Point",
                "coordinates": [
                    15.585854999963633,
                    51.25958500001474
                ]
            }
        },
        {
            "type": "Feature",
            "properties": {
                "ref:csioz": 1212755,
                "name": "Prima",
                "addr:street": "Jeleniogórska",
                "addr:housenumber": "3",
                "addr:flats": "lokal 3",
                "addr:city": "Bolesławiec",
                "addr:postcode": "59-700",
                "amenity": "pharmacy"
            },
            "geometry": {
                "type": "Point",
                "coordinates": [
                    15.567140999962616,
                    51.25574800001474
                ]
            }
        },
        {
            "type": "Feature",
            "properties": {
                "ref:csioz": 1214571,
                "name": "Apteka Centrum",
                "addr:street": "\"Sierpnia '80\"",
                "addr:housenumber": "18",
                "addr:city": "Bolesławiec",
                "addr:postcode": "59-700",
                "amenity": "pharmacy"
            },
            "geometry": {
                "type": "Point",
                "coordinates": [
                    15.56762258807739,
                    51.26255164974264
                ]
            }
        },
        {
            "type": "Feature",
            "properties": {
                "ref:csioz": 1217751,
                "name": "Apteka Dr. Optima",
                "addr:street": "ul. Komuny Paryskiej",
                "addr:housenumber": "\"12,13,13a\"",
                "addr:flats": "lokal 6",
                "addr:city": "Bolesławiec",
                "addr:postcode": "59-700",
                "amenity": "pharmacy"
            },
            "geometry": {
                "type": "Point",
                "coordinates": [
                    15.56412217781653,
                    51.25904524889735
                ]
            }
        },
        {
            "type": "Feature",
            "properties": {
                "ref:csioz": 1220089,
                "name": "Dział Farmacji Szpitalnej Zespół Zakładów Opieki Zdrowotnej",
                "addr:street": "Lubańska",
                "addr:housenumber": "16",
                "addr:city": "Nowogrodziec",
                "addr:postcode": "59-730",
                "amenity": "pharmacy"
            },
            "geometry": {
                "type": "Point",
                "coordinates": [
                    15.394509910281908,
                    51.19643616350727
                ]
            }
        },
        {
            "type": "Feature",
            "properties": {
                "ref:csioz": 1131710,
                "name": "Dr. Max",
                "addr:street": "Tysiąclecia",
                "addr:housenumber": "49",
                "addr:city": "Bolesławiec",
                "addr:postcode": "59-700",
                "amenity": "pharmacy"
            },
            "geometry": {
                "type": "Point",
                "coordinates": [
                    15.59110188995875,
                    51.26186350933557
                ]
            }
        },
        {
            "type": "Feature",
            "properties": {
                "ref:csioz": 1175150,
                "name": "Z Plusem",
                "addr:street": "Zgorzelecka",
                "addr:housenumber": "30",
                "addr:city": "Bolesławiec",
                "addr:postcode": "59-700",
                "amenity": "pharmacy"
            },
            "geometry": {
                "type": "Point",
                "coordinates": [
                    15.557479444748868,
                    51.26458253334868
                ]
            }
        },
        {
            "type": "Feature",
            "properties": {
                "ref:csioz": 1135469,
                "name": "\"Punkt Apteczny 'Dbam O Zdrowie'\"",
                "addr:street": "Szkolna",
                "addr:housenumber": "13",
                "addr:city": "Świętoszów",
                "addr:postcode": "59-726",
                "amenity": "pharmacy"
            },
            "geometry": {
                "type": "Point",
                "coordinates": [
                    15.387718508491465,
                    51.47569736226693
                ]
            }
        }
    ]
}