{
"type": "FeatureCollection",
"name": "JPT_KOD_JE_1801",
"features": [
{ "type": "Feature", "properties": { "ref:csioz": 1140493, "addr:street": "Dworcowa", "addr:housenumber": "2", "addr:city": "Ustrzyki Dolne", "addr:postcode": "38-700", "amenity": "pharmacy", "name": "\"Apteka Cef@Rm 36,6\"" }, "geometry": { "type": "Point", "coordinates": [ 22.595656405297571, 49.429904908243678 ] } },
{ "type": "Feature", "properties": { "ref:csioz": 1140516, "addr:street": "Rynek", "addr:housenumber": "12", "addr:city": "Ustrzyki Dolne", "addr:postcode": "38-700", "amenity": "pharmacy", "name": "Eskulap" }, "geometry": { "type": "Point", "coordinates": [ 22.588083595315691, 49.430621294004865 ] } },
{ "type": "Feature", "properties": { "ref:csioz": 1140527, "addr:street": "Rynek", "addr:housenumber": "20", "addr:city": "Ustrzyki Dolne", "addr:postcode": "38-700", "amenity": "pharmacy", "name": "\"Apteka Cef@Rm 36,6\"" }, "geometry": { "type": "Point", "coordinates": [ 22.587546656266124, 49.429542813031489 ] } },
{ "type": "Feature", "properties": { "ref:csioz": 1140534, "addr:housenumber": "75", "addr:city": "Czarna GÃ³rna", "addr:postcode": "38-710", "amenity": "pharmacy" }, "geometry": { "type": "Point", "coordinates": [ 22.669042070059152, 49.324073346360152 ] } },
{ "type": "Feature", "properties": { "ref:csioz": 1140542, "addr:housenumber": "83", "addr:city": "Lutowiska", "addr:postcode": "38-713", "amenity": "pharmacy", "name": "Remedium", "addr:flats": "2" }, "geometry": { "type": "Point", "coordinates": [ 22.692474780223694, 49.253607072975036 ] } },
{ "type": "Feature", "properties": { "ref:csioz": 1201287, "addr:street": "29 Listopada", "addr:housenumber": "42", "addr:city": "Ustrzyki Dolne", "addr:postcode": "38-700", "amenity": "pharmacy", "name": "Na Rogu" }, "geometry": { "type": "Point", "coordinates": [ 22.601905340084269, 49.431596161386871 ] } },
{ "type": "Feature", "properties": { "ref:csioz": 1185716, "addr:street": "PCK", "addr:housenumber": "19", "addr:city": "Ustrzyki Dolne", "addr:postcode": "38-700", "amenity": "pharmacy", "name": "Omega" }, "geometry": { "type": "Point", "coordinates": [ 22.570725184617157, 49.434972169891715 ] } },
{ "type": "Feature", "properties": { "ref:csioz": 1140503, "addr:street": "Rynek", "addr:housenumber": "3", "addr:city": "Ustrzyki Dolne", "addr:postcode": "38-700", "amenity": "pharmacy", "name": "Dr.Max" }, "geometry": { "type": "Point", "coordinates": [ 22.58688002486171, 49.429677781611474 ] } }
]
}
