{
"type": "FeatureCollection",
"name": "JPT_KOD_JE_1806",
"features": [
{ "type": "Feature", "properties": { "ref:csioz": 1125540, "addr:housenumber": "238b", "addr:flats": "1", "addr:city": "Cmolas", "addr:postcode": "36-105", "amenity": "pharmacy" }, "geometry": { "type": "Point", "coordinates": [ 21.744470286489612, 50.293523695696038 ] } },
{ "type": "Feature", "properties": { "ref:csioz": 1144660, "addr:housenumber": "35", "addr:flats": "4", "addr:city": "Majdan Królewski", "addr:postcode": "36-110", "amenity": "pharmacy", "name": "Polska", "addr:street": "Rynek" }, "geometry": { "type": "Point", "coordinates": [ 21.745354000013627, 50.37646900001311 ] } },
{ "type": "Feature", "properties": { "ref:csioz": 1144671, "addr:housenumber": "6", "addr:city": "Majdan Królewski", "addr:postcode": "36-110", "amenity": "pharmacy", "name": "Maxpharma", "addr:street": "Rzeszowska" }, "geometry": { "type": "Point", "coordinates": [ 21.746285114066428, 50.374801933374776 ] } },
{ "type": "Feature", "properties": { "ref:csioz": 1145089, "addr:housenumber": "431", "addr:city": "Niwiska", "addr:postcode": "36-147", "amenity": "pharmacy" }, "geometry": { "type": "Point", "coordinates": [ 21.638900290936622, 50.225999679218553 ] } },
{ "type": "Feature", "properties": { "ref:csioz": 1145090, "addr:housenumber": "12", "addr:city": "Nowy Dzikowiec", "addr:postcode": "36-122", "amenity": "pharmacy", "name": "Verbena", "addr:street": "Wiosenna" }, "geometry": { "type": "Point", "coordinates": [ 21.86492856116422, 50.269972008232699 ] } },
{ "type": "Feature", "properties": { "ref:csioz": 1145106, "addr:housenumber": "3A", "addr:city": "Raniżów", "addr:postcode": "36-130", "amenity": "pharmacy", "name": "\"Apteka \"\"Pharma\"\"\"", "addr:street": "Rynek" }, "geometry": { "type": "Point", "coordinates": [ 21.972410913977868, 50.259179860425519 ] } },
{ "type": "Feature", "properties": { "ref:csioz": 1145053, "addr:housenumber": "6", "addr:city": "Kolbuszowa", "addr:postcode": "36-100", "amenity": "pharmacy", "name": "Apteka Dr. Optima Hurtowe Czwartki", "addr:street": "Rzeszowska" }, "geometry": { "type": "Point", "coordinates": [ 21.778655702845384, 50.242790916581875 ] } },
{ "type": "Feature", "properties": { "ref:csioz": 1138198, "addr:housenumber": "4", "addr:city": "Kolbuszowa", "addr:postcode": "36-100", "amenity": "pharmacy", "name": "Apteka Szpitalna", "addr:street": "Grunwaldzka" }, "geometry": { "type": "Point", "coordinates": [ 21.762485313488209, 50.242558018919652 ] } },
{ "type": "Feature", "properties": { "ref:csioz": 1145028, "addr:housenumber": "17", "addr:city": "Kolbuszowa", "addr:postcode": "36-100", "amenity": "pharmacy", "addr:street": "Obrońców Pokoju" }, "geometry": { "type": "Point", "coordinates": [ 21.770563028305588, 50.24230891460941 ] } },
{ "type": "Feature", "properties": { "ref:csioz": 1145111, "addr:housenumber": "213", "addr:city": "Widełka", "addr:postcode": "36-145", "amenity": "pharmacy", "name": "Arnika" }, "geometry": { "type": "Point", "coordinates": [ 21.886753322006136, 50.203304128569677 ] } },
{ "type": "Feature", "properties": { "ref:csioz": 1145122, "addr:housenumber": "315", "addr:city": "Wola Raniżowska", "addr:postcode": "36-125", "amenity": "pharmacy" }, "geometry": { "type": "Point", "coordinates": [ 21.953942818205928, 50.294741292065254 ] } },
{ "type": "Feature", "properties": { "ref:csioz": 1165518, "addr:housenumber": "3", "addr:city": "Kolbuszowa", "addr:postcode": "36-100", "amenity": "pharmacy", "name": "Różana", "addr:street": "11 Listopada" }, "geometry": { "type": "Point", "coordinates": [ 21.778896000014644, 50.245828000012914 ] } },
{ "type": "Feature", "properties": { "ref:csioz": 1187821, "addr:housenumber": "20", "addr:city": "Kolbuszowa", "addr:postcode": "36-100", "amenity": "pharmacy", "name": "Apteka Mojej Mamy", "addr:street": "Obrońców Pokoju" }, "geometry": { "type": "Point", "coordinates": [ 21.771854183787337, 50.242811496861172 ] } },
{ "type": "Feature", "properties": { "ref:csioz": 1172228, "addr:housenumber": "5", "addr:city": "Kolbuszowa Dolna", "addr:postcode": "36-100", "amenity": "pharmacy", "name": "Zdrowie", "addr:street": "Tyszkiewiczów" }, "geometry": { "type": "Point", "coordinates": [ 21.779333317794187, 50.248170443392709 ] } },
{ "type": "Feature", "properties": { "ref:csioz": 1209668, "addr:housenumber": "11", "addr:city": "Kolbuszowa", "addr:postcode": "36-100", "amenity": "pharmacy", "name": "Medimo", "addr:street": "11 Listopada" }, "geometry": { "type": "Point", "coordinates": [ 21.780459519018926, 50.246220528321928 ] } },
{ "type": "Feature", "properties": { "ref:csioz": 1230754, "addr:housenumber": "201", "addr:city": "Siedlanka", "addr:postcode": "36-147", "amenity": "pharmacy", "name": "Punkt Apteczny Gemi" }, "geometry": { "type": "Point", "coordinates": [ 21.676470131112023, 50.259057660365933 ] } }
]
}
