{
    "type": "FeatureCollection",
    "name": "JPT_KOD_JE_2205",
    "features": [
        {
            "type": "Feature",
            "properties": {
                "ref:csioz": 1031977,
                "name": "Starowiejska",
                "addr:street": "Słupska",
                "addr:housenumber": "4",
                "addr:city": "Sierakowice",
                "addr:postcode": "83-240",
                "amenity": "pharmacy"
            },
            "geometry": {
                "type": "Point",
                "coordinates": [
                    17.89095411152047,
                    54.34605642208017
                ]
            }
        },
        {
            "type": "Feature",
            "properties": {
                "ref:csioz": 1033979,
                "name": "Punkt Apteczny Dbam O Zdrowie",
                "addr:housenumber": "11",
                "addr:city": "Sianowo",
                "addr:postcode": "83-328",
                "amenity": "pharmacy"
            },
            "geometry": {
                "type": "Point",
                "coordinates": [
                    18.08837301283875,
                    54.388717759662
                ]
            }
        },
        {
            "type": "Feature",
            "properties": {
                "ref:csioz": 1199962,
                "name": "Apteka Aleppo",
                "addr:street": "Kartuska",
                "addr:housenumber": "14 A",
                "addr:city": "Sierakowice",
                "addr:postcode": "83-340",
                "amenity": "pharmacy"
            },
            "geometry": {
                "type": "Point",
                "coordinates": [
                    17.894102368096615,
                    54.34356351074109
                ]
            }
        },
        {
            "type": "Feature",
            "properties": {
                "ref:csioz": 1225520,
                "name": "Apteka Nasze Zdrowie",
                "addr:street": "Kartuska",
                "addr:housenumber": "34",
                "addr:city": "Miechucino",
                "addr:postcode": "83-334",
                "amenity": "pharmacy"
            },
            "geometry": {
                "type": "Point",
                "coordinates": [
                    18.020594806016355,
                    54.340075923569906
                ]
            }
        },
        {
            "type": "Feature",
            "properties": {
                "ref:csioz": 1031915,
                "name": "Pod Orłem",
                "addr:street": "Słupska",
                "addr:housenumber": "3",
                "addr:city": "Sierakowice",
                "addr:postcode": "83-340",
                "amenity": "pharmacy"
            },
            "geometry": {
                "type": "Point",
                "coordinates": [
                    17.89120652703393,
                    54.34582421270516
                ]
            }
        },
        {
            "type": "Feature",
            "properties": {
                "ref:csioz": 1031928,
                "name": "Nova",
                "addr:street": "Lęborska",
                "addr:housenumber": "27",
                "addr:city": "Sierakowice",
                "addr:postcode": "83-340",
                "amenity": "pharmacy"
            },
            "geometry": {
                "type": "Point",
                "coordinates": [
                    17.890271583945115,
                    54.34952372810348
                ]
            }
        },
        {
            "type": "Feature",
            "properties": {
                "ref:csioz": 1210340,
                "name": "Apteka Kartuska",
                "addr:street": "Trojana",
                "addr:housenumber": "1",
                "addr:city": "Chmielno",
                "addr:postcode": "83-333",
                "amenity": "pharmacy"
            },
            "geometry": {
                "type": "Point",
                "coordinates": [
                    18.101813713168703,
                    54.32726838957168
                ]
            }
        },
        {
            "type": "Feature",
            "properties": {
                "ref:csioz": 1033172,
                "name": "Apteka Żukowska I",
                "addr:street": "Gdyńska",
                "addr:housenumber": "22D",
                "addr:city": "Żukowo",
                "addr:postcode": "83-330",
                "amenity": "pharmacy"
            },
            "geometry": {
                "type": "Point",
                "coordinates": [
                    18.36555002745208,
                    54.34682001726336
                ]
            }
        },
        {
            "type": "Feature",
            "properties": {
                "ref:csioz": 1027594,
                "name": "Apteka Dbam O Zdrowie",
                "addr:street": "Pożarna",
                "addr:housenumber": "6",
                "addr:city": "Żukowo",
                "addr:postcode": "83-330",
                "amenity": "pharmacy"
            },
            "geometry": {
                "type": "Point",
                "coordinates": [
                    18.365938836710058,
                    54.34576140178342
                ]
            }
        },
        {
            "type": "Feature",
            "properties": {
                "ref:csioz": 1027855,
                "name": "Im. T. Kościuszki",
                "addr:street": "Tadeusza Kościuszki",
                "addr:housenumber": "17",
                "addr:city": "Kartuzy",
                "addr:postcode": "83-300",
                "amenity": "pharmacy"
            },
            "geometry": {
                "type": "Point",
                "coordinates": [
                    18.202138153914248,
                    54.333006806473485
                ]
            }
        },
        {
            "type": "Feature",
            "properties": {
                "ref:csioz": 1031098,
                "name": "Panaceum",
                "addr:street": "Gdańska",
                "addr:housenumber": "1A",
                "addr:city": "Przodkowo",
                "addr:postcode": "83-304",
                "amenity": "pharmacy"
            },
            "geometry": {
                "type": "Point",
                "coordinates": [
                    18.288521186519716,
                    54.380124842341175
                ]
            }
        },
        {
            "type": "Feature",
            "properties": {
                "ref:csioz": 1031318,
                "name": "Apteka Dbam O Zdrowie",
                "addr:street": "Rynek",
                "addr:housenumber": "10",
                "addr:city": "Kartuzy",
                "addr:postcode": "83-300",
                "amenity": "pharmacy"
            },
            "geometry": {
                "type": "Point",
                "coordinates": [
                    18.201537625296012,
                    54.33397457445316
                ]
            }
        },
        {
            "type": "Feature",
            "properties": {
                "ref:csioz": 1032370,
                "name": "W Baninie",
                "addr:street": "Klonowa",
                "addr:housenumber": "25",
                "addr:city": "Banino",
                "addr:postcode": "80-297",
                "amenity": "pharmacy"
            },
            "geometry": {
                "type": "Point",
                "coordinates": [
                    18.407364302229567,
                    54.39280855562741
                ]
            }
        },
        {
            "type": "Feature",
            "properties": {
                "ref:csioz": 1032920,
                "name": "Kaszubska",
                "addr:street": "Lotnicza",
                "addr:housenumber": "62",
                "addr:city": "Banino",
                "addr:postcode": "80-297",
                "amenity": "pharmacy"
            },
            "geometry": {
                "type": "Point",
                "coordinates": [
                    18.396220677371698,
                    54.39362389164128
                ]
            }
        },
        {
            "type": "Feature",
            "properties": {
                "ref:csioz": 1032973,
                "name": "Dom Leków",
                "addr:street": "Floriana Ceynowy",
                "addr:housenumber": "8",
                "addr:city": "Kartuzy",
                "addr:postcode": "83-300",
                "amenity": "pharmacy"
            },
            "geometry": {
                "type": "Point",
                "coordinates": [
                    18.198280084242118,
                    54.337310526828624
                ]
            }
        },
        {
            "type": "Feature",
            "properties": {
                "ref:csioz": 1139575,
                "name": "Apteka Szpitalna W Niepublicznym Zakładzie Opieki Zdrowotnej Im. Dr Aleksandra Majkowskiego",
                "addr:street": "Floriana Ceynowy",
                "addr:housenumber": "7",
                "addr:city": "Kartuzy",
                "addr:postcode": "83-300",
                "amenity": "pharmacy"
            },
            "geometry": {
                "type": "Point",
                "coordinates": [
                    18.1979928165057,
                    54.336785348492434
                ]
            }
        },
        {
            "type": "Feature",
            "properties": {
                "ref:csioz": 1029854,
                "name": "Im. Św. Huberta",
                "addr:street": "gen. Józefa Wybickiego",
                "addr:housenumber": "3A",
                "addr:city": "Kartuzy",
                "addr:postcode": "83-300",
                "amenity": "pharmacy"
            },
            "geometry": {
                "type": "Point",
                "coordinates": [
                    18.195479905043015,
                    54.32672679850416
                ]
            }
        },
        {
            "type": "Feature",
            "properties": {
                "ref:csioz": 1029865,
                "name": "Im. Dr. Majkowskiego",
                "addr:street": "3 Maja",
                "addr:housenumber": "13",
                "addr:city": "Kartuzy",
                "addr:postcode": "83-300",
                "amenity": "pharmacy"
            },
            "geometry": {
                "type": "Point",
                "coordinates": [
                    18.20105898776614,
                    54.335014352152804
                ]
            }
        },
        {
            "type": "Feature",
            "properties": {
                "ref:csioz": 1031065,
                "name": "Rodzinna",
                "addr:street": "Gdyńska",
                "addr:housenumber": "50",
                "addr:city": "Żukowo",
                "addr:postcode": "83-330",
                "amenity": "pharmacy"
            },
            "geometry": {
                "type": "Point",
                "coordinates": [
                    18.36682491774432,
                    54.3505643107844
                ]
            }
        },
        {
            "type": "Feature",
            "properties": {
                "ref:csioz": 1031136,
                "name": "Żukowska",
                "addr:street": "Pożarna",
                "addr:housenumber": "2A",
                "addr:city": "Żukowo",
                "addr:postcode": "83-330",
                "amenity": "pharmacy"
            },
            "geometry": {
                "type": "Point",
                "coordinates": [
                    18.3651342019075,
                    54.34536707762926
                ]
            }
        },
        {
            "type": "Feature",
            "properties": {
                "ref:csioz": 1031245,
                "name": "Św. Marcina",
                "addr:street": "Kartuska",
                "addr:housenumber": "24",
                "addr:city": "Przodkowo",
                "addr:postcode": "83-304",
                "amenity": "pharmacy"
            },
            "geometry": {
                "type": "Point",
                "coordinates": [
                    18.286959856396106,
                    54.37691207568084
                ]
            }
        },
        {
            "type": "Feature",
            "properties": {
                "ref:csioz": 1031326,
                "name": "Apteka Dbam O Zdrowie",
                "addr:street": "Gdańska",
                "addr:housenumber": "40",
                "addr:city": "Żukowo",
                "addr:postcode": "83-330",
                "amenity": "pharmacy"
            },
            "geometry": {
                "type": "Point",
                "coordinates": [
                    18.36538526441791,
                    54.34215686846665
                ]
            }
        },
        {
            "type": "Feature",
            "properties": {
                "ref:csioz": 1031891,
                "name": "Zdrowie",
                "addr:street": "Gdańska",
                "addr:housenumber": "59A",
                "addr:city": "Żukowo",
                "addr:postcode": "83-330",
                "amenity": "pharmacy"
            },
            "geometry": {
                "type": "Point",
                "coordinates": [
                    18.351801377016592,
                    54.33999151767975
                ]
            }
        },
        {
            "type": "Feature",
            "properties": {
                "ref:csioz": 1033408,
                "name": "Mściwoja Ii",
                "addr:street": "Mściwoja II",
                "addr:housenumber": "13",
                "addr:city": "Kartuzy",
                "addr:postcode": "83-300",
                "amenity": "pharmacy"
            },
            "geometry": {
                "type": "Point",
                "coordinates": [
                    18.201627955226336,
                    54.340641309021414
                ]
            }
        },
        {
            "type": "Feature",
            "properties": {
                "ref:csioz": 1033613,
                "name": "Nad Jarem",
                "addr:street": "Piwna",
                "addr:housenumber": "2A",
                "addr:city": "Borowo",
                "addr:postcode": "83-332",
                "amenity": "pharmacy"
            },
            "geometry": {
                "type": "Point",
                "coordinates": [
                    18.294964999999664,
                    54.32056100001929
                ]
            }
        },
        {
            "type": "Feature",
            "properties": {
                "ref:csioz": 1033621,
                "name": "Apteka W Chwaszczynie",
                "addr:street": "Oliwska",
                "addr:housenumber": "135",
                "addr:flats": "2",
                "addr:city": "Chwaszczyno",
                "addr:postcode": "80-209",
                "amenity": "pharmacy"
            },
            "geometry": {
                "type": "Point",
                "coordinates": [
                    18.41905858271424,
                    54.44330053836523
                ]
            }
        },
        {
            "type": "Feature",
            "properties": {
                "ref:csioz": 1172622,
                "name": "Św. Jana",
                "addr:street": "Pszenna",
                "addr:housenumber": "112 A",
                "addr:city": "Banino",
                "addr:postcode": "80-297",
                "amenity": "pharmacy"
            },
            "geometry": {
                "type": "Point",
                "coordinates": [
                    18.383283162545055,
                    54.38810062104713
                ]
            }
        },
        {
            "type": "Feature",
            "properties": {
                "ref:csioz": 1181961,
                "name": "Przystanek Apteka",
                "addr:street": "Oliwska",
                "addr:housenumber": "145",
                "addr:city": "Chwaszczyno",
                "addr:postcode": "80-209",
                "amenity": "pharmacy"
            },
            "geometry": {
                "type": "Point",
                "coordinates": [
                    18.416141014689202,
                    54.44318112369735
                ]
            }
        },
        {
            "type": "Feature",
            "properties": {
                "ref:csioz": 1199571,
                "name": "Przystanek Apteka",
                "addr:street": "Gdańska",
                "addr:housenumber": "16 B",
                "addr:city": "Przodkowo",
                "addr:postcode": "83-304",
                "amenity": "pharmacy"
            },
            "geometry": {
                "type": "Point",
                "coordinates": [
                    18.288962999999654,
                    54.37931500001938
                ]
            }
        },
        {
            "type": "Feature",
            "properties": {
                "ref:csioz": 1216854,
                "name": "Dom Leków",
                "addr:street": "Gdańska",
                "addr:housenumber": "14",
                "addr:city": "Kartuzy",
                "addr:postcode": "83-300",
                "amenity": "pharmacy"
            },
            "geometry": {
                "type": "Point",
                "coordinates": [
                    18.201719353300902,
                    54.33115603572738
                ]
            }
        },
        {
            "type": "Feature",
            "properties": {
                "ref:csioz": 1225817,
                "name": "Apteka Na Deptaku Nawrocki Sp. Jawna",
                "addr:street": "Dworcowa",
                "addr:housenumber": "4",
                "addr:city": "Kartuzy",
                "addr:postcode": "83-300",
                "amenity": "pharmacy"
            },
            "geometry": {
                "type": "Point",
                "coordinates": [
                    18.200821025981888,
                    54.3337115456723
                ]
            }
        },
        {
            "type": "Feature",
            "properties": {
                "ref:csioz": 1226011,
                "name": "Punkt Apteczny Pod Gryfem",
                "addr:street": "Armii Krajowej",
                "addr:housenumber": "2",
                "addr:city": "Pępowo",
                "addr:postcode": "83-330",
                "amenity": "pharmacy"
            },
            "geometry": {
                "type": "Point",
                "coordinates": [
                    18.39699537057376,
                    54.36738137120215
                ]
            }
        },
        {
            "type": "Feature",
            "properties": {
                "ref:csioz": 1030236,
                "name": "Kaszubska",
                "addr:street": "Kaszubska",
                "addr:housenumber": "22 B",
                "addr:city": "Sulęczyno",
                "addr:postcode": "83-320",
                "amenity": "pharmacy"
            },
            "geometry": {
                "type": "Point",
                "coordinates": [
                    17.774699460988355,
                    54.2309450433337
                ]
            }
        },
        {
            "type": "Feature",
            "properties": {
                "ref:csioz": 1032264,
                "name": "Pod Wieżycą",
                "addr:street": "ks. Franciszka Motylewskiego",
                "addr:housenumber": "17",
                "addr:city": "Szymbark",
                "addr:postcode": "83-315",
                "amenity": "pharmacy"
            },
            "geometry": {
                "type": "Point",
                "coordinates": [
                    18.101347071871597,
                    54.21895824391065
                ]
            }
        },
        {
            "type": "Feature",
            "properties": {
                "ref:csioz": 1034066,
                "name": "Nad Strugą",
                "addr:street": "Młyńska",
                "addr:housenumber": "5",
                "addr:city": "Gołubie",
                "addr:postcode": "83-322",
                "amenity": "pharmacy"
            },
            "geometry": {
                "type": "Point",
                "coordinates": [
                    18.029779452750446,
                    54.21273830730959
                ]
            }
        },
        {
            "type": "Feature",
            "properties": {
                "ref:csioz": 1116424,
                "name": "Przy Przychodni",
                "addr:street": "Bernarda Sychty",
                "addr:housenumber": "32",
                "addr:city": "Stężyca",
                "addr:postcode": "83-322",
                "amenity": "pharmacy"
            },
            "geometry": {
                "type": "Point",
                "coordinates": [
                    17.94633728804135,
                    54.210132242380396
                ]
            }
        },
        {
            "type": "Feature",
            "properties": {
                "ref:csioz": 1033692,
                "addr:street": "Józefa Wybickiego",
                "addr:housenumber": "4",
                "addr:city": "Klukowa Huta",
                "addr:postcode": "83-322",
                "amenity": "pharmacy"
            },
            "geometry": {
                "type": "Point",
                "coordinates": [
                    17.896692481663962,
                    54.24051356202501
                ]
            }
        },
        {
            "type": "Feature",
            "properties": {
                "ref:csioz": 1178909,
                "addr:street": "Długa",
                "addr:housenumber": "19",
                "addr:city": "Kamienica Szlachecka",
                "addr:postcode": "83-323",
                "amenity": "pharmacy"
            },
            "geometry": {
                "type": "Point",
                "coordinates": [
                    17.946655817894303,
                    54.27172432897647
                ]
            }
        },
        {
            "type": "Feature",
            "properties": {
                "ref:csioz": 1031931,
                "name": "Św. Pawła",
                "addr:street": "Długa",
                "addr:housenumber": "36D",
                "addr:city": "Kiełpino",
                "addr:postcode": "83-307",
                "amenity": "pharmacy"
            },
            "geometry": {
                "type": "Point",
                "coordinates": [
                    18.220015714260068,
                    54.28916919667702
                ]
            }
        },
        {
            "type": "Feature",
            "properties": {
                "ref:csioz": 1181076,
                "name": "Apteka Im. Dr Ceynowy",
                "addr:street": "Ceynowy",
                "addr:housenumber": "20",
                "addr:city": "Somonino",
                "addr:postcode": "83-314",
                "amenity": "pharmacy"
            },
            "geometry": {
                "type": "Point",
                "coordinates": [
                    18.19424039821061,
                    54.271786010630926
                ]
            }
        },
        {
            "type": "Feature",
            "properties": {
                "ref:csioz": 1215451,
                "name": "\"Dział Farmacji Szpitalnej W Zakładzie Leczniczym: Zakład Rehabilitacji Leczniczej 'Wieżyca'\"",
                "addr:housenumber": "29",
                "addr:city": "Wieżyca",
                "addr:postcode": "83-315",
                "amenity": "pharmacy"
            },
            "geometry": {
                "type": "Point",
                "coordinates": [
                    18.105147685911543,
                    54.234593487639295
                ]
            }
        },
        {
            "type": "Feature",
            "properties": {
                "ref:csioz": 1230180,
                "name": "Przystanek Apteka",
                "addr:street": "Spółdzielców",
                "addr:housenumber": "1",
                "addr:city": "Somonino",
                "addr:postcode": "83-314",
                "amenity": "pharmacy"
            },
            "geometry": {
                "type": "Point",
                "coordinates": [
                    18.203630099287068,
                    54.2852434557547
                ]
            }
        }
    ]
}
