{
"type": "FeatureCollection",
"name": "JPT_KOD_JE_2613",
"features": [
{ "type": "Feature", "properties": { "ref:csioz": 1000593, "name": "Doz Apteka. Dbam O Zdrowie.", "addr:street": "Wiśniowa", "addr:housenumber": "27", "addr:city": "Włoszczowa", "addr:postcode": "29-100", "amenity": "pharmacy" }, "geometry": { "type": "Point", "coordinates": [ 19.980701794580533, 50.845600959223468 ] } },
{ "type": "Feature", "properties": { "ref:csioz": 1000821, "addr:street": "1 Maja", "addr:housenumber": "8", "addr:city": "Krasocin", "addr:postcode": "29-105", "amenity": "pharmacy" }, "geometry": { "type": "Point", "coordinates": [ 20.125370059266228, 50.886722620904386 ] } },
{ "type": "Feature", "properties": { "ref:csioz": 1001061, "addr:housenumber": "42", "addr:city": "Moskorzew", "addr:postcode": "29-130", "amenity": "pharmacy" }, "geometry": { "type": "Point", "coordinates": [ 19.931643586218577, 50.646020408308871 ] } },
{ "type": "Feature", "properties": { "ref:csioz": 1002688, "name": "Doz Apteka. Dbam O Zdrowie. Farmex.", "addr:street": "Mleczarska", "addr:housenumber": "11", "addr:city": "Włoszczowa", "addr:postcode": "29-100", "amenity": "pharmacy" }, "geometry": { "type": "Point", "coordinates": [ 19.966800000000347, 50.854453000013734 ] } },
{ "type": "Feature", "properties": { "ref:csioz": 1003677, "name": "Apteka Źródlana", "addr:street": "16 Stycznia", "addr:housenumber": "32", "addr:city": "Chlewice", "addr:postcode": "29-130", "amenity": "pharmacy" }, "geometry": { "type": "Point", "coordinates": [ 19.998082695847419, 50.653258556345676 ] } },
{ "type": "Feature", "properties": { "ref:csioz": 1003872, "addr:street": "Osiedle Władysława Broniewskiego", "addr:housenumber": "14", "addr:city": "Włoszczowa", "addr:postcode": "29-100", "amenity": "pharmacy" }, "geometry": { "type": "Point", "coordinates": [ 19.972450056176235, 50.849599338530808 ] } },
{ "type": "Feature", "properties": { "ref:csioz": 1004415, "addr:housenumber": "99", "addr:city": "Radków", "addr:postcode": "29-135", "amenity": "pharmacy" }, "geometry": { "type": "Point", "coordinates": [ 19.983436706052942, 50.713619708609095 ] } },
{ "type": "Feature", "properties": { "ref:csioz": 1004444, "addr:street": "Spółdzielcza", "addr:housenumber": "12", "addr:city": "Kluczewsko", "addr:postcode": "29-120", "amenity": "pharmacy" }, "geometry": { "type": "Point", "coordinates": [ 19.917879293265106, 50.927148633054479 ] } },
{ "type": "Feature", "properties": { "ref:csioz": 1004523, "name": "Doz Punkt Apteczny. Dbam O Zdrowie. Farmex.", "addr:street": "Osiedlowa", "addr:housenumber": "23", "addr:city": "Bukowa", "addr:postcode": "29-105", "amenity": "pharmacy" }, "geometry": { "type": "Point", "coordinates": [ 20.200735865238372, 50.863912252380906 ] } },
{ "type": "Feature", "properties": { "ref:csioz": 1004848, "addr:street": "Kielecka", "addr:housenumber": "17", "addr:city": "Oleszno", "addr:postcode": "29-105", "amenity": "pharmacy" }, "geometry": { "type": "Point", "coordinates": [ 20.049896666575709, 50.939371819699083 ] } },
{ "type": "Feature", "properties": { "ref:csioz": 1116481, "name": "Apteka Codzienna", "addr:street": "Wolności", "addr:housenumber": "6", "addr:city": "Włoszczowa", "addr:postcode": "29-100", "amenity": "pharmacy" }, "geometry": { "type": "Point", "coordinates": [ 19.967514442671657, 50.851815068245834 ] } },
{ "type": "Feature", "properties": { "ref:csioz": 1003340, "name": "Plus", "addr:street": "Żeromskiego", "addr:housenumber": "28", "addr:city": "Włoszczowa", "addr:postcode": "29-100", "amenity": "pharmacy" }, "geometry": { "type": "Point", "coordinates": [ 19.973304215983234, 50.846888468297088 ] } },
{ "type": "Feature", "properties": { "ref:csioz": 1195548, "name": "\"Punkt Apteczny \"\"Amicus\"\"\"", "addr:housenumber": "150", "addr:city": "Radków", "addr:postcode": "29-135", "amenity": "pharmacy" }, "geometry": { "type": "Point", "coordinates": [ 19.98048800000036, 50.713291000013527 ] } },
{ "type": "Feature", "properties": { "ref:csioz": 1210256, "name": "Apteka Pod Kasztanem", "addr:street": "ul. Spółdzielcza", "addr:housenumber": "10", "addr:city": "Kluczewsko", "addr:postcode": "29-120", "amenity": "pharmacy" }, "geometry": { "type": "Point", "coordinates": [ 19.915877903320713, 50.926175546137927 ] } },
{ "type": "Feature", "properties": { "ref:csioz": 1223703, "name": "Apteka Plus", "addr:street": "Broniewskiego", "addr:housenumber": "24", "addr:city": "Włoszczowa", "addr:postcode": "29-100", "amenity": "pharmacy" }, "geometry": { "type": "Point", "coordinates": [ 19.97261600000035, 50.849665000013715 ] } },
{ "type": "Feature", "properties": { "ref:csioz": 1229552, "addr:street": "Koniecpolska", "addr:housenumber": "5B", "addr:city": "Secemin", "addr:postcode": "29-145", "amenity": "pharmacy" }, "geometry": { "type": "Point", "coordinates": [ 19.831967907987163, 50.764126002611995 ] } },
{ "type": "Feature", "properties": { "ref:csioz": 1172320, "name": "Apteka Zadbaj O Zdrowie", "addr:street": "Wolności", "addr:housenumber": "3", "addr:city": "Secemin", "addr:postcode": "29-145", "amenity": "pharmacy" }, "geometry": { "type": "Point", "coordinates": [ 19.837493430730511, 50.768330173655578 ] } }
]
}
