
{
    "type": "FeatureCollection",
    "generator": "JOSM",
    "features": [
        {
            "type": "Feature",
            "properties": {
                "name": "\"Nasza Apteka Zdrowia Mgr Bogumiła Leśniak Pcim1, 32-432 Pcim\"",
                "amenity": "pharmacy",
                "ref:csioz": "1074599",
                "addr:city": "Pcim",
                "addr:postcode": "32-432",
                "addr:housenumber": "1"
            },
            "geometry": {
                "type": "Point",
                "coordinates": [
                    19.97623392393,
                    49.75244458245
                ]
            }
        },
        {
            "type": "Feature",
            "properties": {
                "amenity": "pharmacy",
                "addr:housenumber": "6j",
                "addr:city": "Dobczyce",
                "name": "Apteka Isofarm",
                "ref:csioz": "1220346",
                "addr:postcode": "32-410",
                "addr:street": "Zarabie"
            },
            "geometry": {
                "type": "Point",
                "coordinates": [
                    20.08054262457,
                    49.88707955823
                ]
            }
        },
        {
            "type": "Feature",
            "properties": {
                "amenity": "pharmacy",
                "addr:housenumber": "615",
                "addr:city": "Pcim",
                "addr:postcode": "32-432",
                "name": "Zdrowe Ceny",
                "ref:csioz": "1036176"
            },
            "geometry": {
                "type": "Point",
                "coordinates": [
                    19.96922262351,
                    49.75143880613
                ]
            }
        },
        {
            "type": "Feature",
            "properties": {
                "addr:city": "Raciechowice",
                "ref:csioz": "1190868",
                "amenity": "pharmacy",
                "addr:postcode": "32-415",
                "name": "Doz Apteka. Dbam O Zdrowie. Rumianek",
                "addr:housenumber": "321"
            },
            "geometry": {
                "type": "Point",
                "coordinates": [
                    20.14077804408,
                    49.84550846744
                ]
            }
        },
        {
            "type": "Feature",
            "properties": {
                "addr:city": "Tokarnia",
                "amenity": "pharmacy",
                "ref:csioz": "1077480",
                "addr:housenumber": "400",
                "addr:postcode": "32-436",
                "name": "Maria"
            },
            "geometry": {
                "type": "Point",
                "coordinates": [
                    19.87848031208,
                    49.73454620532
                ]
            }
        },
        {
            "type": "Feature",
            "properties": {
                "amenity": "pharmacy",
                "addr:street": "Rynek",
                "addr:city": "Dobczyce",
                "addr:housenumber": "16",
                "ref:csioz": "1076685",
                "addr:postcode": "32-410",
                "name": "Flos"
            },
            "geometry": {
                "type": "Point",
                "coordinates": [
                    20.09044087257,
                    49.88044122070
                ]
            }
        },
        {
            "type": "Feature",
            "properties": {
                "amenity": "pharmacy",
                "addr:postcode": "32-447",
                "addr:city": "Siepraw",
                "name": "Apteka „Magda”. Siepraw",
                "ref:csioz": "1075312",
                "addr:housenumber": "782"
            },
            "geometry": {
                "type": "Point",
                "coordinates": [
                    19.99676700000,
                    49.90443800001
                ]
            }
        },
        {
            "type": "Feature",
            "properties": {
                "addr:city": "Stróża",
                "addr:postcode": "32-431",
                "amenity": "pharmacy",
                "ref:csioz": "1042329",
                "addr:housenumber": "791"
            },
            "geometry": {
                "type": "Point",
                "coordinates": [
                    19.92286989389,
                    49.79588090594
                ]
            }
        },
        {
            "type": "Feature",
            "properties": {
                "addr:city": "Skomielna Czarna",
                "addr:housenumber": "415",
                "amenity": "pharmacy",
                "addr:postcode": "32-437",
                "ref:csioz": "1036399"
            },
            "geometry": {
                "type": "Point",
                "coordinates": [
                    19.83420489426,
                    49.72847911520
                ]
            }
        },
        {
            "type": "Feature",
            "properties": {
                "ref:csioz": "1209882",
                "addr:housenumber": "8",
                "amenity": "pharmacy",
                "addr:postcode": "32-400",
                "name": "Apteka Szwajcarska",
                "addr:city": "Myślenice",
                "addr:street": "Niepodległości"
            },
            "geometry": {
                "type": "Point",
                "coordinates": [
                    19.93871228695,
                    49.83264004579
                ]
            }
        },
        {
            "type": "Feature",
            "properties": {
                "addr:housenumber": "581",
                "amenity": "pharmacy",
                "addr:city": "Trzemeśnia",
                "name": "\"Apteka \"\"Gaja\"\" Krystyna Duma\"",
                "addr:postcode": "32-425",
                "ref:csioz": "1172081"
            },
            "geometry": {
                "type": "Point",
                "coordinates": [
                    20.01745044656,
                    49.82137563928
                ]
            }
        },
        {
            "type": "Feature",
            "properties": {
                "ref:csioz": "1189203",
                "name": "Apteka Esculap",
                "amenity": "pharmacy",
                "addr:street": "Drogowców",
                "addr:housenumber": "5",
                "addr:postcode": "32-400",
                "addr:city": "Myślenice"
            },
            "geometry": {
                "type": "Point",
                "coordinates": [
                    19.95603071933,
                    49.83317814911
                ]
            }
        },
        {
            "type": "Feature",
            "properties": {
                "addr:housenumber": "15A",
                "addr:street": "Żwirki i Wigury",
                "name": "Apteka Niebieska 24H",
                "amenity": "pharmacy",
                "ref:csioz": "1113527",
                "addr:postcode": "32-400",
                "addr:city": "Myślenice"
            },
            "geometry": {
                "type": "Point",
                "coordinates": [
                    19.94604009170,
                    49.83003619752
                ]
            }
        },
        {
            "type": "Feature",
            "properties": {
                "addr:housenumber": "391",
                "amenity": "pharmacy",
                "addr:city": "Skomielna Biała",
                "ref:csioz": "1194873",
                "addr:postcode": "32-434"
            },
            "geometry": {
                "type": "Point",
                "coordinates": [
                    19.91544370522,
                    49.64464734209
                ]
            }
        },
        {
            "type": "Feature",
            "properties": {
                "ref:csioz": "1076144",
                "amenity": "pharmacy",
                "addr:street": "Rynek",
                "addr:housenumber": "37",
                "addr:city": "Dobczyce",
                "addr:postcode": "32-410",
                "name": "Vademecum"
            },
            "geometry": {
                "type": "Point",
                "coordinates": [
                    20.09144346111,
                    49.87908424254
                ]
            }
        },
        {
            "type": "Feature",
            "properties": {
                "amenity": "pharmacy",
                "addr:street": "Władysława Jagiełły",
                "addr:postcode": "32-400",
                "addr:city": "Myślenice",
                "addr:housenumber": "2",
                "ref:csioz": "1056563"
            },
            "geometry": {
                "type": "Point",
                "coordinates": [
                    19.94031606656,
                    49.83045352716
                ]
            }
        },
        {
            "type": "Feature",
            "properties": {
                "amenity": "pharmacy",
                "addr:city": "Dobczyce",
                "addr:housenumber": "6",
                "addr:street": "Witosa",
                "name": "Na Witosa",
                "addr:postcode": "32-410",
                "ref:csioz": "1036550"
            },
            "geometry": {
                "type": "Point",
                "coordinates": [
                    20.09746744159,
                    49.87955948500
                ]
            }
        },
        {
            "type": "Feature",
            "properties": {
                "name": "\"'Esculap'\"",
                "addr:street": "Żwirki i Wigury",
                "ref:csioz": "1035776",
                "amenity": "pharmacy",
                "addr:housenumber": "14",
                "addr:postcode": "32-400",
                "addr:city": "Myślenice"
            },
            "geometry": {
                "type": "Point",
                "coordinates": [
                    19.94575846035,
                    49.82986135930
                ]
            }
        },
        {
            "type": "Feature",
            "properties": {
                "ref:csioz": "1200348",
                "amenity": "pharmacy",
                "name": "Ziko Apteka",
                "addr:flats": "lok. 0.15",
                "addr:housenumber": "2E",
                "addr:postcode": "32-400",
                "addr:city": "Myślenice",
                "addr:street": "Słoneczna"
            },
            "geometry": {
                "type": "Point",
                "coordinates": [
                    19.94800807750,
                    49.83632796155
                ]
            }
        },
        {
            "type": "Feature",
            "properties": {
                "addr:housenumber": "3A",
                "ref:csioz": "1171431",
                "amenity": "pharmacy",
                "name": "Apteka Słoneczna",
                "addr:street": "Szpitalna",
                "addr:postcode": "32-400",
                "addr:city": "Myślenice"
            },
            "geometry": {
                "type": "Point",
                "coordinates": [
                    19.94644578674,
                    49.82975619825
                ]
            }
        },
        {
            "type": "Feature",
            "properties": {
                "amenity": "pharmacy",
                "name": "Apteka Słoneczna",
                "addr:housenumber": "6",
                "ref:csioz": "1120940",
                "addr:postcode": "32-400",
                "addr:city": "Myślenice",
                "addr:street": "Mikołaja Reja"
            },
            "geometry": {
                "type": "Point",
                "coordinates": [
                    19.94034787710,
                    49.83533678283
                ]
            }
        },
        {
            "type": "Feature",
            "properties": {
                "addr:street": "Zgody",
                "amenity": "pharmacy",
                "addr:city": "Dobczyce",
                "ref:csioz": "1076636",
                "addr:postcode": "32-410",
                "addr:housenumber": "12"
            },
            "geometry": {
                "type": "Point",
                "coordinates": [
                    20.08904132203,
                    49.88180581865
                ]
            }
        },
        {
            "type": "Feature",
            "properties": {
                "name": "\"Apteka \"\"Nova\"\" S.C.\"",
                "amenity": "pharmacy",
                "addr:street": "Łanowa",
                "addr:city": "Dobczyce",
                "ref:csioz": "1076316",
                "addr:postcode": "32-410",
                "addr:housenumber": "2"
            },
            "geometry": {
                "type": "Point",
                "coordinates": [
                    20.09543584954,
                    49.88320570353
                ]
            }
        },
        {
            "type": "Feature",
            "properties": {
                "addr:housenumber": "925",
                "addr:postcode": "32-442",
                "addr:city": "Krzywaczka",
                "name": "Apteka Vita",
                "amenity": "pharmacy",
                "ref:csioz": "1075654"
            },
            "geometry": {
                "type": "Point",
                "coordinates": [
                    19.82566523962,
                    49.89179373842
                ]
            }
        },
        {
            "type": "Feature",
            "properties": {
                "addr:postcode": "32-440",
                "amenity": "pharmacy",
                "addr:city": "Sułkowice",
                "ref:csioz": "1038448",
                "addr:housenumber": "9",
                "addr:street": "Szkolna",
                "name": "Apteka Dbam O Zdrowie"
            },
            "geometry": {
                "type": "Point",
                "coordinates": [
                    19.79602560974,
                    49.85440427015
                ]
            }
        },
        {
            "type": "Feature",
            "properties": {
                "ref:csioz": "1038183",
                "amenity": "pharmacy",
                "addr:postcode": "32-400",
                "addr:city": "Myślenice",
                "addr:housenumber": "2D",
                "addr:street": "Słoneczna"
            },
            "geometry": {
                "type": "Point",
                "coordinates": [
                    19.94840629892,
                    49.83506946829
                ]
            }
        },
        {
            "type": "Feature",
            "properties": {
                "amenity": "pharmacy",
                "addr:housenumber": "317/1",
                "addr:city": "Wiśniowa",
                "addr:postcode": "32-412",
                "ref:csioz": "1056142;1077284"
            },
            "geometry": {
                "type": "Point",
                "coordinates": [
                    20.11659442487,
                    49.78812717014
                ]
            }
        },
        {
            "type": "Feature",
            "properties": {
                "amenity": "pharmacy",
                "addr:street": "Szpitalna",
                "name": "Szpital",
                "ref:csioz": "1193895",
                "addr:postcode": "32-400",
                "addr:city": "Myślenice",
                "addr:housenumber": "2"
            },
            "geometry": {
                "type": "Point",
                "coordinates": [
                    19.94744392225,
                    49.82945144077
                ]
            }
        },
        {
            "type": "Feature",
            "properties": {
                "addr:housenumber": "1238",
                "amenity": "pharmacy",
                "name": "Pod Modrzewiami",
                "addr:postcode": "32-447",
                "addr:city": "Siepraw",
                "ref:csioz": "1118085"
            },
            "geometry": {
                "type": "Point",
                "coordinates": [
                    19.97171800000,
                    49.90774300001
                ]
            }
        },
        {
            "type": "Feature",
            "properties": {
                "amenity": "pharmacy",
                "addr:street": "Rynek",
                "addr:housenumber": "17",
                "ref:csioz": "1075767",
                "addr:postcode": "32-400",
                "addr:city": "Myślenice"
            },
            "geometry": {
                "type": "Point",
                "coordinates": [
                    19.93760510518,
                    49.83425073528
                ]
            }
        },
        {
            "type": "Feature",
            "properties": {
                "addr:housenumber": "16a",
                "name": "\"Apteka \"\"Galenica\"\" S.C.\"",
                "amenity": "pharmacy",
                "addr:street": "Mostowa",
                "addr:city": "Dobczyce",
                "addr:postcode": "32-400",
                "ref:csioz": "1056310"
            },
            "geometry": {
                "type": "Point",
                "coordinates": [
                    20.08117969768,
                    49.88500453680
                ]
            }
        },
        {
            "type": "Feature",
            "properties": {
                "addr:postcode": "32-440",
                "name": "Vita",
                "ref:csioz": "1074906",
                "amenity": "pharmacy",
                "addr:city": "Sułkowice",
                "addr:street": "Szkolna",
                "addr:housenumber": "1"
            },
            "geometry": {
                "type": "Point",
                "coordinates": [
                    19.79660264237,
                    49.85393342026
                ]
            }
        },
        {
            "type": "Feature",
            "properties": {
                "addr:housenumber": "19",
                "amenity": "pharmacy",
                "addr:street": "Stefana Żeromskiego",
                "ref:csioz": "1038436",
                "addr:postcode": "32-400",
                "name": "Apteka Dbam O Zdrowie",
                "addr:city": "Myślenice"
            },
            "geometry": {
                "type": "Point",
                "coordinates": [
                    19.94265998679,
                    49.83570701418
                ]
            }
        },
        {
            "type": "Feature",
            "properties": {
                "addr:city": "Raciechowice",
                "ref:csioz": "1036591",
                "amenity": "pharmacy",
                "addr:postcode": "32-415",
                "addr:housenumber": "313"
            },
            "geometry": {
                "type": "Point",
                "coordinates": [
                    20.14040233232,
                    49.84559586937
                ]
            }
        },
        {
            "type": "Feature",
            "properties": {
                "addr:postcode": "32-440",
                "name": "Pod Kangurem",
                "amenity": "pharmacy",
                "addr:city": "Sułkowice",
                "addr:street": "1 Maja",
                "addr:housenumber": "138",
                "ref:csioz": "1115733"
            },
            "geometry": {
                "type": "Point",
                "coordinates": [
                    19.80128466201,
                    49.84477871895
                ]
            }
        },
        {
            "type": "Feature",
            "properties": {
                "addr:city": "Lubień",
                "amenity": "pharmacy",
                "addr:housenumber": "223",
                "addr:postcode": "32-433",
                "ref:csioz": "1192374"
            },
            "geometry": {
                "type": "Point",
                "coordinates": [
                    19.97480696738,
                    49.71495037624
                ]
            }
        },
        {
            "type": "Feature",
            "properties": {
                "addr:housenumber": "182",
                "amenity": "pharmacy",
                "addr:city": "Trzebunia",
                "name": "Punkt Apteczny Trzebunia",
                "ref:csioz": "1114193",
                "addr:postcode": "32-438"
            },
            "geometry": {
                "type": "Point",
                "coordinates": [
                    19.84520499759,
                    49.78915346852
                ]
            }
        },
        {
            "type": "Feature",
            "properties": {
                "addr:flats": "1",
                "amenity": "pharmacy",
                "addr:housenumber": "317",
                "addr:city": "Wiśniowa",
                "addr:postcode": "32-412",
                "ref:csioz": "1056142;1077284"
            },
            "geometry": {
                "type": "Point",
                "coordinates": [
                    20.11658644769,
                    49.78788663318
                ]
            }
        },
        {
            "type": "Feature",
            "properties": {
                "name": "Apteka Gemini",
                "amenity": "pharmacy",
                "addr:postcode": "32-400",
                "addr:city": "Myślenice",
                "addr:housenumber": "1",
                "addr:street": "Konstantego Ildefonsa Gałczyńskiego",
                "ref:csioz": "1075410"
            },
            "geometry": {
                "type": "Point",
                "coordinates": [
                    19.94022918609,
                    49.83479273540
                ]
            }
        },
        {
            "type": "Feature",
            "properties": {
                "ref:csioz": "1228591",
                "amenity": "pharmacy",
                "addr:city": "Głogoczów",
                "addr:postcode": "32-444",
                "addr:housenumber": "77",
                "name": "Punkt Apteczny Krokus"
            },
            "geometry": {
                "type": "Point",
                "coordinates": [
                    19.87564950114,
                    49.89603240881
                ]
            }
        }
    ]
}