{
"type": "FeatureCollection",
"name": "woj_podkarpackie-pow_Rzeszow-JPT_KOD_JE_1863",
"crs": { "type": "name", "properties": { "name": "urn:ogc:def:crs:OGC:1.3:CRS84" } },
"features": [
{ "type": "Feature", "properties": { "ref:csioz": 1146376, "name": "Doz Apteka. Dbam O Zdrowie. Słoneczna", "addr:street": "Hetmańska", "addr:housenumber": "23", "addr:flats": null, "addr:city": "Rzeszów", "addr:postcode": "35-045", "amenity": "pharmacy" }, "geometry": { "type": "Point", "coordinates": [ 21.996692737996547, 50.02837160407033 ] } },
{ "type": "Feature", "properties": { "ref:csioz": 1125374, "name": null, "addr:street": "Ks. Jałowego", "addr:housenumber": "10", "addr:flats": null, "addr:city": "Rzeszów", "addr:postcode": "35-010", "amenity": "pharmacy" }, "geometry": { "type": "Point", "coordinates": [ 21.996636593382309, 50.039955605991345 ] } },
{ "type": "Feature", "properties": { "ref:csioz": 1136694, "name": null, "addr:street": "Fredry", "addr:housenumber": "9", "addr:flats": null, "addr:city": "Rzeszów", "addr:postcode": "35-005", "amenity": "pharmacy" }, "geometry": { "type": "Point", "coordinates": [ 22.011292277083331, 50.041418846791608 ] } },
{ "type": "Feature", "properties": { "ref:csioz": 1136735, "name": "Ośrodek Chirurgii Oka Prof. Zagórskiego", "addr:street": "Moniuszki", "addr:housenumber": "8", "addr:flats": null, "addr:city": "Rzeszów", "addr:postcode": "35-017", "amenity": "pharmacy" }, "geometry": { "type": "Point", "coordinates": [ 21.998871144531435, 50.038019950848415 ] } },
{ "type": "Feature", "properties": { "ref:csioz": 1137742, "name": null, "addr:street": "Lwowska", "addr:housenumber": "132", "addr:flats": null, "addr:city": "Rzeszów", "addr:postcode": "35-301", "amenity": "pharmacy" }, "geometry": { "type": "Point", "coordinates": [ 22.063608408187044, 50.037684538942145 ] } },
{ "type": "Feature", "properties": { "ref:csioz": 1146384, "name": "Apteka Słoneczna", "addr:street": "Hetmańska", "addr:housenumber": "23", "addr:flats": null, "addr:city": "Rzeszów", "addr:postcode": "35-045", "amenity": "pharmacy" }, "geometry": { "type": "Point", "coordinates": [ 21.996692737996547, 50.02837160407033 ] } },
{ "type": "Feature", "properties": { "ref:csioz": 1146431, "name": "Apteka Dla Ciebie", "addr:street": "Jana Kochanowskiego", "addr:housenumber": "15", "addr:flats": null, "addr:city": "Rzeszów", "addr:postcode": "35-201", "amenity": "pharmacy" }, "geometry": { "type": "Point", "coordinates": [ 22.012229865255136, 50.044707286867855 ] } },
{ "type": "Feature", "properties": { "ref:csioz": 1146444, "name": "Apteka Gemini", "addr:street": "Kolejowa", "addr:housenumber": "1", "addr:flats": null, "addr:city": "Rzeszów", "addr:postcode": "35-073", "amenity": "pharmacy" }, "geometry": { "type": "Point", "coordinates": [ 22.007993508170177, 50.040653829180492 ] } },
{ "type": "Feature", "properties": { "ref:csioz": 1146453, "name": "Super-Pharm", "addr:street": "mjr. Wacława Kopisto", "addr:housenumber": "1", "addr:flats": null, "addr:city": "Rzeszów", "addr:postcode": "35-315", "amenity": "pharmacy" }, "geometry": { "type": "Point", "coordinates": [ 22.013432739216313, 50.028150826126428 ] } },
{ "type": "Feature", "properties": { "ref:csioz": 1146477, "name": "Apteka Optima", "addr:street": "Krakowska", "addr:housenumber": "14", "addr:flats": null, "addr:city": "Rzeszów", "addr:postcode": "35-111", "amenity": "pharmacy" }, "geometry": { "type": "Point", "coordinates": [ 21.984637246068047, 50.04502673550364 ] } },
{ "type": "Feature", "properties": { "ref:csioz": 1146523, "name": "Apteka \"Panacea\"", "addr:street": "Eugeniusza Kwiatkowskiego", "addr:housenumber": "2A", "addr:flats": "2L", "addr:city": "Rzeszów", "addr:postcode": "35-311", "amenity": "pharmacy" }, "geometry": { "type": "Point", "coordinates": [ 22.003587504719036, 50.018190468234458 ] } },
{ "type": "Feature", "properties": { "ref:csioz": 1146489, "name": "Dbam O Zdrowie", "addr:street": "Krakowska", "addr:housenumber": "16", "addr:flats": null, "addr:city": "Rzeszów", "addr:postcode": "35-111", "amenity": "pharmacy" }, "geometry": { "type": "Point", "coordinates": [ 21.981627536603032, 50.046505715273177 ] } },
{ "type": "Feature", "properties": { "ref:csioz": 1146490, "name": "Apteka Arnika", "addr:street": "Krakowska", "addr:housenumber": "20", "addr:flats": null, "addr:city": "Rzeszów", "addr:postcode": "35-111", "amenity": "pharmacy" }, "geometry": { "type": "Point", "coordinates": [ 21.975605860041309, 50.048793991299682 ] } },
{ "type": "Feature", "properties": { "ref:csioz": 1146572, "name": "Lafarma", "addr:street": "Lwowska", "addr:housenumber": "60", "addr:flats": null, "addr:city": "Rzeszów", "addr:postcode": "35-301", "amenity": "pharmacy" }, "geometry": { "type": "Point", "coordinates": [ 22.035534251409914, 50.036103670230005 ] } },
{ "type": "Feature", "properties": { "ref:csioz": 1146658, "name": "Abira", "addr:street": "płk. Kazimierza Iranka-Osmeckiego", "addr:housenumber": "8B", "addr:flats": null, "addr:city": "Rzeszów", "addr:postcode": "35-506", "amenity": "pharmacy" }, "geometry": { "type": "Point", "coordinates": [ 21.985884449832067, 50.059747270086319 ] } },
{ "type": "Feature", "properties": { "ref:csioz": 1146706, "name": "Skaw-Mar", "addr:street": "Dworcowy", "addr:housenumber": "1", "addr:flats": null, "addr:city": "Rzeszów", "addr:postcode": "35-201", "amenity": "pharmacy" }, "geometry": { "type": "Point", "coordinates": [ 22.006634430838524, 50.042695008590876 ] } },
{ "type": "Feature", "properties": { "ref:csioz": 1146711, "name": "Dr.Max", "addr:street": "Dworcowy", "addr:housenumber": "2", "addr:flats": null, "addr:city": "Rzeszów", "addr:postcode": "35-201", "amenity": "pharmacy" }, "geometry": { "type": "Point", "coordinates": [ 22.007559008810198, 50.042448519302177 ] } },
{ "type": "Feature", "properties": { "ref:csioz": 1146630, "name": "Pod Gwiazdą", "addr:street": "Obrońców Poczty Gdańskiej", "addr:housenumber": "14", "addr:flats": null, "addr:city": "Rzeszów", "addr:postcode": "35-509", "amenity": "pharmacy" }, "geometry": { "type": "Point", "coordinates": [ 21.978318622441712, 50.058853184028635 ] } },
{ "type": "Feature", "properties": { "ref:csioz": 1146696, "name": "Apteka \"Pod Gwiazdą\"", "addr:street": "Józefa Piłsudskiego", "addr:housenumber": "34", "addr:flats": null, "addr:city": "Rzeszów", "addr:postcode": "35-001", "amenity": "pharmacy" }, "geometry": { "type": "Point", "coordinates": [ 22.004029233270177, 50.041206861684557 ] } },
{ "type": "Feature", "properties": { "ref:csioz": 1146625, "name": "Apteka \"U Aptekarza\"", "addr:street": "Mieszka I", "addr:housenumber": "48", "addr:flats": "50", "addr:city": "Rzeszów", "addr:postcode": "35-308", "amenity": "pharmacy" }, "geometry": { "type": "Point", "coordinates": [ 22.02562500002286, 50.030683000012694 ] } },
{ "type": "Feature", "properties": { "ref:csioz": 1146580, "name": "Apteka \"Na Zalesiu\"", "addr:street": "Ignacego Łukasiewicza", "addr:housenumber": "88", "addr:flats": null, "addr:city": "Rzeszów", "addr:postcode": "35-604", "amenity": "pharmacy" }, "geometry": { "type": "Point", "coordinates": [ 22.029036000023048, 50.003728000012636 ] } },
{ "type": "Feature", "properties": { "ref:csioz": 1146663, "name": "Pod Gwiazdą", "addr:street": "bp. Józefa Sebastiana Pelczara", "addr:housenumber": "6", "addr:flats": null, "addr:city": "Rzeszów", "addr:postcode": "35-312", "amenity": "pharmacy" }, "geometry": { "type": "Point", "coordinates": [ 22.010565515845244, 50.021261521473633 ] } },
{ "type": "Feature", "properties": { "ref:csioz": 1146798, "name": null, "addr:street": "Tadeusza Rejtana", "addr:housenumber": "69", "addr:flats": null, "addr:city": "Rzeszów", "addr:postcode": "35-326", "amenity": "pharmacy" }, "geometry": { "type": "Point", "coordinates": [ 22.019518996186353, 50.019248657146051 ] } },
{ "type": "Feature", "properties": { "ref:csioz": 1146812, "name": "Apteka Dbam O Zdrowie", "addr:street": "Tadeusza Rejtana", "addr:housenumber": "65", "addr:flats": null, "addr:city": "Rzeszów", "addr:postcode": "35-326", "amenity": "pharmacy" }, "geometry": { "type": "Point", "coordinates": [ 22.019091000022641, 50.01952300001269 ] } },
{ "type": "Feature", "properties": { "ref:csioz": 1146926, "name": "Apteka Na Targowej", "addr:street": "Targowa", "addr:housenumber": "3", "addr:flats": null, "addr:city": "Rzeszów", "addr:postcode": "35-064", "amenity": "pharmacy" }, "geometry": { "type": "Point", "coordinates": [ 22.009546135066863, 50.037071106006621 ] } },
{ "type": "Feature", "properties": { "ref:csioz": 1146905, "name": "Apteka Dobra", "addr:street": "Szarych Szeregów", "addr:housenumber": "4", "addr:flats": null, "addr:city": "Rzeszów", "addr:postcode": "35-111", "amenity": "pharmacy" }, "geometry": { "type": "Point", "coordinates": [ 21.978507262381108, 50.035029938735583 ] } },
{ "type": "Feature", "properties": { "ref:csioz": 1146918, "name": "Apteka \"Pod Gwiazdą\"", "addr:street": "Fryderyka Szopena", "addr:housenumber": "2", "addr:flats": null, "addr:city": "Rzeszów", "addr:postcode": "35-055", "amenity": "pharmacy" }, "geometry": { "type": "Point", "coordinates": [ 22.009501134655171, 50.035924759847369 ] } },
{ "type": "Feature", "properties": { "ref:csioz": 1146848, "name": "Hibiskus", "addr:street": "Henryka Siemiradzkiego", "addr:housenumber": "6", "addr:flats": null, "addr:city": "Rzeszów", "addr:postcode": "35-006", "amenity": "pharmacy" }, "geometry": { "type": "Point", "coordinates": [ 22.012206733521968, 50.040275799634053 ] } },
{ "type": "Feature", "properties": { "ref:csioz": 1146885, "name": "Apteka Lafarma", "addr:street": "Ignacego Solarza", "addr:housenumber": "15A", "addr:flats": null, "addr:city": "Rzeszów", "addr:postcode": "35-118", "amenity": "pharmacy" }, "geometry": { "type": "Point", "coordinates": [ 21.973523895917854, 50.043071270784083 ] } },
{ "type": "Feature", "properties": { "ref:csioz": 1146787, "name": "Apteka Difarm", "addr:street": "Tadeusza Rejtana", "addr:housenumber": "51A", "addr:flats": null, "addr:city": "Rzeszów", "addr:postcode": "35-326", "amenity": "pharmacy" }, "geometry": { "type": "Point", "coordinates": [ 22.017625530730651, 50.022085972541696 ] } },
{ "type": "Feature", "properties": { "ref:csioz": 1146899, "name": "Osiedlowa", "addr:street": "Stefana Starzyńskiego", "addr:housenumber": "2", "addr:flats": null, "addr:city": "Rzeszów", "addr:postcode": "35-508", "amenity": "pharmacy" }, "geometry": { "type": "Point", "coordinates": [ 21.979207261084884, 50.058755579654367 ] } },
{ "type": "Feature", "properties": { "ref:csioz": 1147018, "name": "Apteka Pro-Familia", "addr:street": "Witolda", "addr:housenumber": "6B", "addr:flats": null, "addr:city": "Rzeszów", "addr:postcode": "35-302", "amenity": "pharmacy" }, "geometry": { "type": "Point", "coordinates": [ 22.03965452866138, 50.03110127047745 ] } },
{ "type": "Feature", "properties": { "ref:csioz": 1147060, "name": null, "addr:street": "Zygmuntowska", "addr:housenumber": "10", "addr:flats": null, "addr:city": "Rzeszów", "addr:postcode": "35-025", "amenity": "pharmacy" }, "geometry": { "type": "Point", "coordinates": [ 21.998887602975039, 50.035916665632193 ] } },
{ "type": "Feature", "properties": { "ref:csioz": 1147026, "name": "Omega", "addr:street": "Wincentego Witosa", "addr:housenumber": "21", "addr:flats": null, "addr:city": "Rzeszów", "addr:postcode": "35-115", "amenity": "pharmacy" }, "geometry": { "type": "Point", "coordinates": [ 21.976423926512997, 50.038737384020052 ] } },
{ "type": "Feature", "properties": { "ref:csioz": 1147047, "name": "Apteka \"Gemma\"", "addr:street": "Wiktora Zbyszewskiego", "addr:housenumber": "15", "addr:flats": null, "addr:city": "Rzeszów", "addr:postcode": "35-119", "amenity": "pharmacy" }, "geometry": { "type": "Point", "coordinates": [ 21.972735751145269, 50.044595753375063 ] } },
{ "type": "Feature", "properties": { "ref:csioz": 1147094, "name": "Dr.Max", "addr:street": "prof. Ludwika Chmaja", "addr:housenumber": "6", "addr:flats": null, "addr:city": "Rzeszów", "addr:postcode": "35-021", "amenity": "pharmacy" }, "geometry": { "type": "Point", "coordinates": [ 21.985414929120374, 50.028277553888422 ] } },
{ "type": "Feature", "properties": { "ref:csioz": 1147204, "name": "Dr.Max", "addr:street": "Witkacego", "addr:housenumber": "7", "addr:flats": null, "addr:city": "Rzeszów", "addr:postcode": "35-111", "amenity": "pharmacy" }, "geometry": { "type": "Point", "coordinates": [ 21.980373718792361, 50.036103954378667 ] } },
{ "type": "Feature", "properties": { "ref:csioz": 1164593, "name": "Apteka Difarm", "addr:street": "Ignacego Łukasiewicza", "addr:housenumber": "31", "addr:flats": null, "addr:city": "Rzeszów", "addr:postcode": "35-604", "amenity": "pharmacy" }, "geometry": { "type": "Point", "coordinates": [ 22.021943654842101, 50.009142976482607 ] } },
{ "type": "Feature", "properties": { "ref:csioz": 1164736, "name": "Super-Pharm Apteka", "addr:street": "Józefa Piłsudskiego", "addr:housenumber": "44", "addr:flats": null, "addr:city": "Rzeszów", "addr:postcode": "35-001", "amenity": "pharmacy" }, "geometry": { "type": "Point", "coordinates": [ 21.996348184189397, 50.042561079214998 ] } },
{ "type": "Feature", "properties": { "ref:csioz": 1164748, "name": "Apteka Lafarma", "addr:street": "Józefa Piłsudskiego", "addr:housenumber": "44", "addr:flats": null, "addr:city": "Rzeszów", "addr:postcode": "35-001", "amenity": "pharmacy" }, "geometry": { "type": "Point", "coordinates": [ 21.996348184189397, 50.042561079214998 ] } },
{ "type": "Feature", "properties": { "ref:csioz": 1164757, "name": "Apteka Słoneczna", "addr:street": "Stanisława Jabłońskiego", "addr:housenumber": "2", "addr:flats": "4", "addr:city": "Rzeszów", "addr:postcode": "35-068", "amenity": "pharmacy" }, "geometry": { "type": "Point", "coordinates": [ 22.001988527564464, 50.042089673445176 ] } },
{ "type": "Feature", "properties": { "ref:csioz": 1171453, "name": "Apteka Na Architektów", "addr:street": "Architektów", "addr:housenumber": "11", "addr:flats": null, "addr:city": "Rzeszów", "addr:postcode": "35-082", "amenity": "pharmacy" }, "geometry": { "type": "Point", "coordinates": [ 21.972170963299128, 50.018472155566315 ] } },
{ "type": "Feature", "properties": { "ref:csioz": 1181577, "name": "Doz Apteka. Dbam O Zdrowie. Elixir", "addr:street": "Powstańców Wielkopolskich", "addr:housenumber": "2", "addr:flats": null, "addr:city": "Rzeszów", "addr:postcode": "35-611", "amenity": "pharmacy" }, "geometry": { "type": "Point", "coordinates": [ 22.044765000023602, 50.026720000012681 ] } },
{ "type": "Feature", "properties": { "ref:csioz": 1136652, "name": null, "addr:street": "Jana Pawła II", "addr:housenumber": "181", "addr:flats": null, "addr:city": "Rzeszów", "addr:postcode": "35-317", "amenity": "pharmacy" }, "geometry": { "type": "Point", "coordinates": [ 21.992956909003244, 49.977836685157534 ] } },
{ "type": "Feature", "properties": { "ref:csioz": 1210096, "name": "Apteka Słoneczna", "addr:street": "gen. Leopolda Okulickiego", "addr:housenumber": "6", "addr:flats": null, "addr:city": "Rzeszów", "addr:postcode": "35-222", "amenity": "pharmacy" }, "geometry": { "type": "Point", "coordinates": [ 21.986104000021363, 50.047242000012695 ] } },
{ "type": "Feature", "properties": { "ref:csioz": 1212793, "name": "Różana", "addr:street": "Aleksandra Fredry", "addr:housenumber": "20", "addr:flats": "1", "addr:city": "Rzeszów", "addr:postcode": "35-005", "amenity": "pharmacy" }, "geometry": { "type": "Point", "coordinates": [ 22.011219227903869, 50.040734607657541 ] } },
{ "type": "Feature", "properties": { "ref:csioz": 1228588, "name": "Oko-Res", "addr:street": "Dominikańska", "addr:housenumber": "1A", "addr:flats": null, "addr:city": "Rzeszów", "addr:postcode": "35-077", "amenity": "pharmacy" }, "geometry": { "type": "Point", "coordinates": [ 21.990236582578145, 50.020714089199188 ] } },
{ "type": "Feature", "properties": { "ref:csioz": 1125220, "name": null, "addr:street": "Poniatowskiego", "addr:housenumber": "4", "addr:flats": null, "addr:city": "Rzeszów", "addr:postcode": "35-026", "amenity": "pharmacy" }, "geometry": { "type": "Point", "coordinates": [ 21.996669955911269, 50.033880785172549 ] } },
{ "type": "Feature", "properties": { "ref:csioz": 1125248, "name": null, "addr:street": "Anny Jagiellonki", "addr:housenumber": "17", "addr:flats": null, "addr:city": "Rzeszów", "addr:postcode": "35-623", "amenity": "pharmacy" }, "geometry": { "type": "Point", "coordinates": [ 22.04239554909843, 50.037280695138058 ] } },
{ "type": "Feature", "properties": { "ref:csioz": 1138179, "name": "Apteka Okręgowa", "addr:street": "Załęska", "addr:housenumber": "76", "addr:flats": null, "addr:city": "Rzeszów", "addr:postcode": "35-322", "amenity": "pharmacy" }, "geometry": { "type": "Point", "coordinates": [ 22.039917110862998, 50.062546678108966 ] } },
{ "type": "Feature", "properties": { "ref:csioz": 1138187, "name": "Apteka Szpitalna", "addr:street": "Krakowska", "addr:housenumber": "16", "addr:flats": null, "addr:city": "Rzeszów", "addr:postcode": "35-11", "amenity": "pharmacy" }, "geometry": { "type": "Point", "coordinates": [ 21.981627536603032, 50.046505715273177 ] } },
{ "type": "Feature", "properties": { "ref:csioz": 1231030, "name": "Centrum Medyczne MEDYK", "addr:street": "Fryderyka Szopena", "addr:housenumber": "1", "addr:flats": null, "addr:city": "Rzeszów", "addr:postcode": "35-317", "amenity": "Pharmacy" }, "geometry": { "type": "Point", "coordinates": [ 22.009817209410585, 50.035839819861422 ] } },
{ "type": "Feature", "properties": { "ref:csioz": 1138230, "name": "Apteka Szpitalna Klinicznego Szpitala Wojewódzkiego Nr 2 Im. Św. Jadwigi Królowej W Rzeszowie", "addr:street": "Lwowska", "addr:housenumber": "60", "addr:flats": null, "addr:city": "Rzeszów", "addr:postcode": "35-301", "amenity": "pharmacy" }, "geometry": { "type": "Point", "coordinates": [ 22.035534251409914, 50.036103670230005 ] } },
{ "type": "Feature", "properties": { "ref:csioz": 1146288, "name": "Hipokrates", "addr:street": "Adama Asnyka", "addr:housenumber": "2", "addr:flats": null, "addr:city": "Rzeszów", "addr:postcode": "35-001", "amenity": "pharmacy" }, "geometry": { "type": "Point", "coordinates": [ 22.004567027831861, 50.040140251825576 ] } },
{ "type": "Feature", "properties": { "ref:csioz": 1146291, "name": "Milenium", "addr:street": "Ofiar Katynia", "addr:housenumber": "6", "addr:flats": null, "addr:city": "Rzeszów", "addr:postcode": "35-206", "amenity": "pharmacy" }, "geometry": { "type": "Point", "coordinates": [ 21.978597369296697, 50.053078633740618 ] } },
{ "type": "Feature", "properties": { "ref:csioz": 1146313, "name": null, "addr:street": "Jarosława Dąbrowskiego", "addr:housenumber": "33A", "addr:flats": null, "addr:city": "Rzeszów", "addr:postcode": "35-036", "amenity": "pharmacy" }, "geometry": { "type": "Point", "coordinates": [ 21.990602000021571, 50.025879000012672 ] } },
{ "type": "Feature", "properties": { "ref:csioz": 1146321, "name": "Medican", "addr:street": "Aleksandra Fredry", "addr:housenumber": "7", "addr:flats": null, "addr:city": "Rzeszów", "addr:postcode": "35-005", "amenity": "pharmacy" }, "geometry": { "type": "Point", "coordinates": [ 22.01111379323461, 50.041192235298062 ] } },
{ "type": "Feature", "properties": { "ref:csioz": 1146337, "name": "Astra", "addr:street": "Graniczna", "addr:housenumber": "1B", "addr:flats": null, "addr:city": "Rzeszów", "addr:postcode": "35-326", "amenity": "pharmacy" }, "geometry": { "type": "Point", "coordinates": [ 22.00810814715835, 50.015739984763428 ] } },
{ "type": "Feature", "properties": { "ref:csioz": 1146345, "name": "Pod Aniołem", "addr:street": "Graniczna", "addr:housenumber": "21a", "addr:flats": null, "addr:city": "Rzeszów", "addr:postcode": "35-326", "amenity": "pharmacy" }, "geometry": { "type": "Point", "coordinates": [ 22.007015933889218, 50.015001972449255 ] } },
{ "type": "Feature", "properties": { "ref:csioz": 1146538, "name": "Panacea", "addr:street": "gen. Mariana Langiewicza", "addr:housenumber": "4", "addr:flats": null, "addr:city": "Rzeszów", "addr:postcode": "35-021", "amenity": "pharmacy" }, "geometry": { "type": "Point", "coordinates": [ 21.993462127663836, 50.033033773577394 ] } },
{ "type": "Feature", "properties": { "ref:csioz": 1146546, "name": "Różana", "addr:street": "Leska", "addr:housenumber": "2", "addr:flats": null, "addr:city": "Rzeszów", "addr:postcode": "35-505", "amenity": "pharmacy" }, "geometry": { "type": "Point", "coordinates": [ 21.955077279618983, 50.044578927194387 ] } },
{ "type": "Feature", "properties": { "ref:csioz": 1146567, "name": "Pod Gwiazdą", "addr:street": "Lwowska", "addr:housenumber": "6", "addr:flats": null, "addr:city": "Rzeszów", "addr:postcode": "35-301", "amenity": "pharmacy" }, "geometry": { "type": "Point", "coordinates": [ 22.022963706176778, 50.038055279193514 ] } },
{ "type": "Feature", "properties": { "ref:csioz": 1146765, "name": "Apteka Twoje Leki", "addr:street": "Kazimierza Pułaskiego", "addr:housenumber": "1B", "addr:flats": null, "addr:city": "Rzeszów", "addr:postcode": "35-011", "amenity": "pharmacy" }, "geometry": { "type": "Point", "coordinates": [ 21.996553141865192, 50.036932855790567 ] } },
{ "type": "Feature", "properties": { "ref:csioz": 1146947, "name": "Apteka Lafarma", "addr:street": "Warzywna", "addr:housenumber": "3", "addr:flats": null, "addr:city": "Rzeszów", "addr:postcode": "35-310", "amenity": "pharmacy" }, "geometry": { "type": "Point", "coordinates": [ 22.014013886355119, 50.033260261503088 ] } },
{ "type": "Feature", "properties": { "ref:csioz": 1146960, "name": "Lafarma", "addr:street": "Warszawska", "addr:housenumber": "5", "addr:flats": "7", "addr:city": "Rzeszów", "addr:postcode": "35-205", "amenity": "pharmacy" }, "geometry": { "type": "Point", "coordinates": [ 21.998684000021818, 50.047698000012694 ] } },
{ "type": "Feature", "properties": { "ref:csioz": 1146779, "name": "Pod Eskulapem", "addr:street": "Tadeusza Rejtana", "addr:housenumber": "49", "addr:flats": "7", "addr:city": "Rzeszów", "addr:postcode": "35-326", "amenity": "pharmacy" }, "geometry": { "type": "Point", "coordinates": [ 22.017438000022558, 50.024611000012676 ] } },
{ "type": "Feature", "properties": { "ref:csioz": 1147193, "name": "Dr.Max", "addr:street": "Klementyny Hoffmanowej", "addr:housenumber": "8a", "addr:flats": null, "addr:city": "Rzeszów", "addr:postcode": "35-016", "amenity": "pharmacy" }, "geometry": { "type": "Point", "coordinates": [ 21.99486000002171, 50.034079000012689 ] } },
{ "type": "Feature", "properties": { "ref:csioz": 1147107, "name": "Dr.Max", "addr:street": "Jarosława Dąbrowskiego", "addr:housenumber": "60", "addr:flats": null, "addr:city": "Rzeszów", "addr:postcode": "35-036", "amenity": "pharmacy" }, "geometry": { "type": "Point", "coordinates": [ 21.984959479184965, 50.023208390601297 ] } },
{ "type": "Feature", "properties": { "ref:csioz": 1147155, "name": "Dr.Max", "addr:street": "Lubelska", "addr:housenumber": "6", "addr:flats": null, "addr:city": "Rzeszów", "addr:postcode": "35-233", "amenity": "pharmacy" }, "geometry": { "type": "Point", "coordinates": [ 22.003099247226036, 50.051727271678423 ] } },
{ "type": "Feature", "properties": { "ref:csioz": 1147186, "name": "Dr.Max", "addr:street": "Hetmańska", "addr:housenumber": "120", "addr:flats": null, "addr:city": "Rzeszów", "addr:postcode": "35-310", "amenity": "pharmacy" }, "geometry": { "type": "Point", "coordinates": [ 21.994803474981641, 50.017250467318 ] } },
{ "type": "Feature", "properties": { "ref:csioz": 1147110, "name": "Dr.Max", "addr:street": "3 Maja", "addr:housenumber": "16", "addr:flats": null, "addr:city": "Rzeszów", "addr:postcode": "35-030", "amenity": "pharmacy" }, "geometry": { "type": "Point", "coordinates": [ 22.000899585712634, 50.036078093429452 ] } },
{ "type": "Feature", "properties": { "ref:csioz": 1165287, "name": "Apteka Słoneczna", "addr:street": "Wolności", "addr:housenumber": "16/2", "addr:flats": "", "addr:city": "Rzeszów", "addr:postcode": "35-073", "amenity": "pharmacy" }, "geometry": { "type": "Point", "coordinates": [ 22.009254620151079, 50.040006882780013 ] } },
{ "type": "Feature", "properties": { "ref:csioz": 1182364, "name": "Niezapominajka Dla Całej Rodziny", "addr:street": "Tadeusza Rejtana", "addr:housenumber": "51", "addr:flats": null, "addr:city": "Rzeszów", "addr:postcode": "35-326", "amenity": "pharmacy" }, "geometry": { "type": "Point", "coordinates": [ 22.017462248471091, 50.023087515078544 ] } },
{ "type": "Feature", "properties": { "ref:csioz": 1182378, "name": "Apteka Pastylka", "addr:street": "Strażacka", "addr:housenumber": "27F", "addr:flats": "2", "addr:city": "Rzeszów", "addr:postcode": "35-304", "amenity": "pharmacy" }, "geometry": { "type": "Point", "coordinates": [ 22.014670859172941, 50.002275470069563 ] } },
{ "type": "Feature", "properties": { "ref:csioz": 1185703, "name": "Rodzinna", "addr:street": "Jarosława Dąbrowskiego", "addr:housenumber": "25", "addr:flats": null, "addr:city": "Rzeszów", "addr:postcode": "35-036", "amenity": "pharmacy" }, "geometry": { "type": "Point", "coordinates": [ 21.993291053842782, 50.028976749825041 ] } },
{ "type": "Feature", "properties": { "ref:csioz": 1187876, "name": "Apteka Pomocna", "addr:street": "Lwowska", "addr:housenumber": "64", "addr:flats": null, "addr:city": "Rzeszów", "addr:postcode": "35-301", "amenity": "pharmacy" }, "geometry": { "type": "Point", "coordinates": [ 22.035720879399349, 50.037415125559647 ] } },
{ "type": "Feature", "properties": { "ref:csioz": 1192715, "name": "Apteka Przeworska", "addr:street": "Juliusza Słowackiego", "addr:housenumber": "11", "addr:flats": null, "addr:city": "Rzeszów", "addr:postcode": "35-060", "amenity": "pharmacy" }, "geometry": { "type": "Point", "coordinates": [ 22.004603269669456, 50.034255555408322 ] } },
{ "type": "Feature", "properties": { "ref:csioz": 1194300, "name": "Samodzielny Publiczny Zakład Opieki Zdrowotnej Centrum Profilaktyki I Terapii Uzależnień W Rzeszowie", "addr:street": "Jana Kochanowskiego", "addr:housenumber": "17", "addr:flats": null, "addr:city": "Rzeszów", "addr:postcode": "35-201", "amenity": "pharmacy" }, "geometry": { "type": "Point", "coordinates": [ 22.011528317021867, 50.044621677458153 ] } },
{ "type": "Feature", "properties": { "ref:csioz": 1194567, "name": null, "addr:street": "Kujawska", "addr:housenumber": "5", "addr:flats": null, "addr:city": "Rzeszów", "addr:postcode": "35-323", "amenity": "pharmacy" }, "geometry": { "type": "Point", "coordinates": [ 22.039747398997658, 50.038773420016234 ] } },
{ "type": "Feature", "properties": { "ref:csioz": 1204889, "name": "Apteka Lafarma", "addr:street": "Hetmańska", "addr:housenumber": "21", "addr:flats": null, "addr:city": "Rzeszów", "addr:postcode": "35-045", "amenity": "pharmacy" }, "geometry": { "type": "Point", "coordinates": [ 21.997285001187677, 50.029069706936589 ] } },
{ "type": "Feature", "properties": { "ref:csioz": 1205201, "name": "Apteka Słoneczna", "addr:street": "Strzyżowska", "addr:housenumber": "42", "addr:flats": "14", "addr:city": "Rzeszów", "addr:postcode": "35-505", "amenity": "pharmacy" }, "geometry": { "type": "Point", "coordinates": [ 21.967067438334517, 50.044405851266461 ] } },
{ "type": "Feature", "properties": { "ref:csioz": 1207946, "name": "Apteka Słoneczna", "addr:street": "Stefana Żeromskiego", "addr:housenumber": "10", "addr:flats": null, "addr:city": "Rzeszów", "addr:postcode": "35-001", "amenity": "pharmacy" }, "geometry": { "type": "Point", "coordinates": [ 22.007730259914847, 50.041419297072387 ] } },
{ "type": "Feature", "properties": { "ref:csioz": 1207669, "name": "Kolorowa Apteka", "addr:street": "Podchorążych", "addr:housenumber": "3", "addr:flats": null, "addr:city": "Rzeszów", "addr:postcode": "35-216", "amenity": "pharmacy" }, "geometry": { "type": "Point", "coordinates": [ 22.000977658727418, 50.045916949337041 ] } },
{ "type": "Feature", "properties": { "ref:csioz": 1208221, "name": "Apteka Słoneczna", "addr:street": "Jarosława Dąbrowskiego", "addr:housenumber": "31", "addr:flats": null, "addr:city": "Rzeszów", "addr:postcode": "35-036", "amenity": "pharmacy" }, "geometry": { "type": "Point", "coordinates": [ 21.99182049634274, 50.027315189780531 ] } },
{ "type": "Feature", "properties": { "ref:csioz": 1208774, "name": null, "addr:street": "Kujawska", "addr:housenumber": "1", "addr:flats": null, "addr:city": "Rzeszów", "addr:postcode": "35-323", "amenity": "pharmacy" }, "geometry": { "type": "Point", "coordinates": [ 22.039787481746842, 50.038202738582072 ] } },
{ "type": "Feature", "properties": { "ref:csioz": 1209659, "name": "Apteka Szpitalna", "addr:street": "gen. Mariana  Langiewicza", "addr:housenumber": "61", "addr:flats": null, "addr:city": "Rzeszów", "addr:postcode": "35-959", "amenity": "pharmacy" }, "geometry": { "type": "Point", "coordinates": [ 21.978150750191539, 50.030416454770716 ] } },
{ "type": "Feature", "properties": { "ref:csioz": 1210473, "name": "Niezapominajka Dla Całej Rodziny", "addr:street": "Adama Mickiewicza", "addr:housenumber": "12", "addr:flats": null, "addr:city": "Rzeszów", "addr:postcode": "35-064", "amenity": "pharmacy" }, "geometry": { "type": "Point", "coordinates": [ 22.009392629689319, 50.037522252452128 ] } },
{ "type": "Feature", "properties": { "ref:csioz": 1216210, "name": "Różana", "addr:street": "Tadeusza Kościuszki", "addr:housenumber": "15", "addr:flats": null, "addr:city": "Rzeszów", "addr:postcode": "35-030", "amenity": "pharmacy" }, "geometry": { "type": "Point", "coordinates": [ 22.002208495062568, 50.037472293757205 ] } },
{ "type": "Feature", "properties": { "ref:csioz": 1216672, "name": "Apteka Słoneczna", "addr:street": "Ofiar Katynia", "addr:housenumber": "4", "addr:flats": null, "addr:city": "Rzeszów", "addr:postcode": "35-209", "amenity": "pharmacy" }, "geometry": { "type": "Point", "coordinates": [ 21.978598814500437, 50.052537768751755 ] } },
{ "type": "Feature", "properties": { "ref:csioz": 1220165, "name": "Nzoz Wenti-Med Spółka Cywilna", "addr:street": "Zenitowa", "addr:housenumber": "5", "addr:flats": null, "addr:city": "Rzeszów", "addr:postcode": "35-301", "amenity": "pharmacy" }, "geometry": { "type": "Point", "coordinates": [ 22.036560497824173, 50.037169877435197 ] } },
{ "type": "Feature", "properties": { "ref:csioz": 1222052, "name": "Apteka Słoneczna", "addr:street": "Tadeusza Rejtana", "addr:housenumber": "20A", "addr:flats": null, "addr:city": "Rzeszów", "addr:postcode": "35-310", "amenity": "pharmacy" }, "geometry": { "type": "Point", "coordinates": [ 22.016074232641049, 50.027086691944582 ] } },
{ "type": "Feature", "properties": { "ref:csioz": 1223584, "name": null, "addr:street": "Podwisłocze", "addr:housenumber": "22a", "addr:flats": null, "addr:city": "Rzeszów", "addr:postcode": "35-309", "amenity": "pharmacy" }, "geometry": { "type": "Point", "coordinates": [ 22.006189409876381, 50.024632433968158 ] } },
{ "type": "Feature", "properties": { "ref:csioz": 1224787, "name": "Apteka Szpitalna", "addr:street": "Witolda", "addr:housenumber": "6B", "addr:flats": null, "addr:city": "Rzeszów", "addr:postcode": "35-302", "amenity": "pharmacy" }, "geometry": { "type": "Point", "coordinates": [ 22.03965452866138, 50.03110127047745 ] } },
{ "type": "Feature", "properties": { "ref:csioz": 1227475, "name": null, "addr:street": "Wierzbowa", "addr:housenumber": "14", "addr:flats": null, "addr:city": "Rzeszów", "addr:postcode": "35-310", "amenity": "pharmacy" }, "geometry": { "type": "Point", "coordinates": [ 22.01515135644107, 50.033454149249906 ] } },
{ "type": "Feature", "properties": { "ref:csioz": 1230809, "name": null, "addr:street": "Rejtana Tadeusza", "addr:housenumber": "53", "addr:flats": null, "addr:city": "Rzeszów", "addr:postcode": "35-326", "amenity": "pharmacy" }, "geometry": { "type": "Point", "coordinates": [ 22.017575051812784, 50.021068116871341 ] } },
{ "type": "Feature", "properties": { "ref:csioz": 1147132, "name": "Dr.Max", "addr:street": "Podchorążych", "addr:housenumber": "1", "addr:flats": null, "addr:city": "Rzeszów", "addr:postcode": "35-216", "amenity": "pharmacy" }, "geometry": { "type": "Point", "coordinates": [ 22.001240238697317, 50.045286264190942 ] } },
{ "type": "Feature", "properties": { "ref:csioz": 1147164, "name": "Dr.Max", "addr:street": "Ofiar Katynia", "addr:housenumber": "15", "addr:flats": null, "addr:city": "Rzeszów", "addr:postcode": "35-209", "amenity": "pharmacy" }, "geometry": { "type": "Point", "coordinates": [ 21.977530277340797, 50.053112902291026 ] } },
{ "type": "Feature", "properties": { "ref:csioz": 1147129, "name": "Dr.Max", "addr:street": "Podwisłocze", "addr:housenumber": "10", "addr:flats": null, "addr:city": "Rzeszów", "addr:postcode": "35-410", "amenity": "pharmacy" }, "geometry": { "type": "Point", "coordinates": [ 22.004514907624017, 50.021785255766297 ] } },
{ "type": "Feature", "properties": { "ref:csioz": 1147141, "name": "Dr.Max", "addr:street": "Wolności", "addr:housenumber": "17", "addr:flats": null, "addr:city": "Rzeszów", "addr:postcode": "35-073", "amenity": "pharmacy" }, "geometry": { "type": "Point", "coordinates": [ 22.009229220757462, 50.039861985383581 ] } },
{ "type": "Feature", "properties": { "ref:csioz": 1172070, "name": "Moja", "addr:street": "gen. Władysława Sikorskiego", "addr:housenumber": "433", "addr:flats": null, "addr:city": "Rzeszów", "addr:postcode": "35-304", "amenity": "pharmacy" }, "geometry": { "type": "Point", "coordinates": [ 22.020732385483416, 49.981638317771626 ] } },
{ "type": "Feature", "properties": { "ref:csioz": 1165254, "name": "Pharmax Rzeszów", "addr:street": "Rycerska", "addr:housenumber": "2", "addr:flats": null, "addr:city": "Rzeszów", "addr:postcode": "35-241", "amenity": "pharmacy" }, "geometry": { "type": "Point", "coordinates": [ 22.00213398751443, 50.048680584246512 ] } },
{ "type": "Feature", "properties": { "ref:csioz": 1146952, "name": "Pod Gwiazdą", "addr:street": "Warzywna", "addr:housenumber": "18", "addr:flats": null, "addr:city": "Rzeszów", "addr:postcode": "35-310", "amenity": "pharmacy" }, "geometry": { "type": "Point", "coordinates": [ 22.014333904749549, 50.033194160927046 ] } },
{ "type": "Feature", "properties": { "ref:csioz": 1146740, "name": "Pod Gwiazdą", "addr:street": "Podwisłocze", "addr:housenumber": "30", "addr:flats": null, "addr:city": "Rzeszów", "addr:postcode": "35-309", "amenity": "pharmacy" }, "geometry": { "type": "Point", "coordinates": [ 22.008033089281003, 50.026191421929497 ] } },
{ "type": "Feature", "properties": { "ref:csioz": 1146551, "name": "Dr.Max", "addr:street": "płk. Leopolda Lisa-Kuli", "addr:housenumber": "19B", "addr:flats": null, "addr:city": "Rzeszów", "addr:postcode": "35-025", "amenity": "pharmacy" }, "geometry": { "type": "Point", "coordinates": [ 21.997249994747339, 50.035461685925434 ] } },
{ "type": "Feature", "properties": { "ref:csioz": 1231046, "name": "Apteka Eliksir", "addr:street": "Jana Pawła II", "addr:housenumber": "94", "addr:flats": null, "addr:city": "Rzeszów", "addr:postcode": "35-317", "amenity": "Pharmacy" }, "geometry": { "type": "Point", "coordinates": [ 21.98766367776345, 49.988096047018153 ] } },
{ "type": "Feature", "properties": { "ref:csioz": 1147052, "name": null, "addr:street": "Zenitowa", "addr:housenumber": "2", "addr:flats": null, "addr:city": "Rzeszów", "addr:postcode": "35-317", "amenity": "Pharmacy" }, "geometry": { "type": "Point", "coordinates": [ 22.034760423506551, 50.036906890171025 ] } },
{ "type": "Feature", "properties": { "ref:csioz": 1212741, "name": "WIKTORIA", "addr:street": "mjr. Wacława Kopisto", "addr:housenumber": "8B/499", "addr:flats": "", "addr:city": "Rzeszów", "addr:postcode": "35-317", "amenity": "Pharmacy" }, "geometry": { "type": "Point", "coordinates": [ 22.009861992883906, 50.029470662831187 ] } },
{ "type": "Feature", "properties": { "ref:csioz": 1138249, "name": "Apteka Szpitalna PODKARPACKIEGO CENTRUM CHORÓB PŁUC", "addr:street": "Rycerska", "addr:housenumber": "2", "addr:flats": null, "addr:city": "Rzeszów", "addr:postcode": "35-317", "amenity": "Pharmacy" }, "geometry": { "type": "Point", "coordinates": [ 22.00410822541528, 50.047460325312109 ] } },
{ "type": "Feature", "properties": { "ref:csioz": 1138225, "name": "Apteka Szpitalna Klinicznego Szpitala Wojewódzkiego Nr 1 im. Fryderyka Chopina", "addr:street": "Fryderyka Szopena", "addr:housenumber": "2", "addr:flats": null, "addr:city": "Rzeszów", "addr:postcode": "35-317", "amenity": "Pharmacy" }, "geometry": { "type": "Point", "coordinates": [ 22.009431208878649, 50.035840714442898 ] } },
{ "type": "Feature", "properties": { "ref:csioz": 1138217, "name": "Apteka Szpitalna Szpitala Miejskiego im. Jana Pawła II", "addr:street": "Rycerska", "addr:housenumber": "4", "addr:flats": null, "addr:city": "Rzeszów", "addr:postcode": "35-317", "amenity": "Pharmacy" }, "geometry": { "type": "Point", "coordinates": [ 22.002069936118538, 50.048703738559979 ] } }
]
}
