{
"type": "FeatureCollection",
"name": "zw_woj_lodzkie-pow_opoczynski-JPT_KOD_JE_1007",
"crs": { "type": "name", "properties": { "name": "urn:ogc:def:crs:EPSG::3857" } },
"features": [
{ "type": "Feature", "properties": { "ref:csioz": 1010264, "addr:street": "Partyzantów", "addr:housenumber": "45", "addr:city": "Opoczno", "addr:postcode": "26-300", "amenity": "pharmacy", "name": null }, "geometry": { "type": "Point", "coordinates": [ 2257231.894596662372351, 6688672.32618463691324 ] } },
{ "type": "Feature", "properties": { "ref:csioz": 1011857, "addr:street": "Mikołaja Kopernika", "addr:housenumber": "2C", "addr:city": "Opoczno", "addr:postcode": "26-300", "amenity": "pharmacy", "name": "Verbena" }, "geometry": { "type": "Point", "coordinates": [ 2257077.788486493751407, 6688134.615149444900453 ] } },
{ "type": "Feature", "properties": { "ref:csioz": 1012159, "addr:street": "Plac Kościuszki", "addr:housenumber": "9", "addr:city": "Opoczno", "addr:postcode": "26-300", "amenity": "pharmacy", "name": "Apteka Dbam O Zdrowie" }, "geometry": { "type": "Point", "coordinates": [ 2258495.224057217594236, 6688168.210232825018466 ] } },
{ "type": "Feature", "properties": { "ref:csioz": 1013102, "addr:street": "Powstańców Wielkopolskich", "addr:housenumber": "1A", "addr:city": "Mniszków", "addr:postcode": "26-341", "amenity": "pharmacy", "name": "Flos" }, "geometry": { "type": "Point", "coordinates": [ 2230732.979365802835673, 6687675.402381116524339 ] } },
{ "type": "Feature", "properties": { "ref:csioz": 1016140, "addr:street": "Polna", "addr:housenumber": "1", "addr:city": "Paradyż", "addr:postcode": "26-333", "amenity": "pharmacy", "name": null }, "geometry": { "type": "Point", "coordinates": [ 2238722.303527229465544, 6675162.776058317162097 ] } },
{ "type": "Feature", "properties": { "ref:csioz": 1017389, "addr:street": "Partyzantów", "addr:housenumber": "1A", "addr:city": "Opoczno", "addr:postcode": "26-300", "amenity": "pharmacy", "name": null }, "geometry": { "type": "Point", "coordinates": [ 2257305.736689389683306, 6687383.788153548724949 ] } },
{ "type": "Feature", "properties": { "ref:csioz": 1020112, "addr:street": "Marii Skłodowskiej-Curie", "addr:housenumber": "10A\/10", "addr:city": "Opoczno", "addr:postcode": "26-300", "amenity": "pharmacy", "name": null }, "geometry": { "type": "Point", "coordinates": [ 2257728.772806559689343, 6688934.216545009054244 ] } },
{ "type": "Feature", "properties": { "ref:csioz": 1026247, "addr:street": "", "addr:housenumber": "77a", "addr:city": "Petrykozy", "addr:postcode": "26-307", "amenity": "pharmacy", "name": "Pigułka Ewelina Strzałkowska" }, "geometry": { "type": "Point", "coordinates": [ 2266763.343660536687821, 6674715.023723922669888 ] } },
{ "type": "Feature", "properties": { "ref:csioz": 1023767, "addr:street": "Partyzantów", "addr:housenumber": "37", "addr:city": "Opoczno", "addr:postcode": "26-300", "amenity": "pharmacy", "name": "\"Apteka 36,6\"" }, "geometry": { "type": "Point", "coordinates": [ 2257271.482711288612336, 6688420.969574152491987 ] } },
{ "type": "Feature", "properties": { "ref:csioz": 1227117, "addr:street": "Mikołaja Kopernika", "addr:housenumber": "6", "addr:city": "Opoczno", "addr:postcode": "26-300", "amenity": "pharmacy", "name": "\"Apteka \"\"Codzienna\"\"\"" }, "geometry": { "type": "Point", "coordinates": [ 2257050.164856523741037, 6688459.708512947894633 ] } },
{ "type": "Feature", "properties": { "ref:csioz": 1011873, "addr:street": "Westerplatte", "addr:housenumber": "6A", "addr:city": "Opoczno", "addr:postcode": "26-300", "amenity": "pharmacy", "name": null }, "geometry": { "type": "Point", "coordinates": [ 2256464.48764135921374, 6688797.783151417970657 ] } },
{ "type": "Feature", "properties": { "ref:csioz": 1014978, "addr:street": "Kilińskiego", "addr:housenumber": "19A", "addr:city": "Opoczno", "addr:postcode": "26-300", "amenity": "pharmacy", "name": null }, "geometry": { "type": "Point", "coordinates": [ 2258357.121524275280535, 6688191.239035031758249 ] } },
{ "type": "Feature", "properties": { "ref:csioz": 1017075, "addr:street": "Plac Marszałka J. Piłsudskiego", "addr:housenumber": "21A", "addr:city": "Żarnów", "addr:postcode": "26-330", "amenity": "pharmacy", "name": null }, "geometry": { "type": "Point", "coordinates": [ 2245557.316106985323131, 6665165.935846786946058 ] } },
{ "type": "Feature", "properties": { "ref:csioz": 1022736, "addr:street": "Jana Pawła II", "addr:housenumber": "20", "addr:city": "Sławno", "addr:postcode": "26-332", "amenity": "pharmacy", "name": null }, "geometry": { "type": "Point", "coordinates": [ 2242053.149632879067212, 6690762.611654683016241 ] } },
{ "type": "Feature", "properties": { "ref:csioz": 1114400, "addr:street": "Wolności", "addr:housenumber": "4", "addr:city": "Żarnów", "addr:postcode": "26-330", "amenity": "pharmacy", "name": null }, "geometry": { "type": "Point", "coordinates": [ 2245435.708910810295492, 6665396.802066888660192 ] } },
{ "type": "Feature", "properties": { "ref:csioz": 1118422, "addr:street": "Konecka", "addr:housenumber": "1", "addr:city": "Paradyż", "addr:postcode": "26-333", "amenity": "pharmacy", "name": "Apteka Lawendowa" }, "geometry": { "type": "Point", "coordinates": [ 2239173.66752232471481, 6675569.458331160247326 ] } },
{ "type": "Feature", "properties": { "ref:csioz": 1164662, "addr:street": null, "addr:housenumber": "90", "addr:city": "Wójcin", "addr:postcode": "26-333", "amenity": "pharmacy", "name": "Flos" }, "geometry": { "type": "Point", "coordinates": [ 2229876.825666371267289, 6680029.054698589257896 ] } },
{ "type": "Feature", "properties": { "ref:csioz": 1176813, "addr:street": "Piotrkowska", "addr:housenumber": "66", "addr:city": "Opoczno", "addr:postcode": "26-300", "amenity": "pharmacy", "name": "Przyjazna" }, "geometry": { "type": "Point", "coordinates": [ 2256898.261760642752051, 6688042.665659492835402 ] } },
{ "type": "Feature", "properties": { "ref:csioz": 1185978, "addr:street": "Piotrkowska", "addr:housenumber": "70", "addr:city": "Opoczno", "addr:postcode": "26-300", "amenity": "pharmacy", "name": "Apteka Stacja Zdrowie Mgr Farm. Robert Zalega" }, "geometry": { "type": "Point", "coordinates": [ 2256838.166588655207306, 6688031.536799531430006 ] } },
{ "type": "Feature", "properties": { "ref:csioz": 1189428, "addr:street": "Piotrkowska", "addr:housenumber": "41A", "addr:city": "Opoczno", "addr:postcode": "26-300", "amenity": "pharmacy", "name": "Apteka Melisa" }, "geometry": { "type": "Point", "coordinates": [ 2257345.205906865186989, 6687963.396253729239106 ] } },
{ "type": "Feature", "properties": { "ref:csioz": 1215383, "addr:street": "Wolności", "addr:housenumber": "29", "addr:city": "Białaczów", "addr:postcode": "26-307", "amenity": "pharmacy", "name": "Koniczynka III" }, "geometry": { "type": "Point", "coordinates": [ 2259340.480057573877275, 6674290.713465101085603 ] } },
{ "type": "Feature", "properties": { "ref:csioz": 1164471, "addr:street": "Piotrkowska", "addr:housenumber": "6", "addr:city": "Opoczno", "addr:postcode": "26-300", "amenity": "pharmacy", "name": "\"Apteka \"\"Osobista\"\"\"" }, "geometry": { "type": "Point", "coordinates": [ 2258113.279319086112082, 6688183.269099928438663 ] } },
{ "type": "Feature", "properties": { "ref:csioz": 1012714, "addr:street": "Plac Tadeusza Kościuszki", "addr:housenumber": "14", "addr:city": "Drzewica", "addr:postcode": "26-340", "amenity": "pharmacy", "name": null }, "geometry": { "type": "Point", "coordinates": [ 2279094.879819337744266, 6701192.692707651294768 ] } },
{ "type": "Feature", "properties": { "ref:csioz": 1012930, "addr:street": "Wolności", "addr:housenumber": "16A", "addr:city": "Drzewica", "addr:postcode": "26-340", "amenity": "pharmacy", "name": "Apteka Mgr Farm. Andrzej Szlonzak" }, "geometry": { "type": "Point", "coordinates": [ 2279825.725017618387938, 6701470.767349045723677 ] } },
{ "type": "Feature", "properties": { "ref:csioz": 1119609, "addr:street": "Akacjowa", "addr:housenumber": "3", "addr:city": "Poświętne", "addr:postcode": "26-315", "amenity": "pharmacy", "name": null }, "geometry": { "type": "Point", "coordinates": [ 2267565.093031989876181, 6715756.740370695479214 ] } },
{ "type": "Feature", "properties": { "ref:csioz": 1176837, "addr:street": "Stawowa", "addr:housenumber": "27", "addr:city": "Drzewica", "addr:postcode": "26-340", "amenity": "pharmacy", "name": "Farmacja I Uroda" }, "geometry": { "type": "Point", "coordinates": [ 2278409.432486454024911, 6701254.057666380889714 ] } },
{ "type": "Feature", "properties": { "ref:csioz": 1230573, "addr:street": null, "addr:housenumber": "1", "addr:city": "Jelnia", "addr:postcode": "26-340", "amenity": "pharmacy", "name": null }, "geometry": { "type": "Point", "coordinates": [ 2277618.378658945206553, 6699254.502322271466255 ] } }
]
}
