{
"type": "FeatureCollection",
"name": "JPT_KOD_JE_0617",
"features": [
{ "type": "Feature", "properties": { "ref:csioz": 1153618, "addr:housenumber": "84", "addr:city": "Rybczewice Drugie", "addr:postcode": "21-065", "amenity": "pharmacy" }, "geometry": { "type": "Point", "coordinates": [ 22.850497861980688, 51.028747083522006 ] } },
{ "type": "Feature", "properties": { "ref:csioz": 1157575, "addr:housenumber": "16", "addr:city": "Piaski", "addr:postcode": "21-050", "amenity": "pharmacy", "addr:street": "Partyzantów" }, "geometry": { "type": "Point", "coordinates": [ 22.84812212693393, 51.137424858041818 ] } },
{ "type": "Feature", "properties": { "ref:csioz": 1158489, "addr:housenumber": "1", "addr:city": "Trawniki", "addr:postcode": "21-044", "amenity": "pharmacy", "addr:street": "Przemysłowa" }, "geometry": { "type": "Point", "coordinates": [ 22.995070000081462, 51.137497000015493 ] } },
{ "type": "Feature", "properties": { "ref:csioz": 1162752, "addr:housenumber": "17", "addr:city": "Piaski", "addr:postcode": "21-050", "amenity": "pharmacy", "addr:street": "Braci Spozów", "name": "Apteka Premium- Lek" }, "geometry": { "type": "Point", "coordinates": [ 22.846117557664549, 51.137016633236641 ] } },
{ "type": "Feature", "properties": { "ref:csioz": 1165673, "addr:housenumber": "120C", "addr:city": "Rybczewice Drugie", "addr:postcode": "21-065", "amenity": "pharmacy", "name": "Apteka Luxfarm" }, "geometry": { "type": "Point", "coordinates": [ 22.852886036017924, 51.037090141224922 ] } },
{ "type": "Feature", "properties": { "ref:csioz": 1162544, "addr:housenumber": "13", "addr:city": "Piaski", "addr:postcode": "21-050", "amenity": "pharmacy", "addr:street": "Braci Spozów" }, "geometry": { "type": "Point", "coordinates": [ 22.84667328876057, 51.137433354403953 ] } },
{ "type": "Feature", "properties": { "ref:csioz": 1161928, "addr:housenumber": "22A", "addr:city": "Biskupice", "addr:postcode": "21-043", "amenity": "pharmacy", "addr:street": "Podwal" }, "geometry": { "type": "Point", "coordinates": [ 22.945798471834625, 51.158775814905717 ] } },
{ "type": "Feature", "properties": { "ref:csioz": 1189706, "addr:housenumber": "529a", "addr:city": "Trawniki", "addr:postcode": "21-044", "amenity": "pharmacy", "name": "Apteka Pod Kasztanami" }, "geometry": { "type": "Point", "coordinates": [ 22.99419129329393, 51.140642238872758 ] } },
{ "type": "Feature", "properties": { "ref:csioz": 1162973, "addr:housenumber": "8", "addr:city": "Świdnik", "addr:postcode": "21-040", "amenity": "pharmacy", "addr:street": "Racławicka", "name": "Apteka" }, "geometry": { "type": "Point", "coordinates": [ 22.704164402682629, 51.214931110284418 ] } },
{ "type": "Feature", "properties": { "ref:csioz": 1159107, "addr:housenumber": "17", "addr:city": "Świdnik", "addr:postcode": "21-040", "amenity": "pharmacy", "addr:street": "Kard. Stefana Wyszyńskiego", "name": "Apteka Vita-Centrum" }, "geometry": { "type": "Point", "coordinates": [ 22.698609011252991, 51.217149385053474 ] } },
{ "type": "Feature", "properties": { "ref:csioz": 1161803, "addr:housenumber": "39", "addr:city": "Świdnik", "addr:postcode": "21-040", "amenity": "pharmacy", "addr:street": "Racławicka", "name": "Apteka Fragal" }, "geometry": { "type": "Point", "coordinates": [ 22.694165922880011, 51.216045532129037 ] } },
{ "type": "Feature", "properties": { "ref:csioz": 1163825, "addr:housenumber": "6A", "addr:city": "Świdnik", "addr:postcode": "21-040", "amenity": "pharmacy", "addr:street": "Leona Kruczkowskiego", "name": "Apteka Mgr Farm. Teresa Górecka - Jałocha" }, "geometry": { "type": "Point", "coordinates": [ 22.692880000054146, 51.217914000015007 ] } },
{ "type": "Feature", "properties": { "ref:csioz": 1188252, "addr:housenumber": "20 B", "addr:city": "Świdnik", "addr:postcode": "21-040", "amenity": "pharmacy", "addr:street": "gen. L. Okulickiego", "name": "Top-Farm", "addr:flats": "1" }, "geometry": { "type": "Point", "coordinates": [ 22.708469038818162, 51.220834595211628 ] } },
{ "type": "Feature", "properties": { "ref:csioz": 1110945, "addr:housenumber": "1", "addr:city": "Świdnik", "addr:postcode": "21-040", "amenity": "pharmacy", "addr:street": "Niepodległości", "name": "Apteka Luxfarm" }, "geometry": { "type": "Point", "coordinates": [ 22.695142782988508, 51.220586158722242 ] } },
{ "type": "Feature", "properties": { "ref:csioz": 1162174, "addr:housenumber": "31", "addr:city": "Mełgiew", "addr:postcode": "21-007", "amenity": "pharmacy", "addr:street": "Kościelna", "name": "Apteka Gemini" }, "geometry": { "type": "Point", "coordinates": [ 22.780518143572415, 51.228250043002781 ] } },
{ "type": "Feature", "properties": { "ref:csioz": 1162335, "addr:housenumber": "1", "addr:city": "Świdnik", "addr:postcode": "21-040", "amenity": "pharmacy", "addr:street": "Racławicka" }, "geometry": { "type": "Point", "coordinates": [ 22.707219528005581, 51.214903662814464 ] } },
{ "type": "Feature", "properties": { "ref:csioz": 1163252, "addr:housenumber": "2", "addr:city": "Świdnik", "addr:postcode": "21-040", "amenity": "pharmacy", "addr:street": "Kusocińskiego", "name": "Dbam O Zdrowie" }, "geometry": { "type": "Point", "coordinates": [ 22.712698500473564, 51.212692649032547 ] } },
{ "type": "Feature", "properties": { "ref:csioz": 1163470, "addr:housenumber": "5", "addr:city": "Świdnik", "addr:postcode": "21-040", "amenity": "pharmacy", "addr:street": "Niepodległości", "name": "Apteka Dbam O Zdrowie" }, "geometry": { "type": "Point", "coordinates": [ 22.69642563275373, 51.220389166807962 ] } },
{ "type": "Feature", "properties": { "ref:csioz": 1163817, "addr:housenumber": "8 i", "addr:city": "Świdnik", "addr:postcode": "21-040", "amenity": "pharmacy", "addr:street": "Okulickiego", "name": "Apteka Mgr Farm. Teresa Górecka-Jałocha" }, "geometry": { "type": "Point", "coordinates": [ 22.701267350548608, 51.222268598457745 ] } },
{ "type": "Feature", "properties": { "ref:csioz": 1170362, "addr:housenumber": "26", "addr:city": "Świdnik", "addr:postcode": "21-040", "amenity": "pharmacy", "addr:street": "kard. Stefana Wyszyńskiego", "name": "Apteka Fragal" }, "geometry": { "type": "Point", "coordinates": [ 22.69966600005468, 51.215197000015003 ] } },
{ "type": "Feature", "properties": { "ref:csioz": 1196438, "addr:housenumber": "17", "addr:city": "Świdnik", "addr:postcode": "21-040", "amenity": "pharmacy", "addr:street": "Kosynierów", "name": "Apteka Medyka" }, "geometry": { "type": "Point", "coordinates": [ 22.708378071369157, 51.216538386772385 ] } },
{ "type": "Feature", "properties": { "ref:csioz": 1188979, "addr:housenumber": "9", "addr:city": "Świdnik", "addr:postcode": "21-040", "amenity": "pharmacy", "addr:street": "Targowa", "name": "Apteka Przy Hali Mgr Farm. Teresa Górecka - Jałocha" }, "geometry": { "type": "Point", "coordinates": [ 22.699703469680646, 51.222573843330416 ] } },
{ "type": "Feature", "properties": { "ref:csioz": 1189905, "addr:housenumber": "18", "addr:city": "Świdnik", "addr:postcode": "21-040", "amenity": "pharmacy", "addr:street": "Lotników Polskich", "name": "Apteka Szpitalna" }, "geometry": { "type": "Point", "coordinates": [ 22.694244085640573, 51.221555666209163 ] } },
{ "type": "Feature", "properties": { "ref:csioz": 1208148, "addr:housenumber": "22", "addr:city": "Świdnik", "addr:postcode": "21-040", "amenity": "pharmacy", "addr:street": "kard. Stefana Wyszyńskiego", "name": "Apteka Gemini" }, "geometry": { "type": "Point", "coordinates": [ 22.699431000054652, 51.21633400001501 ] } },
{ "type": "Feature", "properties": { "ref:csioz": 1210224, "addr:housenumber": "6", "addr:city": "Świdnik", "addr:postcode": "21-040", "amenity": "pharmacy", "addr:street": "Kardynała Stefana  Wyszyńskiego", "name": "Niezapominajka Dla Całej Rodziny" }, "geometry": { "type": "Point", "coordinates": [ 22.700485924874773, 51.220309892338605 ] } },
{ "type": "Feature", "properties": { "ref:csioz": 1162760, "addr:housenumber": "91A", "addr:city": "Bystrzejowice Pierwsze", "addr:postcode": "21-050", "amenity": "pharmacy", "addr:street": null, "name": null, "addr:flats": null }, "geometry": { "type": "Point", "coordinates": [ 22.751212766321235, 51.17032019133498 ] } },
{ "type": "Feature", "properties": { "ref:csioz": 1231093, "addr:housenumber": "1A", "addr:city": "Kębłów", "addr:postcode": "21-050", "amenity": "pharmacy", "addr:street": null, "name": "Vital Centrum", "addr:flats": null }, "geometry": { "type": "Point", "coordinates": [ 22.829555294877878, 51.141709299984953 ] } }
]
}
