{
"type": "FeatureCollection",
"name": "apteki_Biala_Podlaska",
"crs": { "type": "name", "properties": { "name": "urn:ogc:def:crs:OGC:1.3:CRS84" } },
"features": [
{ "type": "Feature", "properties": { "ref:csioz": 1155556, "name": "Centuria", "addr:street": "Plac Wolności", "addr:housenumber": "26", "addr:city": "Biała Podlaska", "addr:postcode": "21-500", "amenity": "pharmacy", "addr:flats": null }, "geometry": { "type": "Point", "coordinates": [ 23.119566206472594, 52.033416332082027 ] } },
{ "type": "Feature", "properties": { "ref:csioz": 1155570, "name": null, "addr:street": "Sidorska", "addr:housenumber": "20E", "addr:city": "Biała Podlaska", "addr:postcode": "21-500", "amenity": "pharmacy", "addr:flats": null }, "geometry": { "type": "Point", "coordinates": [ 23.12974155566868, 52.023869900584323 ] } },
{ "type": "Feature", "properties": { "ref:csioz": 1155641, "name": "Dr.Max", "addr:street": "al.Jana Pawła II", "addr:housenumber": "163", "addr:city": "Biała Podlaska", "addr:postcode": "21-500", "amenity": "pharmacy", "addr:flats": null }, "geometry": { "type": "Point", "coordinates": [ 23.135600000084739, 52.027551000017283 ] } },
{ "type": "Feature", "properties": { "ref:csioz": 1155796, "name": "Vita", "addr:street": "Królowej Jadwigi", "addr:housenumber": "2", "addr:city": "Biała Podlaska", "addr:postcode": "21-500", "amenity": "pharmacy", "addr:flats": null }, "geometry": { "type": "Point", "coordinates": [ 23.110063821395318, 52.044733062454021 ] } },
{ "type": "Feature", "properties": { "ref:csioz": 1155989, "name": "Sana", "addr:street": "Terebelska", "addr:housenumber": "49", "addr:city": "Biała Podlaska", "addr:postcode": "21-500", "amenity": "pharmacy", "addr:flats": "5" }, "geometry": { "type": "Point", "coordinates": [ 23.111562239593614, 52.04405512249614 ] } },
{ "type": "Feature", "properties": { "ref:csioz": 1155990, "name": "Sana", "addr:street": "Terebelska", "addr:housenumber": "51", "addr:city": "Biała Podlaska", "addr:postcode": "21-500", "amenity": "pharmacy", "addr:flats": null }, "geometry": { "type": "Point", "coordinates": [ 23.110815886499651, 52.044883775913775 ] } },
{ "type": "Feature", "properties": { "ref:csioz": 1156084, "name": null, "addr:street": "Kopernika", "addr:housenumber": "22", "addr:city": "Biała Podlaska", "addr:postcode": "21-500", "amenity": "pharmacy", "addr:flats": null }, "geometry": { "type": "Point", "coordinates": [ 23.10323289142509, 52.036796998730786 ] } },
{ "type": "Feature", "properties": { "ref:csioz": 1156232, "name": null, "addr:street": "Kościuszki", "addr:housenumber": "5", "addr:city": "Biała Podlaska", "addr:postcode": "21-500", "amenity": "pharmacy", "addr:flats": null }, "geometry": { "type": "Point", "coordinates": [ 23.13067132885471, 52.021915136018691 ] } },
{ "type": "Feature", "properties": { "ref:csioz": 1156255, "name": "Nasze Apteki", "addr:street": "Janowska", "addr:housenumber": "9", "addr:city": "Biała Podlaska", "addr:postcode": "21-500", "amenity": "pharmacy", "addr:flats": null }, "geometry": { "type": "Point", "coordinates": [ 23.119037226788411, 52.035369483890783 ] } },
{ "type": "Feature", "properties": { "ref:csioz": 1156488, "name": "Medica", "addr:street": "Terebelska", "addr:housenumber": "57-65", "addr:city": "Biała Podlaska", "addr:postcode": "21-500", "amenity": "pharmacy", "addr:flats": null }, "geometry": { "type": "Point", "coordinates": [ 23.110727649854077, 52.046496465166513 ] } },
{ "type": "Feature", "properties": { "ref:csioz": 1189952, "name": "Apteka Szpitalna", "addr:street": "Terebelska", "addr:housenumber": "57", "addr:city": "Biała Podlaska", "addr:postcode": "21-500", "amenity": "pharmacy", "addr:flats": "65" }, "geometry": { "type": "Point", "coordinates": [ 23.110738000082005, 52.04649700001724 ] } },
{ "type": "Feature", "properties": { "ref:csioz": 1203806, "name": null, "addr:street": "Sidorska", "addr:housenumber": "100", "addr:city": "Biała Podlaska", "addr:postcode": "21-500", "amenity": "pharmacy", "addr:flats": null }, "geometry": { "type": "Point", "coordinates": [ 23.157273000086985, 52.025034000017357 ] } },
{ "type": "Feature", "properties": { "ref:csioz": 1155438, "name": "Apteka Podlaska Apteka Sda", "addr:street": "Warszawska", "addr:housenumber": "2", "addr:city": "Biała Podlaska", "addr:postcode": "21-500", "amenity": "pharmacy", "addr:flats": null }, "geometry": { "type": "Point", "coordinates": [ 23.118657539818123, 52.033021038970091 ] } },
{ "type": "Feature", "properties": { "ref:csioz": 1155467, "name": "Apteka Dbam O Zdrowie", "addr:street": "Brzeska", "addr:housenumber": "37", "addr:city": "Biała Podlaska", "addr:postcode": "21-500", "amenity": "pharmacy", "addr:flats": null }, "geometry": { "type": "Point", "coordinates": [ 23.125537969360867, 52.035385801125415 ] } },
{ "type": "Feature", "properties": { "ref:csioz": 1155543, "name": "Viola", "addr:street": "Sidorska", "addr:housenumber": "59", "addr:city": "Biała Podlaska", "addr:postcode": "21-500", "amenity": "pharmacy", "addr:flats": null }, "geometry": { "type": "Point", "coordinates": [ 23.143396000085577, 52.023836000017312 ] } },
{ "type": "Feature", "properties": { "ref:csioz": 1156117, "name": "Nasze Apteki", "addr:street": "Sidorska", "addr:housenumber": "2K", "addr:city": "Biała Podlaska", "addr:postcode": "21-500", "amenity": "pharmacy", "addr:flats": null }, "geometry": { "type": "Point", "coordinates": [ 23.123741541953311, 52.023733136624848 ] } },
{ "type": "Feature", "properties": { "ref:csioz": 1155446, "name": "\"Doz Apteka Dbam O Zdrowie \"\"Nova\"\"\"", "addr:street": "Terebelska", "addr:housenumber": "67", "addr:city": "Biała Podlaska", "addr:postcode": "21-500", "amenity": "pharmacy", "addr:flats": null }, "geometry": { "type": "Point", "coordinates": [ 23.108933865833809, 52.047453886354987 ] } },
{ "type": "Feature", "properties": { "ref:csioz": 1156308, "name": "Doz Apteka Dbam O Zdrowie", "addr:street": "Narutowicza", "addr:housenumber": "35b", "addr:city": "Biała Podlaska", "addr:postcode": "21-500", "amenity": "pharmacy", "addr:flats": null }, "geometry": { "type": "Point", "coordinates": [ 23.119686000083089, 52.031683000017239 ] } },
{ "type": "Feature", "properties": { "ref:csioz": 1156319, "name": "Doz Apteka Dbam O Zdrowie", "addr:street": "Warszawska", "addr:housenumber": "17", "addr:city": "Biała Podlaska", "addr:postcode": "21-500", "amenity": "pharmacy", "addr:flats": null }, "geometry": { "type": "Point", "coordinates": [ 23.109160717362773, 52.031814612282247 ] } },
{ "type": "Feature", "properties": { "ref:csioz": 1187697, "name": "Apteka Dbam O Zdrowie", "addr:street": "Brzeska", "addr:housenumber": "27", "addr:city": "Biała Podlaska", "addr:postcode": "21-500", "amenity": "pharmacy", "addr:flats": null }, "geometry": { "type": "Point", "coordinates": [ 23.12418900008349, 52.034602000017259 ] } },
{ "type": "Feature", "properties": { "ref:csioz": 1188283, "name": "Farmacja 24", "addr:street": "Jana III Sobieskiego", "addr:housenumber": "9", "addr:city": "Biała Podlaska", "addr:postcode": "21-500", "amenity": "pharmacy", "addr:flats": "6/7" }, "geometry": { "type": "Point", "coordinates": [ 23.111503697793793, 52.049546591543823 ] } },
{ "type": "Feature", "properties": { "ref:csioz": 1193473, "name": "Apteka Podlaska Ii Apteka Sda", "addr:street": "Jana III Sobieskiego", "addr:housenumber": "8", "addr:city": "Biała Podlaska", "addr:postcode": "21-500", "amenity": "pharmacy", "addr:flats": null }, "geometry": { "type": "Point", "coordinates": [ 23.114340000082333, 52.048323000017263 ] } },
{ "type": "Feature", "properties": { "ref:csioz": 1203811, "name": null, "addr:street": "Orzechowa", "addr:housenumber": "32", "addr:city": "Biała Podlaska", "addr:postcode": "21-500", "amenity": "pharmacy", "addr:flats": null }, "geometry": { "type": "Point", "coordinates": [ 23.148057995604365, 52.02858689288054 ] } }
]
}
