{
"type": "FeatureCollection",
"name": "JPT_KOD_JE_1606",
"features": [
{ "type": "Feature", "properties": { "ref:csioz": 1106935, "addr:housenumber": "3", "addr:city": "Domaszowice", "addr:postcode": "46-146", "amenity": "pharmacy", "name": "Amicus", "addr:street": "Strzelecka" }, "geometry": { "type": "Point", "coordinates": [ 17.887740078436568, 51.043363483222222 ] } },
{ "type": "Feature", "properties": { "ref:csioz": 1108068, "addr:housenumber": "8A", "addr:city": "Namysłów", "addr:postcode": "46-100", "amenity": "pharmacy", "name": "Apteka Rodzinna", "addr:street": "Adama Mickiewicza" }, "geometry": { "type": "Point", "coordinates": [ 17.72560734797273, 51.072633358513663 ] } },
{ "type": "Feature", "properties": { "ref:csioz": 1108076, "addr:housenumber": "10", "addr:city": "Namysłów", "addr:postcode": "46-100", "amenity": "pharmacy", "name": "Siloe", "addr:street": "Obrońców Pokoju" }, "geometry": { "type": "Point", "coordinates": [ 17.718842099964419, 51.076128132881173 ] } },
{ "type": "Feature", "properties": { "ref:csioz": 1109139, "addr:housenumber": "30A", "addr:city": "Pokój", "addr:postcode": "46-034", "amenity": "pharmacy", "name": "\"Apteka \"\"Pod Lipami\"\"\"", "addr:street": "1 Maja" }, "geometry": { "type": "Point", "coordinates": [ 17.842175999999498, 50.906800000013817 ] } },
{ "type": "Feature", "properties": { "ref:csioz": 1110120, "addr:housenumber": "4", "addr:city": "Wilków", "addr:postcode": "46-113", "amenity": "pharmacy", "addr:street": "Długa" }, "geometry": { "type": "Point", "coordinates": [ 17.664434871120271, 51.102502735151894 ] } },
{ "type": "Feature", "properties": { "ref:csioz": 1177042, "addr:housenumber": "1", "addr:city": "Namysłów", "addr:postcode": "46-100", "amenity": "pharmacy", "name": "Na Reymonta", "addr:street": "Władysława Stanisława Reymonta" }, "geometry": { "type": "Point", "coordinates": [ 17.70732145806047, 51.074754150091955 ] } },
{ "type": "Feature", "properties": { "ref:csioz": 1108101, "addr:housenumber": "2", "addr:city": "Namysłów", "addr:postcode": "46-100", "amenity": "pharmacy", "name": "Pod Białym Orłem", "addr:street": "Rynek" }, "geometry": { "type": "Point", "coordinates": [ 17.717869863649653, 51.076966458406559 ] } },
{ "type": "Feature", "properties": { "ref:csioz": 1108117, "addr:housenumber": "12", "addr:city": "Namysłów", "addr:postcode": "46-100", "amenity": "pharmacy", "name": "Dr.Max", "addr:street": "Sikorskiego" }, "geometry": { "type": "Point", "coordinates": [ 17.722930472049608, 51.077696762973808 ] } },
{ "type": "Feature", "properties": { "ref:csioz": 1220942, "addr:housenumber": "17B", "addr:city": "Namysłów", "addr:postcode": "46-100", "amenity": "pharmacy", "name": "Apteka Społeczna Na Bohaterów Warszawy Grupa Nowa Farmacja", "addr:street": "Bohaterów Warszawy", "addr:flats": "B" }, "geometry": { "type": "Point", "coordinates": [ 17.724544673067083, 51.076599580220183 ] } },
{ "type": "Feature", "properties": { "ref:csioz": null, "addr:housenumber": "1A", "addr:city": "Świerczów", "addr:postcode": "46-112", "amenity": "pharmacy", "name": null, "addr:street": "Kąty", "addr:flats": null }, "geometry": { "type": "Point", "coordinates": [ 17.760399326793753, 50.960661334156057 ] } }
]
}
