{
"type": "FeatureCollection",
"name": "JPT_KOD_JE_1212",
"features": [
{ "type": "Feature", "properties": { "ref:csioz": 1034593, "name": "\"Apteka \"\"Witaminka\"\"\"", "addr:street": "Wojska Polskiego", "addr:housenumber": "5", "addr:city": "Bukowno", "addr:postcode": "32-332", "amenity": "pharmacy" }, "geometry": { "type": "Point", "coordinates": [ 19.461173865236617, 50.267667889888436 ] } },
{ "type": "Feature", "properties": { "ref:csioz": 1035189, "name": "Apteka Dbam O Zdrowie", "addr:street": "Króla Kazimierza Wielkiego", "addr:housenumber": "14", "addr:city": "Olkusz", "addr:postcode": "32-300", "amenity": "pharmacy" }, "geometry": { "type": "Point", "coordinates": [ 19.564963550973978, 50.277133866865348 ] } },
{ "type": "Feature", "properties": { "ref:csioz": 1036320, "name": "Dr. Max", "addr:street": "Mariacka", "addr:housenumber": "6", "addr:city": "Wolbrom", "addr:postcode": "32-340", "amenity": "pharmacy" }, "geometry": { "type": "Point", "coordinates": [ 19.760795239792497, 50.386158280883905 ] } },
{ "type": "Feature", "properties": { "ref:csioz": 1036818, "name": "Apteka Staromiejska", "addr:street": "Adama Mickiewicza", "addr:housenumber": "7", "addr:city": "Olkusz", "addr:postcode": "32-300", "amenity": "pharmacy" }, "geometry": { "type": "Point", "coordinates": [ 19.556977456782555, 50.278845380408484 ] } },
{ "type": "Feature", "properties": { "ref:csioz": 1037203, "name": "Twoja Apteka Rodzinna", "addr:street": "Sosnowa", "addr:housenumber": "1", "addr:flats": "L-5", "addr:city": "Klucze", "addr:postcode": "32-310", "amenity": "pharmacy" }, "geometry": { "type": "Point", "coordinates": [ 19.561726853235729, 50.341639189319089 ] } },
{ "type": "Feature", "properties": { "ref:csioz": 1037216, "addr:street": "Zawierciańska", "addr:housenumber": "12", "addr:city": "Klucze", "addr:postcode": "32-310", "amenity": "pharmacy" }, "geometry": { "type": "Point", "coordinates": [ 19.562887006180461, 50.338428110891961 ] } },
{ "type": "Feature", "properties": { "ref:csioz": 1037227, "name": "Tęczowa", "addr:street": "Zawierciańska", "addr:housenumber": "4", "addr:city": "Klucze", "addr:postcode": "32-310", "amenity": "pharmacy" }, "geometry": { "type": "Point", "coordinates": [ 19.562747052163395, 50.336860045387773 ] } },
{ "type": "Feature", "properties": { "ref:csioz": 1042406, "addr:street": "1000-lecia", "addr:housenumber": "17", "addr:city": "Olkusz", "addr:postcode": "32-300", "amenity": "pharmacy" }, "geometry": { "type": "Point", "coordinates": [ 19.567329515599951, 50.269187241278779 ] } },
{ "type": "Feature", "properties": { "ref:csioz": 1042498, "name": "Agawa", "addr:street": "Nowa", "addr:housenumber": "1", "addr:city": "Bukowno", "addr:postcode": "32-332", "amenity": "pharmacy" }, "geometry": { "type": "Point", "coordinates": [ 19.460579068811736, 50.267962990813174 ] } },
{ "type": "Feature", "properties": { "ref:csioz": 1042525, "name": "Apteka Krakowska", "addr:street": "Krakowska", "addr:housenumber": "16", "addr:city": "Olkusz", "addr:postcode": "32-300", "amenity": "pharmacy" }, "geometry": { "type": "Point", "coordinates": [ 19.561808632143133, 50.278205068138732 ] } },
{ "type": "Feature", "properties": { "ref:csioz": 1042517, "name": "Libra", "addr:street": "Legionów Polskich", "addr:housenumber": "14", "addr:city": "Olkusz", "addr:postcode": "32-300", "amenity": "pharmacy" }, "geometry": { "type": "Point", "coordinates": [ 19.57815800118026, 50.266225970844246 ] } },
{ "type": "Feature", "properties": { "ref:csioz": 1056251, "name": "Nemezis", "addr:street": "Plac Wolności", "addr:housenumber": "15", "addr:city": "Wolbrom", "addr:postcode": "32-340", "amenity": "pharmacy" }, "geometry": { "type": "Point", "coordinates": [ 19.757686733661863, 50.377947218604291 ] } },
{ "type": "Feature", "properties": { "ref:csioz": 1056694, "name": "Apteka Zdrowie", "addr:street": "Główna", "addr:housenumber": "46", "addr:city": "Bolesław", "addr:postcode": "32-329", "amenity": "pharmacy" }, "geometry": { "type": "Point", "coordinates": [ 19.479107945230837, 50.296440234210372 ] } },
{ "type": "Feature", "properties": { "ref:csioz": 1075215, "name": "Apteka Główna", "addr:street": "Króla Kazimierza Wielkiego", "addr:housenumber": "64b", "addr:city": "Olkusz", "addr:postcode": "32-300", "amenity": "pharmacy" }, "geometry": { "type": "Point", "coordinates": [ 19.57146784624906, 50.27555600132419 ] } },
{ "type": "Feature", "properties": { "ref:csioz": 1077326, "addr:street": "marszałka Józefa Piłsudskiego", "addr:housenumber": "22", "addr:city": "Olkusz", "addr:postcode": "32-300", "amenity": "pharmacy" }, "geometry": { "type": "Point", "coordinates": [ 19.56605523148848, 50.273313180494149 ] } },
{ "type": "Feature", "properties": { "ref:csioz": 1220002, "name": "Apteka Codzienna", "addr:street": "Skalska", "addr:housenumber": "9", "addr:flats": null, "addr:city": "Wolbrom", "addr:postcode": "32-340", "amenity": "pharmacy" }, "geometry": { "type": "Point", "coordinates": [ 19.758436428811926, 50.379046605318649 ] } },
{ "type": "Feature", "properties": { "ref:csioz": 1121826, "name": "Euro Apteka", "addr:street": "Rabsztyńska", "addr:housenumber": "2", "addr:city": "Olkusz", "addr:postcode": "32-300", "amenity": "pharmacy" }, "geometry": { "type": "Point", "coordinates": [ 19.568308774642794, 50.281140389860354 ] } },
{ "type": "Feature", "properties": { "ref:csioz": 1186257, "name": "Hygieia", "addr:street": "1000-lecia", "addr:housenumber": "2B", "addr:city": "Olkusz", "addr:postcode": "32-300", "amenity": "pharmacy" }, "geometry": { "type": "Point", "coordinates": [ 19.578271732752359, 50.269115684926547 ] } },
{ "type": "Feature", "properties": { "ref:csioz": 1190761, "name": "Apteka Słoneczna", "addr:street": "Elizy Orzeszkowej", "addr:housenumber": "22", "addr:city": "Olkusz", "addr:postcode": "32-300", "amenity": "pharmacy" }, "geometry": { "type": "Point", "coordinates": [ 19.566193881621061, 50.267130800181889 ] } },
{ "type": "Feature", "properties": { "ref:csioz": 1196292, "name": "\"Punkt Apteczny \"\"Natura\"\"\"", "addr:street": "Kluczewska", "addr:housenumber": "15", "addr:city": "Chechło", "addr:postcode": "32-310", "amenity": "pharmacy" }, "geometry": { "type": "Point", "coordinates": [ 19.515202351046071, 50.368591386514211 ] } },
{ "type": "Feature", "properties": { "ref:csioz": 1036633, "addr:housenumber": "71", "addr:city": "Trzyciąż", "addr:postcode": "35-353", "amenity": "pharmacy" }, "geometry": { "type": "Point", "coordinates": [ 19.767064085309709, 50.310353451036782 ] } },
{ "type": "Feature", "properties": { "ref:csioz": 1034697, "name": "Apteka Gemini", "addr:street": "Króla Kazimierza Wielkiego", "addr:housenumber": "28", "addr:city": "Olkusz", "addr:postcode": "32-300", "amenity": "pharmacy" }, "geometry": { "type": "Point", "coordinates": [ 19.566740047770622, 50.276417120175324 ] } },
{ "type": "Feature", "properties": { "ref:csioz": 1034761, "name": "Apteka Słoneczna", "addr:street": "Króla Kazimierza Wielkiego", "addr:housenumber": "60", "addr:city": "Olkusz", "addr:postcode": "32-300", "amenity": "pharmacy" }, "geometry": { "type": "Point", "coordinates": [ 19.57034852538855, 50.275939833257297 ] } },
{ "type": "Feature", "properties": { "ref:csioz": 1035935, "name": "Apteka Słoneczna", "addr:street": "Skwer", "addr:housenumber": "6", "addr:city": "Olkusz", "addr:postcode": "32-300", "amenity": "pharmacy" }, "geometry": { "type": "Point", "coordinates": [ 19.566249054225278, 50.273712666548704 ] } },
{ "type": "Feature", "properties": { "ref:csioz": 1036277, "name": "Apteka Dbam O Zdrowie", "addr:street": "Pocztowa", "addr:housenumber": "3", "addr:city": "Bukowno", "addr:postcode": "32-332", "amenity": "pharmacy" }, "geometry": { "type": "Point", "coordinates": [ 19.463770617445068, 50.263114918799367 ] } },
{ "type": "Feature", "properties": { "ref:csioz": 1042355, "name": "Echinacea", "addr:housenumber": "155", "addr:city": "Łobzów", "addr:postcode": "32-340", "amenity": "pharmacy" }, "geometry": { "type": "Point", "coordinates": [ 19.771548086160518, 50.406744192888631 ] } },
{ "type": "Feature", "properties": { "ref:csioz": 1056386, "name": "Apteka Grodzka", "addr:street": "Francesco Nullo", "addr:housenumber": "2", "addr:city": "Olkusz", "addr:postcode": "32-300", "amenity": "pharmacy" }, "geometry": { "type": "Point", "coordinates": [ 19.563246927645547, 50.278586659528145 ] } },
{ "type": "Feature", "properties": { "ref:csioz": 1075244, "name": "Apteka Tęczowa", "addr:street": "Laskowska", "addr:housenumber": "4A", "addr:city": "Bolesław", "addr:postcode": "32-329", "amenity": "pharmacy" }, "geometry": { "type": "Point", "coordinates": [ 19.480393483978244, 50.29767444613978 ] } },
{ "type": "Feature", "properties": { "ref:csioz": 1112697, "name": "Twojapteka", "addr:street": "1 Maja", "addr:housenumber": "39", "addr:city": "Wolbrom", "addr:postcode": "32-340", "amenity": "pharmacy" }, "geometry": { "type": "Point", "coordinates": [ 19.765007798444909, 50.377404773436211 ] } },
{ "type": "Feature", "properties": { "ref:csioz": 1114789, "name": "Twoja Apteka", "addr:street": "Leśna", "addr:housenumber": "37A", "addr:city": "Jaroszowiec", "addr:postcode": "32-310", "amenity": "pharmacy" }, "geometry": { "type": "Point", "coordinates": [ 19.597986935818628, 50.336093249539722 ] } },
{ "type": "Feature", "properties": { "ref:csioz": 1115466, "name": "Ziko Apteka Tanie Leki", "addr:street": "Króla Kazimierza Wielkiego", "addr:housenumber": "24", "addr:city": "Olkusz", "addr:postcode": "32-300", "amenity": "pharmacy" }, "geometry": { "type": "Point", "coordinates": [ 19.56632080326883, 50.27657784907349 ] } },
{ "type": "Feature", "properties": { "ref:csioz": 1174025, "name": "Apteka Pod Słowikiem Opieka Twojego Farmaceuty", "addr:street": "gen. Stefana Buchowieckiego", "addr:housenumber": "15A", "addr:city": "Olkusz", "addr:postcode": "32-300", "amenity": "pharmacy" }, "geometry": { "type": "Point", "coordinates": [ 19.584336000000167, 50.276849000012895 ] } },
{ "type": "Feature", "properties": { "ref:csioz": 1218514, "name": "Apteka „Przy Rynku”", "addr:street": "Krakowska", "addr:housenumber": "2", "addr:city": "Wolbrom", "addr:postcode": "32-340", "amenity": "pharmacy" }, "geometry": { "type": "Point", "coordinates": [ 19.758964370442186, 50.385093474044517 ] } },
{ "type": "Feature", "properties": { "ref:csioz": 1229067, "name": "Punkt Apteczny Bydlin", "addr:street": "Legionów", "addr:housenumber": "23", "addr:city": "Bydlin", "addr:postcode": "32-310", "amenity": "pharmacy" }, "geometry": { "type": "Point", "coordinates": [ 19.644780440037827, 50.381084650544267 ] } },
{ "type": "Feature", "properties": { "ref:csioz": 1174769, "name": "Dr. Max", "addr:street": "Skalska", "addr:housenumber": "22", "addr:city": "Wolbrom", "addr:postcode": "32-340", "amenity": "pharmacy" }, "geometry": { "type": "Point", "coordinates": [ 19.756478296878917, 50.376401786374942 ] } },
{ "type": "Feature", "properties": { "ref:csioz": 1188987, "name": "Apteka Blisko Ciebie", "addr:street": "Krakowska", "addr:housenumber": "43", "addr:city": "Wolbrom", "addr:postcode": "32-340", "amenity": "pharmacy" }, "geometry": { "type": "Point", "coordinates": [ 19.759422293911509, 50.38236649472158 ] } },
{ "type": "Feature", "properties": { "ref:csioz": 1221188, "name": "Punkt Apteczny", "addr:housenumber": "140", "addr:city": "Imbramowice", "addr:postcode": "32-353", "amenity": "pharmacy" }, "geometry": { "type": "Point", "coordinates": [ 19.868980688009163, 50.30294109727835 ] } }
]
}
