{
"type": "FeatureCollection",
"name": "JPT_KOD_JE_1215",
"features": [
{ "type": "Feature", "properties": { "ref:csioz": 1036357, "addr:housenumber": "82a", "addr:city": "Krzeszów", "addr:postcode": "32-206", "amenity": "pharmacy", "name": "Pkt apteczny T. Guzik" }, "geometry": { "type": "Point", "coordinates": [ 19.487605492645088, 49.758743517068304 ] } },
{ "type": "Feature", "properties": { "ref:csioz": 1042487, "addr:housenumber": "123", "addr:city": "Sucha Beskidzka", "addr:postcode": "34-200", "amenity": "pharmacy", "name": "Sana", "addr:street": "Adama Mickiewicza" }, "geometry": { "type": "Point", "coordinates": [ 19.590117503609399, 49.741312511797268 ] } },
{ "type": "Feature", "properties": { "ref:csioz": 1056756, "addr:housenumber": "91", "addr:city": "Sucha Beskidzka", "addr:postcode": "34-200", "amenity": "pharmacy", "name": "Aspirynka Król Sp. J.", "addr:street": "Adama Mickiewicza" }, "geometry": { "type": "Point", "coordinates": [ 19.591865915663515, 49.741447936189218 ] } },
{ "type": "Feature", "properties": { "ref:csioz": 1056828, "addr:housenumber": "18", "addr:city": "Sucha Beskidzka", "addr:postcode": "34-200", "amenity": "pharmacy", "name": "Apteka Jacek Stopa", "addr:street": "Adama Mickiewicza" }, "geometry": { "type": "Point", "coordinates": [ 19.598304110746888, 49.742305394690234 ] } },
{ "type": "Feature", "properties": { "ref:csioz": 1077383, "addr:housenumber": "460", "addr:city": "Budzów", "addr:postcode": "34-211", "amenity": "pharmacy", "name": "Apteka Corda" }, "geometry": { "type": "Point", "coordinates": [ 19.673805334053991, 49.777255959259996 ] } },
{ "type": "Feature", "properties": { "ref:csioz": 1194010, "addr:housenumber": "22", "addr:city": "Sucha Beskidzka", "addr:postcode": "34-200", "amenity": "pharmacy", "name": "Szpital Rejonowy Im. Dr Jana Gawlika", "addr:street": "Szpitalna" }, "geometry": { "type": "Point", "coordinates": [ 19.604985456298984, 49.736906137576447 ] } },
{ "type": "Feature", "properties": { "ref:csioz": 1196259, "addr:housenumber": "721", "addr:city": "Sidzina", "addr:postcode": "34-236", "amenity": "pharmacy", "name": "Zdrowie" }, "geometry": { "type": "Point", "coordinates": [ 19.728106674095468, 49.61160535512397 ] } },
{ "type": "Feature", "properties": { "ref:csioz": 1203021, "addr:housenumber": "56", "addr:city": "Sucha Beskidzka", "addr:postcode": "34-200", "amenity": "pharmacy", "name": "Apteka Bądź Zdrów Przy Medyku", "addr:street": "Adama Mickiewicza" }, "geometry": { "type": "Point", "coordinates": [ 19.584960592119089, 49.741404423340633 ] } },
{ "type": "Feature", "properties": { "ref:csioz": 1036008, "addr:housenumber": "22", "addr:city": "Sucha Beskidzka", "addr:postcode": "34-200", "amenity": "pharmacy", "name": "Niezapominajka", "addr:street": "Szpitalna" }, "geometry": { "type": "Point", "coordinates": [ 19.605393194449114, 49.736932200836272 ] } },
{ "type": "Feature", "properties": { "ref:csioz": 1038457, "addr:housenumber": "1560", "addr:city": "Zawoja", "addr:postcode": "34-222", "amenity": "pharmacy", "name": "Apteka Dbam O Zdrowie" }, "geometry": { "type": "Point", "coordinates": [ 19.557083162685959, 49.659179565717665 ] } },
{ "type": "Feature", "properties": { "ref:csioz": 1042295, "addr:housenumber": "541", "addr:city": "Zembrzyce", "addr:postcode": "34-210", "amenity": "pharmacy", "name": "Apteka Pod Kasztanami G. Mazur Spółka Jawna" }, "geometry": { "type": "Point", "coordinates": [ 19.602850174351037, 49.775932051801831 ] } },
{ "type": "Feature", "properties": { "ref:csioz": 1042307, "addr:housenumber": "11", "addr:city": "Maków Podhalański", "addr:postcode": "34-220", "amenity": "pharmacy", "name": "Apteka Pod Kasztanami G. Mazur Spólka Jawna", "addr:street": "Kasztanowa" }, "geometry": { "type": "Point", "coordinates": [ 19.682050286328984, 49.729560370819279 ] } },
{ "type": "Feature", "properties": { "ref:csioz": 1074659, "addr:housenumber": "833", "addr:city": "Zawoja", "addr:postcode": "34-222", "amenity": "pharmacy", "name": "Apteka Prywatna - mgr Dorota Drwięga" }, "geometry": { "type": "Point", "coordinates": [ 19.55781549824291, 49.660697361024951 ] } },
{ "type": "Feature", "properties": { "ref:csioz": 1075852, "addr:housenumber": "6", "addr:city": "Maków Podhalański", "addr:postcode": "34-220", "amenity": "pharmacy", "name": "Apteka Makowska", "addr:street": "Szpitalna" }, "geometry": { "type": "Point", "coordinates": [ 19.679575572236036, 49.729775952873197 ] } },
{ "type": "Feature", "properties": { "ref:csioz": 1076458, "addr:housenumber": "3", "addr:city": "Sucha Beskidzka", "addr:postcode": "34-200", "amenity": "pharmacy", "name": "Apteka Mgr Farm. Katarzyna Wciślak", "addr:street": "Handlowa" }, "geometry": { "type": "Point", "coordinates": [ 19.586648988108944, 49.74040931889234 ] } },
{ "type": "Feature", "properties": { "ref:csioz": 1114349, "addr:housenumber": "22", "addr:city": "Sucha Beskidzka", "addr:postcode": "34-200", "amenity": "pharmacy", "name": "Centrum Medyczne Promed-Sucha Beskidzka", "addr:street": "Szpitalna" }, "geometry": { "type": "Point", "coordinates": [ 19.605004213444563, 49.736765458984593 ] } },
{ "type": "Feature", "properties": { "ref:csioz": 1192299, "addr:housenumber": "169", "addr:city": "Sucha Beskidzka", "addr:postcode": "34-200", "amenity": "pharmacy", "name": "Zdrowe Ceny", "addr:street": "Adama Mickiewicza" }, "geometry": { "type": "Point", "coordinates": [ 19.587757392231325, 49.741116631996718 ] } },
{ "type": "Feature", "properties": { "ref:csioz": 1192533, "addr:housenumber": "2", "addr:city": "Maków Podhalański", "addr:postcode": "34-220", "amenity": "pharmacy", "name": "Apteka Panaceum", "addr:street": "Wolności" }, "geometry": { "type": "Point", "coordinates": [ 19.675917466303527, 49.729735365381821 ] } },
{ "type": "Feature", "properties": { "ref:csioz": null, "addr:housenumber": "277b", "addr:city": "Stryszawa", "addr:postcode": "34-205", "amenity": "pharmacy", "name": "Apteka mgr Renata Jaros", "addr:street": null }, "geometry": { "type": "Point", "coordinates": [ 19.525854677755277, 49.732107262145654 ] } },
{ "type": "Feature", "properties": { "ref:csioz": 1228503, "addr:housenumber": "448", "addr:city": "Skawica", "addr:postcode": "34-221", "amenity": "pharmacy", "name": "Punkt apteczny mgr T. Guzik, mgr A. Prokop" }, "geometry": { "type": "Point", "coordinates": [ 19.627780247472092, 49.67812271086472 ] } },
{ "type": "Feature", "properties": { "ref:csioz": 1230075, "addr:housenumber": "195 B", "addr:city": "Lachowice", "addr:postcode": "34-232", "amenity": "pharmacy", "name": "Zdrowe Ceny" }, "geometry": { "type": "Point", "coordinates": [ 19.472006822469567, 49.712541190429704 ] } },
{ "type": "Feature", "properties": { "ref:csioz": 1220494, "addr:housenumber": "32A", "addr:city": "Stryszawa", "addr:postcode": "34-205", "amenity": "pharmacy", "name": "Corda" }, "geometry": { "type": "Point", "coordinates": [ 19.508088143926912, 49.727672369537792 ] } },
{ "type": "Feature", "properties": { "ref:csioz": 1076298, "addr:housenumber": "39", "addr:city": "Sucha Beskidzka", "addr:postcode": "34-200", "amenity": "pharmacy", "name": "Nova", "addr:street": "Adama Mickiewicza" }, "geometry": { "type": "Point", "coordinates": [ 19.580019733657998, 49.739585172485896 ] } },
{ "type": "Feature", "properties": { "ref:csioz": 1220507, "addr:housenumber": "10", "addr:city": "Maków Podhalański", "addr:postcode": "34-220", "amenity": "pharmacy", "name": "Corda", "addr:street": "Rynek" }, "geometry": { "type": "Point", "coordinates": [ 19.677205406810103, 49.729718026234217 ] } },
{ "type": "Feature", "properties": { "ref:csioz": 1220483, "addr:housenumber": "542 A", "addr:city": "Juszczyn", "addr:postcode": "34-231", "amenity": "pharmacy", "name": "Corda" }, "geometry": { "type": "Point", "coordinates": [ 19.70793515961066, 49.69730401363568 ] } },
{ "type": "Feature", "properties": { "ref:csioz": 1038513, "addr:housenumber": "540", "addr:city": "Osielec", "addr:postcode": "34-786", "amenity": "pharmacy", "name": "Therapia" }, "geometry": { "type": "Point", "coordinates": [ 19.757152719254652, 49.675454492917034 ] } },
{ "type": "Feature", "properties": { "ref:csioz": 1075569, "addr:housenumber": "353A", "addr:city": "Bystra Podhalańska", "addr:postcode": "34-235", "amenity": "pharmacy", "name": "Apteka Bystrzańska" }, "geometry": { "type": "Point", "coordinates": [ 19.776653723155643, 49.6410050289563 ] } },
{ "type": "Feature", "properties": { "ref:csioz": 1173612, "addr:housenumber": "3", "addr:city": "Jordanów", "addr:postcode": "34-240", "amenity": "pharmacy", "name": "Apteka Jordanowska", "addr:street": "Rynek" }, "geometry": { "type": "Point", "coordinates": [ 19.828781337832805, 49.648956519650461 ] } },
{ "type": "Feature", "properties": { "ref:csioz": 1036215, "addr:housenumber": "19", "addr:city": "Jordanów", "addr:postcode": "34-240", "amenity": "pharmacy", "name": "Zdrowe Ceny", "addr:street": "Rynek" }, "geometry": { "type": "Point", "coordinates": [ 19.830808949930461, 49.648869160823985 ] } },
{ "type": "Feature", "properties": { "ref:csioz": 1076222, "addr:housenumber": "477", "addr:city": "Naprawa", "addr:postcode": "34-785", "amenity": "pharmacy", "name": "Punkt apteczny Naprawa" }, "geometry": { "type": "Point", "coordinates": [ 19.876123350335916, 49.662382345730592 ] } },
{ "type": "Feature", "properties": { "ref:csioz": 1076962, "addr:housenumber": "1", "addr:city": "Jordanów", "addr:postcode": "34-240", "amenity": "pharmacy", "name": "Apteka Prwatna S. Król J. Turchan", "addr:street": "Piłsudskiego" }, "geometry": { "type": "Point", "coordinates": [ 19.831664790819602, 49.649501497412352 ] } },
{ "type": "Feature", "properties": { "ref:csioz": 1210457, "addr:housenumber": "46", "addr:city": "Jordanów", "addr:postcode": "34-240", "amenity": "pharmacy", "name": "Zdrowe Ceny", "addr:street": "Rynek" }, "geometry": { "type": "Point", "coordinates": [ 19.828997000000246, 49.649678000012024 ] } },
{ "type": "Feature", "properties": { "ref:csioz": 1196245, "addr:housenumber": "465", "addr:city": "Łętownia", "addr:postcode": "34-242", "amenity": "pharmacy", "name": "MK Medica" }, "geometry": { "type": "Point", "coordinates": [ 19.870141454317171, 49.697237941498095 ] } }
]
}
