{
"type": "FeatureCollection",
"name": "JPT_KOD_JE_2477",
"features": [
{ "type": "Feature", "properties": { "ref:csioz": 1070364, "name": "Apteka Zdrowit", "addr:street": "Niepodległości", "addr:housenumber": "77A", "addr:city": "Tychy", "addr:postcode": "43-100", "amenity": "pharmacy" }, "geometry": { "type": "Point", "coordinates": [ 19.00158907358442, 50.112325116388398 ] } },
{ "type": "Feature", "properties": { "ref:csioz": 1070378, "name": "Apteka Dbam O Zdrowie", "addr:street": "Arkadowa", "addr:housenumber": "8", "addr:city": "Tychy", "addr:postcode": "43-100", "amenity": "pharmacy" }, "geometry": { "type": "Point", "coordinates": [ 18.969938162314197, 50.132941910245165 ] } },
{ "type": "Feature", "properties": { "ref:csioz": 1070386, "name": "Apteka Miasto Leków", "addr:street": "Armii Krajowej", "addr:housenumber": "1", "addr:city": "Tychy", "addr:postcode": "43-100", "amenity": "pharmacy" }, "geometry": { "type": "Point", "coordinates": [ 18.999053878868907, 50.106446769432445 ] } },
{ "type": "Feature", "properties": { "ref:csioz": 1070422, "name": "Flos", "addr:street": "Budowlanych", "addr:housenumber": "4", "addr:city": "Tychy", "addr:postcode": "43-100", "amenity": "pharmacy" }, "geometry": { "type": "Point", "coordinates": [ 18.986356670385845, 50.124016828952854 ] } },
{ "type": "Feature", "properties": { "ref:csioz": 1070465, "name": "Pod Pewexem", "addr:street": "Henryka Dąbrowskiego", "addr:housenumber": "95", "addr:city": "Tychy", "addr:postcode": "43-100", "amenity": "pharmacy" }, "geometry": { "type": "Point", "coordinates": [ 18.999980035857774, 50.109195204110677 ] } },
{ "type": "Feature", "properties": { "ref:csioz": 1070479, "name": "Apteka Słoneczna", "addr:street": "Romana Dmowskiego", "addr:housenumber": "2", "addr:city": "Tychy", "addr:postcode": "43-100", "amenity": "pharmacy" }, "geometry": { "type": "Point", "coordinates": [ 18.985468917340583, 50.112876404635919 ] } },
{ "type": "Feature", "properties": { "ref:csioz": 1070517, "name": "Lux Tyskie Centrum", "addr:street": "Aleja Jana Pawła II", "addr:housenumber": "10", "addr:city": "Tychy", "addr:postcode": "43-100", "amenity": "pharmacy" }, "geometry": { "type": "Point", "coordinates": [ 18.986216210709635, 50.112350170730274 ] } },
{ "type": "Feature", "properties": { "ref:csioz": 1070558, "name": "Apteka Dbam O Zdrowie", "addr:street": "Księdza Tischnera", "addr:housenumber": "1", "addr:city": "Tychy", "addr:postcode": "43-100", "amenity": "pharmacy" }, "geometry": { "type": "Point", "coordinates": [ 18.988989479462404, 50.104522134501273 ] } },
{ "type": "Feature", "properties": { "ref:csioz": 1070582, "name": null, "addr:street": "Narcyzów", "addr:housenumber": "7", "addr:city": "Tychy", "addr:postcode": "43-100", "amenity": "pharmacy" }, "geometry": { "type": "Point", "coordinates": [ 18.994418145739324, 50.141430052704308 ] } },
{ "type": "Feature", "properties": { "ref:csioz": 1070596, "name": "Apteka Lux Iii", "addr:street": "Ojca Innocentego Bocheńskiego", "addr:housenumber": "9", "addr:city": "Tychy", "addr:postcode": "43-100", "amenity": "pharmacy" }, "geometry": { "type": "Point", "coordinates": [ 18.981418074248943, 50.126203494160187 ] } },
{ "type": "Feature", "properties": { "ref:csioz": 1070652, "name": "Apteka Słoneczna", "addr:street": "Sikorskiego Władysława", "addr:housenumber": "101", "addr:city": "Tychy", "addr:postcode": "43-100", "amenity": "pharmacy" }, "geometry": { "type": "Point", "coordinates": [ 18.994916024043249, 50.093530753854161 ] } },
{ "type": "Feature", "properties": { "ref:csioz": 1070683, "name": "Turkus", "addr:street": "Turkusowa", "addr:housenumber": "5", "addr:city": "Tychy", "addr:postcode": "43-100", "amenity": "pharmacy" }, "geometry": { "type": "Point", "coordinates": [ 18.991723159663184, 50.10296221034276 ] } },
{ "type": "Feature", "properties": { "ref:csioz": 1070694, "name": "Apteka Turkus Ii", "addr:street": "Rudolfa Zaręby", "addr:housenumber": "25", "addr:city": "Tychy", "addr:postcode": "43-100", "amenity": "pharmacy" }, "geometry": { "type": "Point", "coordinates": [ 18.998843021124333, 50.08968640063523 ] } },
{ "type": "Feature", "properties": { "ref:csioz": 1073748, "name": "Wojewódzki Szpital Specjalistyczny", "addr:street": "EDUKACJI", "addr:housenumber": "102", "addr:city": "TYCHY", "addr:postcode": "43-100", "amenity": "pharmacy" }, "geometry": { "type": "Point", "coordinates": [ 19.007550446573152, 50.113883304012944 ] } },
{ "type": "Feature", "properties": { "ref:csioz": 1172714, "name": "Apteka Blisko Ciebie", "addr:street": "Edukacji", "addr:housenumber": "37", "addr:city": "Tychy", "addr:postcode": "43-100", "amenity": "pharmacy" }, "geometry": { "type": "Point", "coordinates": [ 18.995058995079205, 50.101125262297934 ] } },
{ "type": "Feature", "properties": { "ref:csioz": 1224722, "addr:street": "Wąska", "addr:housenumber": "7", "addr:city": "Tychy", "addr:postcode": "43-100", "amenity": "pharmacy" }, "geometry": { "type": "Point", "coordinates": [ 18.957076394467808, 50.144180954969968 ] } },
{ "type": "Feature", "properties": { "ref:csioz": 1057063, "addr:street": "Edukacji", "addr:housenumber": "102", "addr:city": "Tychy", "addr:postcode": "43-100", "amenity": "pharmacy" }, "geometry": { "type": "Point", "coordinates": [ 19.007550446573152, 50.113883304012944 ] } },
{ "type": "Feature", "properties": { "ref:csioz": 1070355, "name": "Centrum", "addr:street": "Niepodległości", "addr:housenumber": "43", "addr:city": "Tychy", "addr:postcode": "43-100", "amenity": "pharmacy" }, "geometry": { "type": "Point", "coordinates": [ 18.991789418336012, 50.11674985467581 ] } },
{ "type": "Feature", "properties": { "ref:csioz": 1070280, "name": "Apteka Dbam O Zdrowie", "addr:street": "Aleja Bielska", "addr:housenumber": "107", "addr:city": "Tychy", "addr:postcode": "43-100", "amenity": "pharmacy" }, "geometry": { "type": "Point", "coordinates": [ 18.98008085288583, 50.108851254756622 ] } },
{ "type": "Feature", "properties": { "ref:csioz": 1070307, "name": "Zdrowit", "addr:street": "Aleja Bielska", "addr:housenumber": "79", "addr:city": "Tychy", "addr:postcode": "43-100", "amenity": "pharmacy" }, "geometry": { "type": "Point", "coordinates": [ 18.985268322295312, 50.120471730696131 ] } },
{ "type": "Feature", "properties": { "ref:csioz": 1070310, "name": "Olga", "addr:street": "Aleja Jana Pawła II", "addr:housenumber": "32", "addr:city": "Tychy", "addr:postcode": "43-100", "amenity": "pharmacy" }, "geometry": { "type": "Point", "coordinates": [ 18.993762701121184, 50.108682717123813 ] } },
{ "type": "Feature", "properties": { "ref:csioz": 1070332, "name": "Pod Arkadami", "addr:street": "Niepodległości", "addr:housenumber": "15", "addr:city": "Tychy", "addr:postcode": "43-100", "amenity": "pharmacy" }, "geometry": { "type": "Point", "coordinates": [ 18.9891128329607, 50.119303212845765 ] } },
{ "type": "Feature", "properties": { "ref:csioz": 1111500, "name": "Centrum Zdrowia", "addr:street": "Rudolfa Zaręby", "addr:housenumber": "19A", "addr:city": "Tychy", "addr:postcode": "43-100", "amenity": "pharmacy" }, "geometry": { "type": "Point", "coordinates": [ 18.998668, 50.089301000012632 ] } },
{ "type": "Feature", "properties": { "ref:csioz": 1112876, "name": "\"Chirurgia Jednego Dnia 'Lens-Med' \"", "addr:street": "Narcyzów", "addr:housenumber": "24", "addr:city": "Tychy", "addr:postcode": "43-100", "amenity": "pharmacy" }, "geometry": { "type": "Point", "coordinates": [ 18.993389335766061, 50.142396443114357 ] } },
{ "type": "Feature", "properties": { "ref:csioz": 1171124, "name": "H-T Centrum Medyczne Endoterapia", "addr:street": "Bielska", "addr:housenumber": "105", "addr:city": "Tychy", "addr:postcode": "43-100", "amenity": "pharmacy" }, "geometry": { "type": "Point", "coordinates": [ 18.982917384157854, 50.115396168245447 ] } },
{ "type": "Feature", "properties": { "ref:csioz": 1172818, "name": "Apteka Blisko Ciebie", "addr:street": "Lwa Tołstoja", "addr:housenumber": "3C", "addr:city": "Tychy", "addr:postcode": "43-110", "amenity": "pharmacy" }, "geometry": { "type": "Point", "coordinates": [ 18.98934361259786, 50.101299082204591 ] } },
{ "type": "Feature", "properties": { "ref:csioz": 1172746, "name": "Apteka Blisko Ciebie", "addr:street": "Żwakowska", "addr:housenumber": "20", "addr:city": "Tychy", "addr:postcode": "43-100", "amenity": "pharmacy" }, "geometry": { "type": "Point", "coordinates": [ 18.977200917332247, 50.118072949636023 ] } },
{ "type": "Feature", "properties": { "ref:csioz": 1176418, "name": "Apteka Tęcza", "addr:street": "Niepodległości", "addr:housenumber": "87", "addr:city": "Tychy", "addr:postcode": "43-100", "amenity": "pharmacy" }, "geometry": { "type": "Point", "coordinates": [ 19.002134381526137, 50.11207174869147 ] } },
{ "type": "Feature", "properties": { "ref:csioz": 1178650, "name": "Apteka Blisko Ciebie", "addr:street": "Borowa", "addr:housenumber": "134", "addr:city": "Tychy", "addr:postcode": "43-100", "amenity": "pharmacy" }, "geometry": { "type": "Point", "coordinates": [ 18.962676001476911, 50.11274420719441 ] } },
{ "type": "Feature", "properties": { "ref:csioz": 1188114, "name": "Apteka Śląska", "addr:street": "Bielska", "addr:housenumber": "135b", "addr:city": "Tychy", "addr:postcode": "43-100", "amenity": "pharmacy", "addr:flats": "18" }, "geometry": { "type": "Point", "coordinates": [ 18.97372121522433, 50.105102121196104 ] } },
{ "type": "Feature", "properties": { "ref:csioz": 1188123, "name": "Dr. Max", "addr:street": "Mikołaja Kopernika", "addr:housenumber": "28", "addr:city": "Tychy", "addr:postcode": "43-100", "amenity": "pharmacy" }, "geometry": { "type": "Point", "coordinates": [ 18.976948309237184, 50.11467472161582 ] } },
{ "type": "Feature", "properties": { "ref:csioz": 1198024, "name": "Apteka Agafarmax Tychy", "addr:street": "marsz. Piłsudskiego", "addr:housenumber": "8", "addr:city": "Tychy", "addr:postcode": "43-100", "amenity": "pharmacy", "addr:flats": "1/1" }, "geometry": { "type": "Point", "coordinates": [ 18.982536235930908, 50.108185811875728 ] } },
{ "type": "Feature", "properties": { "ref:csioz": 1203158, "name": "Apteka Max", "addr:street": "Mikołowska", "addr:housenumber": "66A", "addr:city": "Tychy", "addr:postcode": "43-100", "amenity": "pharmacy" }, "geometry": { "type": "Point", "coordinates": [ 18.977800471145027, 50.136789154712183 ] } },
{ "type": "Feature", "properties": { "ref:csioz": 1208816, "name": "Apteka Pełna Zdrowia", "addr:street": "ul. Budowlanych", "addr:housenumber": "75", "addr:city": "Tychy", "addr:postcode": "43-100", "amenity": "pharmacy" }, "geometry": { "type": "Point", "coordinates": [ 18.971708810961697, 50.127119548712948 ] } },
{ "type": "Feature", "properties": { "ref:csioz": 1208610, "name": "Centrum", "addr:street": "ul. Stefana Batorego", "addr:housenumber": "21A", "addr:city": "Tychy", "addr:postcode": "43-100", "amenity": "pharmacy" }, "geometry": { "type": "Point", "coordinates": [ 18.982822, 50.125673000012682 ] } },
{ "type": "Feature", "properties": { "ref:csioz": 1209109, "name": "Szpital Miejski W Tychach Zakład Lecznictwa Szpitalnego", "addr:street": "Cicha", "addr:housenumber": "27", "addr:city": "Tychy", "addr:postcode": "43-100", "amenity": "pharmacy" }, "geometry": { "type": "Point", "coordinates": [ 18.982456006118035, 50.119091118934342 ] } },
{ "type": "Feature", "properties": { "ref:csioz": 1223846, "name": "Dom Hospicyjny Społecznego Stowarzyszenia Hospicjum Im. Św. Kaliksta I", "addr:street": "Żorska", "addr:housenumber": "17", "addr:city": "Tychy", "addr:postcode": "43-100", "amenity": "pharmacy" }, "geometry": { "type": "Point", "coordinates": [ 18.962605551036283, 50.102180921607605 ] } },
{ "type": "Feature", "properties": { "ref:csioz": 1224779, "name": "Apteka Bądź Zdrów", "addr:street": "Elfów", "addr:housenumber": "30", "addr:city": "Tychy", "addr:postcode": "43-100", "amenity": "pharmacy" }, "geometry": { "type": "Point", "coordinates": [ 18.99300729079857, 50.117558915972076 ] } }
]
}
