{
"type": "FeatureCollection",
"name": "JPT_KOD_JE_0662",
"features": [
{ "type": "Feature", "properties": { "ref:csioz": 1106128, "addr:street": "Kurpińskiego", "addr:housenumber": "3", "addr:city": "Chełm", "addr:postcode": "22-100", "amenity": "pharmacy", "addr:flats": "2" }, "geometry": { "type": "Point", "coordinates": [ 23.465264647132095, 51.130235307418118 ] } },
{ "type": "Feature", "properties": { "ref:csioz": 1106144, "addr:street": "Narutowicza", "addr:housenumber": "2 A", "addr:city": "Chełm", "addr:postcode": "22-100", "amenity": "pharmacy", "name": "Apteka Dbam O Zdrowie" }, "geometry": { "type": "Point", "coordinates": [ 23.46878987680773, 51.135379804546602 ] } },
{ "type": "Feature", "properties": { "ref:csioz": 1106153, "addr:street": "Szpitalna", "addr:housenumber": "53 B", "addr:city": "Chełm", "addr:postcode": "22-100", "amenity": "pharmacy", "name": "Euro Apteka" }, "geometry": { "type": "Point", "coordinates": [ 23.456419664665553, 51.14861394609671 ] } },
{ "type": "Feature", "properties": { "ref:csioz": 1156651, "addr:street": "Plac Kupiecki", "addr:housenumber": "12", "addr:city": "Chełm", "addr:postcode": "22-100", "amenity": "pharmacy", "name": "Eskulap" }, "geometry": { "type": "Point", "coordinates": [ 23.470909681145091, 51.131330729412774 ] } },
{ "type": "Feature", "properties": { "ref:csioz": 1156705, "addr:street": "Lwowska", "addr:housenumber": "21", "addr:city": "Chełm", "addr:postcode": "22-100", "amenity": "pharmacy", "addr:flats": "7", "name": "Apteka Na Deptaku" }, "geometry": { "type": "Point", "coordinates": [ 23.471505435143168, 51.1304594447246 ] } },
{ "type": "Feature", "properties": { "ref:csioz": 1156957, "addr:street": "Zachodnia", "addr:housenumber": "43", "addr:city": "Chełm", "addr:postcode": "22-100", "amenity": "pharmacy", "name": "Apteka Na Gwarku" }, "geometry": { "type": "Point", "coordinates": [ 23.431465540408109, 51.142760039201654 ] } },
{ "type": "Feature", "properties": { "ref:csioz": 1157277, "addr:street": "Lwowska", "addr:housenumber": "81", "addr:city": "Chełm", "addr:postcode": "22-100", "amenity": "pharmacy" }, "geometry": { "type": "Point", "coordinates": [ 23.468549642068652, 51.124046522814616 ] } },
{ "type": "Feature", "properties": { "ref:csioz": 1157289, "addr:street": "11 Listopada", "addr:housenumber": "7", "addr:city": "Chełm", "addr:postcode": "22-100", "amenity": "pharmacy", "name": "Apteka Dbam O Zdrowie" }, "geometry": { "type": "Point", "coordinates": [ 23.497705686192774, 51.134568226780814 ] } },
{ "type": "Feature", "properties": { "ref:csioz": 1157320, "addr:street": "Generała Gustawa Orlicz-Dreszera", "addr:housenumber": "10", "addr:city": "Chełm", "addr:postcode": "22-100", "amenity": "pharmacy", "name": "Apteka Błękitna" }, "geometry": { "type": "Point", "coordinates": [ 23.467081000143843, 51.134731000017254 ] } },
{ "type": "Feature", "properties": { "ref:csioz": 1157373, "addr:street": "Piłsudskiego", "addr:housenumber": "11 A", "addr:city": "Chełm", "addr:postcode": "22-100", "amenity": "pharmacy", "name": "Vita Pharma Centrum Farmaceutyczne" }, "geometry": { "type": "Point", "coordinates": [ 23.493832000148235, 51.136687000017396 ] } },
{ "type": "Feature", "properties": { "ref:csioz": 1196641, "addr:street": "Szpitalna", "addr:housenumber": "47", "addr:city": "Chełm", "addr:postcode": "22-100", "amenity": "pharmacy", "name": "Same Dobre Apteki Apteka Centrum Apteka Sda" }, "geometry": { "type": "Point", "coordinates": [ 23.456417199727586, 51.1476071161702 ] } },
{ "type": "Feature", "properties": { "ref:csioz": 1198070, "addr:street": "Szpitalna", "addr:housenumber": "40", "addr:city": "Chełm", "addr:postcode": "22-100", "amenity": "pharmacy", "addr:flats": "A", "name": "Apteka Pomocna" }, "geometry": { "type": "Point", "coordinates": [ 23.457172637291283, 51.147781423972148 ] } },
{ "type": "Feature", "properties": { "ref:csioz": 1156528, "addr:street": "Lubelska", "addr:housenumber": "161 d", "addr:city": "Chełm", "addr:postcode": "22-100", "amenity": "pharmacy" }, "geometry": { "type": "Point", "coordinates": [ 23.443729134338945, 51.143762900191 ] } },
{ "type": "Feature", "properties": { "ref:csioz": 1156531, "addr:street": "Szymanowskiego", "addr:housenumber": "9", "addr:city": "Chełm", "addr:postcode": "22-100", "amenity": "pharmacy", "name": "Apteka Stansenpol Mai Seniuk I Spółka Jawna" }, "geometry": { "type": "Point", "coordinates": [ 23.463267000143425, 51.124849000017193 ] } },
{ "type": "Feature", "properties": { "ref:csioz": 1156544, "addr:street": "Lubelska", "addr:housenumber": "189", "addr:city": "Chełm", "addr:postcode": "22-100", "amenity": "pharmacy", "name": "Doz Apteka.Dbam O Zdrowie" }, "geometry": { "type": "Point", "coordinates": [ 23.438588629311919, 51.14546159843897 ] } },
{ "type": "Feature", "properties": { "ref:csioz": 1156577, "addr:street": "Wołyńska", "addr:housenumber": "32", "addr:city": "Chełm", "addr:postcode": "22-100", "amenity": "pharmacy", "name": "Apteka Z Sercem" }, "geometry": { "type": "Point", "coordinates": [ 23.499592698098024, 51.135798882228571 ] } },
{ "type": "Feature", "properties": { "ref:csioz": 1156638, "addr:street": "Szpitalna", "addr:housenumber": "38", "addr:city": "Chełm", "addr:postcode": "22-100", "amenity": "pharmacy", "name": "Apteka Sda" }, "geometry": { "type": "Point", "coordinates": [ 23.456947562311907, 51.147474738052402 ] } },
{ "type": "Feature", "properties": { "ref:csioz": 1156833, "addr:street": "Lubelska", "addr:housenumber": "8", "addr:city": "Chełm", "addr:postcode": "22-100", "amenity": "pharmacy" }, "geometry": { "type": "Point", "coordinates": [ 23.475767384098585, 51.132584161769685 ] } },
{ "type": "Feature", "properties": { "ref:csioz": 1156840, "addr:street": "Lwowska", "addr:housenumber": "14", "addr:city": "Chełm", "addr:postcode": "22-100", "amenity": "pharmacy", "name": "Euro-Apteka" }, "geometry": { "type": "Point", "coordinates": [ 23.471610943403899, 51.13122602617532 ] } },
{ "type": "Feature", "properties": { "ref:csioz": 1170264, "addr:street": "3 Maja", "addr:housenumber": "20", "addr:city": "Chełm", "addr:postcode": "22-100", "amenity": "pharmacy", "name": "\"Apteka Ceff@Rm 36,6\"" }, "geometry": { "type": "Point", "coordinates": [ 23.476641625993825, 51.118888690712531 ] } },
{ "type": "Feature", "properties": { "ref:csioz": 1179686, "addr:street": "3 Maja", "addr:housenumber": "22", "addr:city": "Chełm", "addr:postcode": "22-100", "amenity": "pharmacy", "addr:flats": "02", "name": "Apteka Dr. Optima" }, "geometry": { "type": "Point", "coordinates": [ 23.478450847557415, 51.119206153536211 ] } },
{ "type": "Feature", "properties": { "ref:csioz": 1207951, "addr:street": "Armii Krajowej", "addr:housenumber": "6", "addr:city": "Chełm", "addr:postcode": "22-100", "amenity": "pharmacy", "name": "Apteka Gemini" }, "geometry": { "type": "Point", "coordinates": [ 23.468760693978076, 51.130285723428322 ] } },
{ "type": "Feature", "properties": { "ref:csioz": 1210379, "addr:street": "Lwowska", "addr:housenumber": "79", "addr:city": "Chełm", "addr:postcode": "22-100", "amenity": "pharmacy", "name": "Apteka Gemini" }, "geometry": { "type": "Point", "coordinates": [ 23.468890379509272, 51.125523362529414 ] } },
{ "type": "Feature", "properties": { "ref:csioz": 1211586, "addr:street": "Szpitalna", "addr:housenumber": "53", "addr:city": "Chełm", "addr:postcode": "22-100", "amenity": "pharmacy", "name": "Apteka Szpitalna" }, "geometry": { "type": "Point", "coordinates": [ 23.455777369625579, 51.149280657341066 ] } }
]
}
