{
"type": "FeatureCollection",
"name": "JPT_KOD_JE_0409",
"features": [
{ "type": "Feature", "properties": { "ref:csioz": 1099003, "name": "Apteka Dbam O Zdrowie", "addr:street": "Wolności", "addr:housenumber": "15", "addr:city": "Mogilno", "addr:postcode": "88-300", "amenity": "pharmacy" }, "geometry": { "type": "Point", "coordinates": [ 17.955439802284516, 52.65696838585572 ] } },
{ "type": "Feature", "properties": { "ref:csioz": 1099548, "name": "Pod Lipami", "addr:street": "Lipowa", "addr:housenumber": "1", "addr:city": "Dąbrowa", "addr:postcode": "88-306", "amenity": "pharmacy" }, "geometry": { "type": "Point", "coordinates": [ 17.945075509382598, 52.745311761102073 ] } },
{ "type": "Feature", "properties": { "ref:csioz": 1099793, "name": "Romańska", "addr:street": "św. Ducha", "addr:housenumber": "31a", "addr:city": "Strzelno", "addr:postcode": "88-320", "amenity": "pharmacy" }, "geometry": { "type": "Point", "coordinates": [ 18.172782999999665, 52.628028000016464 ] } },
{ "type": "Feature", "properties": { "ref:csioz": 1100188, "name": "Dr.Max", "addr:street": "Raj", "addr:housenumber": "2", "addr:city": "Strzelno", "addr:postcode": "88-320", "amenity": "pharmacy" }, "geometry": { "type": "Point", "coordinates": [ 18.169743999999667, 52.627181000016463 ] } },
{ "type": "Feature", "properties": { "ref:csioz": 1100683, "name": "Aspirynka", "addr:street": "Józefa Hallera", "addr:housenumber": "25", "addr:city": "Mogilno", "addr:postcode": "88-300", "amenity": "pharmacy" }, "geometry": { "type": "Point", "coordinates": [ 17.952327120052811, 52.659558206005876 ] } },
{ "type": "Feature", "properties": { "ref:csioz": 1102242, "addr:housenumber": "85", "addr:city": "Wylatowo", "addr:postcode": "88-342", "amenity": "pharmacy" }, "geometry": { "type": "Point", "coordinates": [ 17.939631532628841, 52.610172598187056 ] } },
{ "type": "Feature", "properties": { "ref:csioz": 1101110, "name": "Ziko Apteka", "addr:street": "Józefa Hallera", "addr:housenumber": "13", "addr:city": "Mogilno", "addr:postcode": "88-300", "amenity": "pharmacy" }, "geometry": { "type": "Point", "coordinates": [ 17.953552275846032, 52.658915776212666 ] } },
{ "type": "Feature", "properties": { "ref:csioz": 1114790, "name": "Apteka Magnolia", "addr:street": "Kasztanowa", "addr:housenumber": "2", "addr:city": "Mogilno", "addr:postcode": "88-300", "amenity": "pharmacy" }, "geometry": { "type": "Point", "coordinates": [ 17.959633492107532, 52.661525500553296 ] } },
{ "type": "Feature", "properties": { "ref:csioz": 1186777, "name": "Bliska", "addr:street": "Ogrodowa", "addr:housenumber": "1", "addr:city": "Mogilno", "addr:postcode": "88-300", "amenity": "pharmacy" }, "geometry": { "type": "Point", "coordinates": [ 17.951541837598366, 52.660167266449925 ] } },
{ "type": "Feature", "properties": { "ref:csioz": 1216308, "name": "Apteka Magazynowa", "addr:street": "św. Ducha", "addr:housenumber": "33", "addr:flats": "7", "addr:city": "Strzelno", "addr:postcode": "88-320", "amenity": "pharmacy" }, "geometry": { "type": "Point", "coordinates": [ 18.172688758224382, 52.627913472262392 ] } },
{ "type": "Feature", "properties": { "ref:csioz": 1218983, "name": "Alba", "addr:street": "Ogrodowa", "addr:housenumber": "3a", "addr:city": "Mogilno", "addr:postcode": "88-300", "amenity": "pharmacy" }, "geometry": { "type": "Point", "coordinates": [ 17.951375879574933, 52.660691691516064 ] } },
{ "type": "Feature", "properties": { "ref:csioz": 1174049, "name": "Centrum Zdrowia", "addr:street": "Powstania Wielkopolskiego", "addr:housenumber": "1A", "addr:city": "Strzelno", "addr:postcode": "88-320", "amenity": "pharmacy" }, "geometry": { "type": "Point", "coordinates": [ 18.173824999999674, 52.627620000016471 ] } },
{ "type": "Feature", "properties": { "ref:csioz": 1100694, "name": "Pamiątkowa", "addr:housenumber": "16a", "addr:city": "Jeziora Wielkie", "addr:postcode": "88-324", "amenity": "pharmacy" }, "geometry": { "type": "Point", "coordinates": [ 18.267926105810002, 52.529874322796204 ] } },
{ "type": "Feature", "properties": { "ref:csioz": 1230822, "name": "Nad Notecią", "addr:street": null, "addr:housenumber": "82", "addr:flats": null, "addr:city": "Marcinkowo", "addr:postcode": "88-330", "amenity": "pharmacy" }, "geometry": { "type": "Point", "coordinates": [ 18.029325160376668, 52.601698479546776 ] } }
]
}
