{
"type": "FeatureCollection",
"name": "JPT_KOD_JE_0605",
"features": [
{ "type": "Feature", "properties": { "ref:csioz": 1162264, "addr:housenumber": "84", "addr:city": "Batorz Pierwszy", "addr:postcode": "23-320", "amenity": "pharmacy" }, "geometry": { "type": "Point", "coordinates": [ 22.494566345851101, 50.848690263050258 ] } },
{ "type": "Feature", "properties": { "ref:csioz": 1106211, "addr:housenumber": "33", "addr:city": "Potoczek", "addr:postcode": "23-313", "amenity": "pharmacy", "name": "Punkt Apteczny Mgr Farm. Bożena Tuszyńska" }, "geometry": { "type": "Point", "coordinates": [ 22.222735453175016, 50.758319286382992 ] } },
{ "type": "Feature", "properties": { "ref:csioz": 1106233, "addr:housenumber": "106", "addr:city": "Zdziłowice Drugie", "addr:postcode": "23-306", "amenity": "pharmacy" }, "geometry": { "type": "Point", "coordinates": [ 22.529370219620414, 50.813651781799308 ] } },
{ "type": "Feature", "properties": { "ref:csioz": 1106303, "addr:housenumber": "158", "addr:city": "Wierzchowiska Pierwsze", "addr:postcode": "23-310", "amenity": "pharmacy" }, "geometry": { "type": "Point", "coordinates": [ 22.399160472512332, 50.791600799788149 ] } },
{ "type": "Feature", "properties": { "ref:csioz": 1158181, "addr:housenumber": "77", "addr:city": "Janów Lubelski", "addr:postcode": "23-300", "amenity": "pharmacy", "addr:street": "Zamoyskiego" }, "geometry": { "type": "Point", "coordinates": [ 22.42218707642413, 50.701185252872897 ] } },
{ "type": "Feature", "properties": { "ref:csioz": 1158490, "addr:housenumber": "25", "addr:city": "Janów Lubelski", "addr:postcode": "23-300", "amenity": "pharmacy", "addr:street": "Zamoyskiego" }, "geometry": { "type": "Point", "coordinates": [ 22.412709421525481, 50.7056863098516 ] } },
{ "type": "Feature", "properties": { "ref:csioz": 1161562, "addr:housenumber": "53", "addr:city": "Modliborzyce", "addr:postcode": "23-310", "amenity": "pharmacy", "addr:street": "Piłsudskiego" }, "geometry": { "type": "Point", "coordinates": [ 22.330309020685284, 50.752753047205353 ] } },
{ "type": "Feature", "properties": { "ref:csioz": 1163180, "addr:housenumber": "88A", "addr:city": "Godziszów Pierwszy", "addr:postcode": "23-302", "amenity": "pharmacy" }, "geometry": { "type": "Point", "coordinates": [ 22.482505361827346, 50.758111688572036 ] } },
{ "type": "Feature", "properties": { "ref:csioz": 1164799, "addr:housenumber": "77", "addr:city": "Janów Lubelski", "addr:postcode": "23-300", "amenity": "pharmacy", "addr:street": "Zamoyskiego" }, "geometry": { "type": "Point", "coordinates": [ 22.42218707642413, 50.701185252872897 ] } },
{ "type": "Feature", "properties": { "ref:csioz": 1188481, "addr:housenumber": "2", "addr:city": "Janów Lubelski", "addr:postcode": "23-300", "amenity": "pharmacy", "name": "Doz Apteka Dbam O Zdrowie Słoneczna", "addr:street": "Liliowa" }, "geometry": { "type": "Point", "coordinates": [ 22.427740621935815, 50.703221141326132 ] } },
{ "type": "Feature", "properties": { "ref:csioz": 1196519, "addr:housenumber": "2", "addr:city": "Janów Lubelski", "addr:postcode": "23-300", "amenity": "pharmacy", "name": "Apteka Zdrowie", "addr:street": "Rynek" }, "geometry": { "type": "Point", "coordinates": [ 22.4098469797086, 50.706977622437904 ] } },
{ "type": "Feature", "properties": { "ref:csioz": 1209906, "addr:housenumber": "2", "addr:city": "Janów Lubelski", "addr:postcode": "23-300", "amenity": "pharmacy", "name": "Moja Apteka", "addr:street": "Ogrodowa" }, "geometry": { "type": "Point", "coordinates": [ 22.416680371149756, 50.703623178939168 ] } },
{ "type": "Feature", "properties": { "ref:csioz": 1153683, "addr:housenumber": "107", "addr:city": "Potok Wielki", "addr:postcode": "23-313", "amenity": "pharmacy" }, "geometry": { "type": "Point", "coordinates": [ 22.228007719396633, 50.782941274810348 ] } },
{ "type": "Feature", "properties": { "ref:csioz": 1157493, "addr:housenumber": "4", "addr:city": "Janów Lubelski", "addr:postcode": "23-300", "amenity": "pharmacy", "name": "Apteka Zdrojowa", "addr:street": "Bialska" }, "geometry": { "type": "Point", "coordinates": [ 22.411658900703525, 50.707235878050483 ] } },
{ "type": "Feature", "properties": { "ref:csioz": 1157974, "addr:housenumber": "22", "addr:city": "Janów Lubelski", "addr:postcode": "23-300", "amenity": "pharmacy", "addr:street": "Zamoyskiego" }, "geometry": { "type": "Point", "coordinates": [ 22.412287373218721, 50.705650714166936 ] } },
{ "type": "Feature", "properties": { "ref:csioz": 1158567, "addr:housenumber": "3", "addr:city": "Janów Lubelski", "addr:postcode": "23-300", "amenity": "pharmacy", "addr:street": "Kilińskiego" }, "geometry": { "type": "Point", "coordinates": [ 22.410779384655239, 50.707440407688807 ] } },
{ "type": "Feature", "properties": { "ref:csioz": 1161610, "addr:housenumber": "5", "addr:city": "Janów Lubelski", "addr:postcode": "23-300", "amenity": "pharmacy", "addr:street": "Jana Pawła II" }, "geometry": { "type": "Point", "coordinates": [ 22.417273095261887, 50.704799960055908 ] } },
{ "type": "Feature", "properties": { "ref:csioz": 1161655, "addr:housenumber": "21", "addr:city": "Janów Lubelski", "addr:postcode": "23-300", "amenity": "pharmacy", "addr:street": "Piłsudskiego" }, "geometry": { "type": "Point", "coordinates": [ 22.412018399335427, 50.70620879932904 ] } },
{ "type": "Feature", "properties": { "ref:csioz": 1162614, "addr:housenumber": "149", "addr:city": "Janów Lubelski", "addr:postcode": "23-300", "amenity": "pharmacy", "name": "Mediq Apteka", "addr:street": "Jana Zamoyskiego" }, "geometry": { "type": "Point", "coordinates": [ 22.43234800003999, 50.702365000013906 ] } },
{ "type": "Feature", "properties": { "ref:csioz": 1163146, "addr:housenumber": "28", "addr:city": "Janów Lubelski", "addr:postcode": "23-300", "amenity": "pharmacy", "name": "Apteka Janowska", "addr:street": "Bialska" }, "geometry": { "type": "Point", "coordinates": [ 22.413013977030989, 50.708075468483266 ] } },
{ "type": "Feature", "properties": { "ref:csioz": 1189765, "addr:housenumber": "149", "addr:city": "Janów Lubelski", "addr:postcode": "23-300", "amenity": "pharmacy", "name": "Apteka Szpitalna", "addr:street": "Jana Zamoyskiego" }, "geometry": { "type": "Point", "coordinates": [ 22.432998342906458, 50.701341438496847 ] } },
{ "type": "Feature", "properties": { "ref:csioz": 1229095, "addr:housenumber": "111", "addr:city": "Chrzanów", "addr:postcode": "23-305", "amenity": "pharmacy", "name": "Punkt Apteczny Małgorzata Sznajdrowicz" }, "geometry": { "type": "Point", "coordinates": [ 22.603081312099807, 50.773139325202258 ] } }
]
}
