{
    "type": "FeatureCollection",
    "name": "JPT_KOD_JE_0202",
    "features": [
        {
            "type": "Feature",
            "properties": {
                "ref:csioz": 1133702,
                "name": "Apteka Przy Poczcie R. Połcik",
                "addr:street": "Bielawska",
                "addr:housenumber": "53",
                "addr:city": "Ostroszowice",
                "addr:postcode": "58-262",
                "amenity": "pharmacy"
            },
            "geometry": {
                "type": "Point",
                "coordinates": [
                    16.6395339028776,
                    50.643310532156605
                ]
            }
        },
        {
            "type": "Feature",
            "properties": {
                "ref:csioz": 1133843,
                "name": "Pod Złotą Wagą",
                "addr:street": "Wolności",
                "addr:housenumber": "148",
                "addr:city": "Bielawa",
                "addr:postcode": "58-260",
                "amenity": "pharmacy"
            },
            "geometry": {
                "type": "Point",
                "coordinates": [
                    16.614319743302698,
                    50.685586166742745
                ]
            }
        },
        {
            "type": "Feature",
            "properties": {
                "ref:csioz": 1134006,
                "name": "Pod Wielką Sową",
                "addr:street": "Tadeusza Kościuszki",
                "addr:housenumber": "4a",
                "addr:city": "Pieszyce",
                "addr:postcode": "58-250",
                "amenity": "pharmacy"
            },
            "geometry": {
                "type": "Point",
                "coordinates": [
                    16.581442409634356,
                    50.71261511676686
                ]
            }
        },
        {
            "type": "Feature",
            "properties": {
                "ref:csioz": 1134268,
                "name": "W Tesco",
                "addr:street": "Świdnicka",
                "addr:housenumber": "71",
                "addr:city": "Dzierżoniów",
                "addr:postcode": "58-200",
                "amenity": "pharmacy"
            },
            "geometry": {
                "type": "Point",
                "coordinates": [
                    16.634986379301367,
                    50.739738179837076
                ]
            }
        },
        {
            "type": "Feature",
            "properties": {
                "ref:csioz": 1136889,
                "name": "Dział Farmacji Szpitalnej Zakład Opiekuńczo-Leczniczy Zgromadzenia Sióstr Św. Elżbiety",
                "addr:street": "Słowiańska",
                "addr:housenumber": "3",
                "addr:city": "Dzierżoniów",
                "addr:postcode": "58-200",
                "amenity": "pharmacy"
            },
            "geometry": {
                "type": "Point",
                "coordinates": [
                    16.656535415638682,
                    50.725721278096785
                ]
            }
        },
        {
            "type": "Feature",
            "properties": {
                "ref:csioz": 1136900,
                "name": "Hebeapteka",
                "addr:street": "Różane",
                "addr:housenumber": "23",
                "addr:city": "Dzierżoniów",
                "addr:postcode": "58-200",
                "amenity": "pharmacy"
            },
            "geometry": {
                "type": "Point",
                "coordinates": [
                    16.65338137753565,
                    50.74007492282569
                ]
            }
        },
        {
            "type": "Feature",
            "properties": {
                "ref:csioz": 1137644,
                "name": "Przychodnia Miejska W Pieszycach Stacjonarne I Całodobowe Świadczenia Szpitalne",
                "addr:street": "Królowej Jadwigi",
                "addr:housenumber": "1",
                "addr:city": "Pieszyce",
                "addr:postcode": "58-250",
                "amenity": "pharmacy"
            },
            "geometry": {
                "type": "Point",
                "coordinates": [
                    16.581261086270146,
                    50.71020036534697
                ]
            }
        },
        {
            "type": "Feature",
            "properties": {
                "ref:csioz": 1160026,
                "name": "-",
                "addr:street": "Rynek",
                "addr:housenumber": "21",
                "addr:city": "Dzierżoniów",
                "addr:postcode": "58-200",
                "amenity": "pharmacy"
            },
            "geometry": {
                "type": "Point",
                "coordinates": [
                    16.651490460976984,
                    50.727540352649044
                ]
            }
        },
        {
            "type": "Feature",
            "properties": {
                "ref:csioz": 1160039,
                "name": "Arnica",
                "addr:street": "Osiedle Złote",
                "addr:housenumber": "9",
                "addr:city": "Dzierżoniów",
                "addr:postcode": "58-200",
                "amenity": "pharmacy"
            },
            "geometry": {
                "type": "Point",
                "coordinates": [
                    16.640927172773505,
                    50.73980496370337
                ]
            }
        },
        {
            "type": "Feature",
            "properties": {
                "ref:csioz": 1160047,
                "name": "Apteka Pod Murzynem",
                "addr:street": "Wrocławska",
                "addr:housenumber": "27",
                "addr:city": "Dzierżoniów",
                "addr:postcode": "58-200",
                "amenity": "pharmacy"
            },
            "geometry": {
                "type": "Point",
                "coordinates": [
                    16.65268568730854,
                    50.72988787200373
                ]
            }
        },
        {
            "type": "Feature",
            "properties": {
                "ref:csioz": 1160060,
                "name": "Apteka Pod Koroną",
                "addr:street": "Szkolna",
                "addr:housenumber": "15",
                "addr:city": "Dzierżoniów",
                "addr:postcode": "58-200",
                "amenity": "pharmacy"
            },
            "geometry": {
                "type": "Point",
                "coordinates": [
                    16.64072371919169,
                    50.7293490413577
                ]
            }
        },
        {
            "type": "Feature",
            "properties": {
                "ref:csioz": 1160325,
                "name": "Apteka W Rynku",
                "addr:street": "Tadeusza Kościuszki",
                "addr:housenumber": "3",
                "addr:city": "Pieszyce",
                "addr:postcode": "58-250",
                "amenity": "pharmacy"
            },
            "geometry": {
                "type": "Point",
                "coordinates": [
                    16.583022607824947,
                    50.712763161692735
                ]
            }
        },
        {
            "type": "Feature",
            "properties": {
                "ref:csioz": 1161383,
                "name": "Niepubliczny Zakład Opieki Zdrowotnej Szpital Powiatowy W Dzierżoniowie Spółka Z Ograniczoną Odpowiedzialnością-Szpital",
                "addr:street": "Cicha",
                "addr:housenumber": "1",
                "addr:city": "Dzierżoniów",
                "addr:postcode": "58-200",
                "amenity": "pharmacy"
            },
            "geometry": {
                "type": "Point",
                "coordinates": [
                    16.65900938457404,
                    50.72858320626897
                ]
            }
        },
        {
            "type": "Feature",
            "properties": {
                "ref:csioz": 1193448,
                "name": "Copernicus",
                "addr:street": "Mikołaja Kopernika",
                "addr:housenumber": "11H",
                "addr:city": "Dzierżoniów",
                "addr:postcode": "58-200",
                "amenity": "pharmacy"
            },
            "geometry": {
                "type": "Point",
                "coordinates": [
                    16.647889877261985,
                    50.72502878863755
                ]
            }
        },
        {
            "type": "Feature",
            "properties": {
                "ref:csioz": 1133540,
                "name": "Piastowska",
                "addr:street": "Piastowska",
                "addr:housenumber": "1b",
                "addr:city": "Dzierżoniów",
                "addr:postcode": "58-200",
                "amenity": "pharmacy"
            },
            "geometry": {
                "type": "Point",
                "coordinates": [
                    16.649616446628606,
                    50.73408454814362
                ]
            }
        },
        {
            "type": "Feature",
            "properties": {
                "ref:csioz": 1134104,
                "name": "Rodzinna",
                "addr:street": "Kościuszki",
                "addr:housenumber": "13A",
                "addr:city": "Pieszyce",
                "addr:postcode": "58-250",
                "amenity": "pharmacy"
            },
            "geometry": {
                "type": "Point",
                "coordinates": [
                    16.585330999992852,
                    50.71581900001355
                ]
            }
        },
        {
            "type": "Feature",
            "properties": {
                "ref:csioz": 1134199,
                "name": "Słowiańska",
                "addr:street": "Piastowska",
                "addr:housenumber": "60",
                "addr:city": "Bielawa",
                "addr:postcode": "58-260",
                "amenity": "pharmacy"
            },
            "geometry": {
                "type": "Point",
                "coordinates": [
                    16.60420577366879,
                    50.676541710796
                ]
            }
        },
        {
            "type": "Feature",
            "properties": {
                "ref:csioz": 1134632,
                "name": "Panaceum",
                "addr:street": "Diorowska",
                "addr:housenumber": "1",
                "addr:city": "Dzierżoniów",
                "addr:postcode": "58-200",
                "amenity": "pharmacy"
            },
            "geometry": {
                "type": "Point",
                "coordinates": [
                    16.64465140592881,
                    50.73465224797781
                ]
            }
        },
        {
            "type": "Feature",
            "properties": {
                "ref:csioz": 1135822,
                "name": "Na Rondzie",
                "addr:street": "Daszyńskiego",
                "addr:housenumber": "5",
                "addr:city": "Dzierżoniów",
                "addr:postcode": "58-200",
                "amenity": "pharmacy"
            },
            "geometry": {
                "type": "Point",
                "coordinates": [
                    16.652509465756903,
                    50.73240349692661
                ]
            }
        },
        {
            "type": "Feature",
            "properties": {
                "ref:csioz": 1135833,
                "name": "Apteka Parkowa",
                "addr:street": "Parkowa",
                "addr:housenumber": "4c",
                "addr:city": "Dzierżoniów",
                "addr:postcode": "58-200",
                "amenity": "pharmacy"
            },
            "geometry": {
                "type": "Point",
                "coordinates": [
                    16.647726370442196,
                    50.73297236679824
                ]
            }
        },
        {
            "type": "Feature",
            "properties": {
                "ref:csioz": 1136386,
                "name": "Dział Farmacji Szpitalnej Niepubliczny Zakład Opieki Zdrowotnej Sudeckie Centrum Zdrowia",
                "addr:street": "Księdza Emila Pagacza",
                "addr:housenumber": "6",
                "addr:city": "Pieszyce",
                "addr:postcode": "58-250",
                "amenity": "pharmacy"
            },
            "geometry": {
                "type": "Point",
                "coordinates": [
                    16.579226999992777,
                    50.71531800001355
                ]
            }
        },
        {
            "type": "Feature",
            "properties": {
                "ref:csioz": 1159909,
                "name": "Pod Koroną",
                "addr:street": "Wolności",
                "addr:housenumber": "41",
                "addr:city": "Bielawa",
                "addr:postcode": "58-260",
                "amenity": "pharmacy"
            },
            "geometry": {
                "type": "Point",
                "coordinates": [
                    16.632980846219034,
                    50.69454778123798
                ]
            }
        },
        {
            "type": "Feature",
            "properties": {
                "ref:csioz": 1159914,
                "name": "Osiedlowa",
                "addr:street": "Gen. Grota Roweckiego",
                "addr:housenumber": "8F",
                "addr:city": "Bielawa",
                "addr:postcode": "58-260",
                "amenity": "pharmacy"
            },
            "geometry": {
                "type": "Point",
                "coordinates": [
                    16.6193469999933,
                    50.68348600001351
                ]
            }
        },
        {
            "type": "Feature",
            "properties": {
                "ref:csioz": 1159923,
                "name": "Apteka Pod Orłem",
                "addr:street": "Wolności",
                "addr:housenumber": "158",
                "addr:city": "Bielawa",
                "addr:postcode": "58-260",
                "amenity": "pharmacy"
            },
            "geometry": {
                "type": "Point",
                "coordinates": [
                    16.612299850191572,
                    50.68481187321323
                ]
            }
        },
        {
            "type": "Feature",
            "properties": {
                "ref:csioz": 1159938,
                "name": "Słoneczna",
                "addr:street": "Ignacego Paderewskiego",
                "addr:housenumber": "5",
                "addr:city": "Bielawa",
                "addr:postcode": "58-260",
                "amenity": "pharmacy"
            },
            "geometry": {
                "type": "Point",
                "coordinates": [
                    16.621226999993322,
                    50.68125600001351
                ]
            }
        },
        {
            "type": "Feature",
            "properties": {
                "ref:csioz": 1160018,
                "name": "Doz Apteka Dbam O Zdrowie Remedium",
                "addr:street": "Świdnicka",
                "addr:housenumber": "1-5",
                "addr:city": "Dzierżoniów",
                "addr:postcode": "58-200",
                "amenity": "pharmacy"
            },
            "geometry": {
                "type": "Point",
                "coordinates": [
                    16.64959499999371,
                    50.72885500001356
                ]
            }
        },
        {
            "type": "Feature",
            "properties": {
                "ref:csioz": 1160862,
                "name": "Apteka Nova",
                "addr:street": "Wolności",
                "addr:housenumber": "97",
                "addr:city": "Bielawa",
                "addr:postcode": "58-260",
                "amenity": "pharmacy"
            },
            "geometry": {
                "type": "Point",
                "coordinates": [
                    16.623765894205416,
                    50.69060540649471
                ]
            }
        },
        {
            "type": "Feature",
            "properties": {
                "ref:csioz": 1173391,
                "name": "Centrum Zdrowia",
                "addr:street": "Ogrodowa",
                "addr:housenumber": "20",
                "addr:city": "Pieszyce",
                "addr:postcode": "58-250",
                "amenity": "pharmacy"
            },
            "geometry": {
                "type": "Point",
                "coordinates": [
                    16.586322377220743,
                    50.715024719524536
                ]
            }
        },
        {
            "type": "Feature",
            "properties": {
                "ref:csioz": 1174379,
                "name": "Centrum Zdrowia",
                "addr:street": "Generała Władysława Andersa",
                "addr:housenumber": "68",
                "addr:city": "Bielawa",
                "addr:postcode": "58-260",
                "amenity": "pharmacy"
            },
            "geometry": {
                "type": "Point",
                "coordinates": [
                    16.62105399999332,
                    50.6828460000135
                ]
            }
        },
        {
            "type": "Feature",
            "properties": {
                "ref:csioz": 1184746,
                "name": "W Stokrotce",
                "addr:street": "Jasne",
                "addr:housenumber": "20",
                "addr:city": "Dzierżoniów",
                "addr:postcode": "58-200",
                "amenity": "pharmacy"
            },
            "geometry": {
                "type": "Point",
                "coordinates": [
                    16.650974896507922,
                    50.73680221929371
                ]
            }
        },
        {
            "type": "Feature",
            "properties": {
                "ref:csioz": 1190418,
                "name": "Centrum Zdrowia",
                "addr:street": "Wolności",
                "addr:housenumber": "63C",
                "addr:city": "Bielawa",
                "addr:postcode": "58-260",
                "amenity": "pharmacy"
            },
            "geometry": {
                "type": "Point",
                "coordinates": [
                    16.628399999993427,
                    50.6937620000135
                ]
            }
        },
        {
            "type": "Feature",
            "properties": {
                "ref:csioz": 1192317,
                "name": "Apteka Rodzinna Iwaszko Paweł Iwaszko",
                "addr:street": "Władysława Sikorskiego",
                "addr:housenumber": "11B",
                "addr:city": "Dzierżoniów",
                "addr:postcode": "58-200",
                "amenity": "pharmacy"
            },
            "geometry": {
                "type": "Point",
                "coordinates": [
                    16.651263049752522,
                    50.74056092851176
                ]
            }
        },
        {
            "type": "Feature",
            "properties": {
                "ref:csioz": 1201458,
                "name": "Apteka Słoneczna Biedronka",
                "addr:street": "Wolności",
                "addr:housenumber": "143",
                "addr:city": "Bielawa",
                "addr:postcode": "58-260",
                "amenity": "pharmacy"
            },
            "geometry": {
                "type": "Point",
                "coordinates": [
                    16.615114716847874,
                    50.68594001868041
                ]
            }
        },
        {
            "type": "Feature",
            "properties": {
                "ref:csioz": 1208040,
                "name": "Centrum Zdrowia",
                "addr:street": "marsz. Józefa Piłsudskiego",
                "addr:housenumber": "10A",
                "addr:city": "Dzierżoniów",
                "addr:postcode": "58-200",
                "amenity": "pharmacy"
            },
            "geometry": {
                "type": "Point",
                "coordinates": [
                    16.653588907529837,
                    50.73008627722169
                ]
            }
        },
        {
            "type": "Feature",
            "properties": {
                "ref:csioz": 1223653,
                "name": "Apteka Gemini",
                "addr:street": "Piastowska",
                "addr:housenumber": "42L",
                "addr:city": "Dzierżoniów",
                "addr:postcode": "58-201",
                "amenity": "pharmacy"
            },
            "geometry": {
                "type": "Point",
                "coordinates": [
                    16.647388436920615,
                    50.73620208934888
                ]
            }
        },
        {
            "type": "Feature",
            "properties": {
                "ref:csioz": 1135840,
                "name": "Dr. Max",
                "addr:street": "Ogrodowa",
                "addr:housenumber": "20a",
                "addr:city": "Pieszyce",
                "addr:postcode": "58-250",
                "amenity": "pharmacy"
            },
            "geometry": {
                "type": "Point",
                "coordinates": [
                    16.586669007251093,
                    50.715427416688215
                ]
            }
        },
        {
            "type": "Feature",
            "properties": {
                "ref:csioz": 1133400,
                "name": "Piastowska",
                "addr:street": "Piastowska",
                "addr:housenumber": "40",
                "addr:city": "Piława Górna",
                "addr:postcode": "58-240",
                "amenity": "pharmacy"
            },
            "geometry": {
                "type": "Point",
                "coordinates": [
                    16.754601569830353,
                    50.68207775063022
                ]
            }
        },
        {
            "type": "Feature",
            "properties": {
                "ref:csioz": 1160330,
                "name": "\"Apteka 'Pod Aniołem'\"",
                "addr:street": "Piastów Śląskich",
                "addr:housenumber": "2",
                "addr:city": "Piława Górna",
                "addr:postcode": "58-240",
                "amenity": "pharmacy"
            },
            "geometry": {
                "type": "Point",
                "coordinates": [
                    16.74560376799859,
                    50.682128123636126
                ]
            }
        },
        {
            "type": "Feature",
            "properties": {
                "ref:csioz": 1178110,
                "name": "\"Apteka \"\"Vitrum\"\"\"",
                "addr:street": "Sportowa",
                "addr:housenumber": "9",
                "addr:city": "Łagiewniki",
                "addr:postcode": "58-210",
                "amenity": "pharmacy"
            },
            "geometry": {
                "type": "Point",
                "coordinates": [
                    16.836136972702207,
                    50.79072240570213
                ]
            }
        },
        {
            "type": "Feature",
            "properties": {
                "ref:csioz": 1174387,
                "name": "\"'Apteka Słoneczna Biedronka'\"",
                "addr:street": "Wrocławska",
                "addr:housenumber": "1",
                "addr:flats": "2",
                "addr:city": "Łagiewniki",
                "addr:postcode": "58-210",
                "amenity": "pharmacy"
            },
            "geometry": {
                "type": "Point",
                "coordinates": [
                    16.845037965567457,
                    50.791131027571744
                ]
            }
        },
        {
            "type": "Feature",
            "properties": {
                "ref:csioz": 1225874,
                "name": "Na Dobre I Na Złe",
                "addr:housenumber": "113",
                "addr:city": "Jaźwina",
                "addr:postcode": "58-212",
                "amenity": "pharmacy"
            },
            "geometry": {
                "type": "Point",
                "coordinates": [
                    16.710233768030974,
                    50.79641152121521
                ]
            }
        },
        {
            "type": "Feature",
            "properties": {
                "ref:csioz": 1133766,
                "name": "Apteka Lawendowa",
                "addr:street": "Rynek",
                "addr:housenumber": "14",
                "addr:city": "Niemcza",
                "addr:postcode": "58-230",
                "amenity": "pharmacy"
            },
            "geometry": {
                "type": "Point",
                "coordinates": [
                    16.834729856127517,
                    50.71687975315485
                ]
            }
        }
    ]
}