{
"type": "FeatureCollection",
"name": "JPT_KOD_JE_2414",
"features": [
{ "type": "Feature", "properties": { "ref:csioz": 1065261, "name": "Melisa", "addr:street": "Hołdunowska", "addr:housenumber": "11A", "addr:city": "Lędziny", "addr:postcode": "43-143", "amenity": "pharmacy" }, "geometry": { "type": "Point", "coordinates": [ 19.130595270257679, 50.142533966406425 ] } },
{ "type": "Feature", "properties": { "ref:csioz": 1065273, "name": "Dziesiątka", "addr:street": "LĘDZIŃSKA", "addr:housenumber": "1", "addr:city": "LĘDZINY", "addr:postcode": "43-143", "amenity": "pharmacy" }, "geometry": { "type": "Point", "coordinates": [ 19.126209738608097, 50.140873983040152 ] } },
{ "type": "Feature", "properties": { "ref:csioz": 1065285, "name": "Marta", "addr:street": "LĘDZIŃSKA", "addr:housenumber": "149", "addr:city": "LĘDZINY", "addr:postcode": "43-140", "amenity": "pharmacy" }, "geometry": { "type": "Point", "coordinates": [ 19.107920373124085, 50.129225105364284 ] } },
{ "type": "Feature", "properties": { "ref:csioz": 1065299, "name": "Centrum", "addr:street": "Łanowa", "addr:housenumber": "5", "addr:city": "Lędziny", "addr:postcode": "43-140", "amenity": "pharmacy" }, "geometry": { "type": "Point", "coordinates": [ 19.107099034867176, 50.130728683844929 ] } },
{ "type": "Feature", "properties": { "ref:csioz": 1065301, "name": "Pod Szybem", "addr:street": "POKOJU", "addr:housenumber": "17", "addr:city": "LĘDZINY", "addr:postcode": "43-143", "amenity": "pharmacy" }, "geometry": { "type": "Point", "coordinates": [ 19.125025730242111, 50.121779805459667 ] } },
{ "type": "Feature", "properties": { "ref:csioz": 1190529, "name": "Apteka Tęczowa - Bieruń", "addr:street": "Macieja", "addr:housenumber": "24", "addr:city": "Bieruń", "addr:postcode": "43-150", "amenity": "pharmacy" }, "geometry": { "type": "Point", "coordinates": [ 19.09051, 50.095676000012638 ] } },
{ "type": "Feature", "properties": { "ref:csioz": 1202461, "name": "Apteka Tęczowa Spectra", "addr:street": "Chemików", "addr:housenumber": "3", "addr:city": "Bieruń", "addr:postcode": "43-150", "amenity": "pharmacy", "addr:flats": "5" }, "geometry": { "type": "Point", "coordinates": [ 19.091655008648008, 50.08941249297235 ] } },
{ "type": "Feature", "properties": { "ref:csioz": 1058460, "name": "Witaminka", "addr:street": "Granitowa", "addr:housenumber": "20", "addr:city": "Bieruń", "addr:postcode": "43-155", "amenity": "pharmacy" }, "geometry": { "type": "Point", "coordinates": [ 19.161513177547931, 50.08214967847416 ] } },
{ "type": "Feature", "properties": { "ref:csioz": 1058471, "name": "Gwarek", "addr:street": "Granitowa", "addr:housenumber": "22", "addr:city": "Bieruń", "addr:postcode": "43-155", "amenity": "pharmacy" }, "geometry": { "type": "Point", "coordinates": [ 19.161579503421411, 50.078275060696626 ] } },
{ "type": "Feature", "properties": { "ref:csioz": 1058494, "name": "Apteka Św. Walentego", "addr:street": "Rynek", "addr:housenumber": "1", "addr:city": "Bieruń", "addr:postcode": "43-150", "amenity": "pharmacy" }, "geometry": { "type": "Point", "coordinates": [ 19.092279342414258, 50.093471026496424 ] } },
{ "type": "Feature", "properties": { "ref:csioz": 1065248, "name": "Magnolia", "addr:street": "BETONOWA", "addr:housenumber": "6", "addr:city": "LĘDZINY", "addr:postcode": "43-143", "amenity": "pharmacy" }, "geometry": { "type": "Point", "coordinates": [ 19.136234324225626, 50.148789018688312 ] } },
{ "type": "Feature", "properties": { "ref:csioz": 1065257, "name": "Apteka Evita", "addr:street": "Ekonomiczna", "addr:housenumber": "7", "addr:city": "Lędziny", "addr:postcode": "43-143", "amenity": "pharmacy" }, "geometry": { "type": "Point", "coordinates": [ 19.140532509989754, 50.143732733901096 ] } },
{ "type": "Feature", "properties": { "ref:csioz": 1170589, "name": "Apteka Blisko Ciebie", "addr:street": "Francuska", "addr:housenumber": "4", "addr:city": "Imielin", "addr:postcode": "41-407", "amenity": "pharmacy" }, "geometry": { "type": "Point", "coordinates": [ 19.184181069528417, 50.147475837182263 ] } },
{ "type": "Feature", "properties": { "ref:csioz": 1208268, "name": "Apteka Blisko Ciebie", "addr:street": "Śląska", "addr:housenumber": "66", "addr:city": "Chełm Śląski", "addr:postcode": "41-403", "amenity": "pharmacy" }, "geometry": { "type": "Point", "coordinates": [ 19.195996, 50.109039000012665 ] } },
{ "type": "Feature", "properties": { "ref:csioz": 1221422, "name": "SZPITAL GALEN ORTOPEDIA", "addr:street": "Jerzego", "addr:housenumber": "6", "addr:city": "Bieruń", "addr:postcode": "43-150", "amenity": "pharmacy" }, "geometry": { "type": "Point", "coordinates": [ 19.090447642930862, 50.092101713624487 ] } },
{ "type": "Feature", "properties": { "ref:csioz": 1058507, "name": "Hipokrates", "addr:street": "Wawelska", "addr:housenumber": "40", "addr:city": "Bieruń", "addr:postcode": "43-155", "amenity": "pharmacy" }, "geometry": { "type": "Point", "coordinates": [ 19.181385260897237, 50.075836499043859 ] } },
{ "type": "Feature", "properties": { "ref:csioz": 1058510, "name": null, "addr:street": "Węglowa", "addr:housenumber": "14", "addr:city": "Bieruń", "addr:postcode": "43-155", "amenity": "pharmacy" }, "geometry": { "type": "Point", "coordinates": [ 19.172517, 50.076122000012603 ] } },
{ "type": "Feature", "properties": { "ref:csioz": 1202448, "name": "Hipokrates", "addr:street": "Świętego Jana", "addr:housenumber": "74", "addr:city": "Bojszowy", "addr:postcode": "43-220", "amenity": "pharmacy" }, "geometry": { "type": "Point", "coordinates": [ 19.089737460213584, 50.059427754484624 ] } }
]
}
