{
"type": "FeatureCollection",
"name": "JPT_KOD_JE_0407",
"features": [
{ "type": "Feature", "properties": { "ref:csioz": 1102291, "name": "Remedium", "addr:street": "Szkolna", "addr:housenumber": "1", "addr:city": "Kołodziejewo", "addr:postcode": "88-160", "amenity": "pharmacy" }, "geometry": { "type": "Point", "coordinates": [ 18.034797095320066, 52.709589848282626 ] } },
{ "type": "Feature", "properties": { "ref:csioz": 1099252, "name": "Św. Marka", "addr:housenumber": "26", "addr:city": "Polanowice", "addr:postcode": "88-150", "amenity": "pharmacy" }, "geometry": { "type": "Point", "coordinates": [ 18.289776622520908, 52.642572421351417 ] } },
{ "type": "Feature", "properties": { "ref:csioz": 1099462, "name": "Całodobowa Chirofarm", "addr:street": "Marulewska", "addr:housenumber": "41", "addr:city": "Inowrocław", "addr:postcode": "88-100", "amenity": "pharmacy" }, "geometry": { "type": "Point", "coordinates": [ 18.271492999999712, 52.790459000016725 ] } },
{ "type": "Feature", "properties": { "ref:csioz": 1099817, "name": "Zagople", "addr:street": "Kujawska", "addr:housenumber": "12", "addr:city": "Kruszwica", "addr:postcode": "88-150", "amenity": "pharmacy" }, "geometry": { "type": "Point", "coordinates": [ 18.332248324996076, 52.675965743594247 ] } },
{ "type": "Feature", "properties": { "ref:csioz": 1100209, "name": "Dr.Max", "addr:street": "Dworcowa", "addr:housenumber": "9", "addr:city": "Janikowo", "addr:postcode": "88-160", "amenity": "pharmacy" }, "geometry": { "type": "Point", "coordinates": [ 18.110322092373284, 52.751755800032015 ] } },
{ "type": "Feature", "properties": { "ref:csioz": 1100724, "name": "Zdrojowa", "addr:street": "Okrężna", "addr:housenumber": "79", "addr:city": "Inowrocław", "addr:postcode": "88-100", "amenity": "pharmacy" }, "geometry": { "type": "Point", "coordinates": [ 18.240868192972453, 52.798915348924346 ] } },
{ "type": "Feature", "properties": { "ref:csioz": 1101204, "name": "Doz Apteka Dbam O Zdrowie", "addr:street": "Wodna", "addr:housenumber": "15", "addr:city": "Inowrocław", "addr:postcode": "88-100", "amenity": "pharmacy" }, "geometry": { "type": "Point", "coordinates": [ 18.258214379633731, 52.795244875042528 ] } },
{ "type": "Feature", "properties": { "ref:csioz": 1101212, "name": "Doz Apteka Dbam O Zdrowie", "addr:street": "Cegielna", "addr:housenumber": "36B", "addr:city": "Inowrocław", "addr:postcode": "88-100", "amenity": "pharmacy" }, "geometry": { "type": "Point", "coordinates": [ 18.265881010411626, 52.793725256011129 ] } },
{ "type": "Feature", "properties": { "ref:csioz": 1101363, "name": "Apteka Dbam O Zdrowie", "addr:street": "Klonowa", "addr:housenumber": "9", "addr:city": "Janikowo", "addr:postcode": "88-160", "amenity": "pharmacy" }, "geometry": { "type": "Point", "coordinates": [ 18.104995664786571, 52.754850520059399 ] } },
{ "type": "Feature", "properties": { "ref:csioz": 1101374, "name": "Apteka Dbam O Zdrowie", "addr:street": "Główna", "addr:housenumber": "17B", "addr:city": "Janikowo", "addr:postcode": "88-160", "amenity": "pharmacy" }, "geometry": { "type": "Point", "coordinates": [ 18.107665840695706, 52.752889622952317 ] } },
{ "type": "Feature", "properties": { "ref:csioz": 1101627, "name": "Centrum Zdrowia", "addr:street": "Rybacka", "addr:housenumber": "11", "addr:city": "Kruszwica", "addr:postcode": "88-150", "amenity": "pharmacy" }, "geometry": { "type": "Point", "coordinates": [ 18.322866290854677, 52.676063639829827 ] } },
{ "type": "Feature", "properties": { "ref:csioz": 1101870, "name": "Mątewska", "addr:street": "Kamienna", "addr:housenumber": "8", "addr:city": "Inowrocław", "addr:postcode": "88-100", "amenity": "pharmacy" }, "geometry": { "type": "Point", "coordinates": [ 18.255025041441488, 52.760053434319566 ] } },
{ "type": "Feature", "properties": { "ref:csioz": 1101881, "name": "Apteka Vitafarm", "addr:street": "Niepodległości", "addr:housenumber": "4", "addr:city": "Kruszwica", "addr:postcode": "88-150", "amenity": "pharmacy" }, "geometry": { "type": "Point", "coordinates": [ 18.321325435219787, 52.675088436193292 ] } },
{ "type": "Feature", "properties": { "ref:csioz": 1102124, "name": "Dr.Max", "addr:street": "Poznańska", "addr:housenumber": "100", "addr:city": "Inowrocław", "addr:postcode": "88-100", "amenity": "pharmacy" }, "geometry": { "type": "Point", "coordinates": [ 18.258065290334283, 52.780255378048452 ] } },
{ "type": "Feature", "properties": { "ref:csioz": 1188613, "name": "Prima", "addr:street": "Zamkowa", "addr:housenumber": "3", "addr:city": "Kruszwica", "addr:postcode": "88-150", "amenity": "pharmacy" }, "geometry": { "type": "Point", "coordinates": [ 18.323768782389561, 52.673324516251711 ] } },
{ "type": "Feature", "properties": { "ref:csioz": 1224313, "name": "Dr. Max", "addr:street": "Emilii Plater", "addr:housenumber": "10", "addr:city": "Inowrocław", "addr:postcode": "88-100", "amenity": "pharmacy" }, "geometry": { "type": "Point", "coordinates": [ 18.245405281169827, 52.77587580365109 ] } },
{ "type": "Feature", "properties": { "ref:csioz": 1225692, "name": "Apteka Melisa", "addr:street": "Jankowska", "addr:housenumber": "6B", "addr:city": "Pakość", "addr:postcode": "88-170", "amenity": "pharmacy" }, "geometry": { "type": "Point", "coordinates": [ 18.08355093687927, 52.799750282331637 ] } },
{ "type": "Feature", "properties": { "ref:csioz": 1098977, "name": "Apteka Dbam O Zdrowie", "addr:street": "Królowej Jadwigi", "addr:housenumber": "38", "addr:city": "Inowrocław", "addr:postcode": "88-100", "amenity": "pharmacy" }, "geometry": { "type": "Point", "coordinates": [ 18.2571804738444, 52.797841721323614 ] } },
{ "type": "Feature", "properties": { "ref:csioz": 1098989, "name": "Apteka Dbam O Zdrowie", "addr:street": "Jacewska", "addr:housenumber": "25", "addr:city": "Inowrocław", "addr:postcode": "88-100", "amenity": "pharmacy" }, "geometry": { "type": "Point", "coordinates": [ 18.268450062189007, 52.799071137329399 ] } },
{ "type": "Feature", "properties": { "ref:csioz": 1099692, "name": "Pogodna", "addr:street": "Wojska Polskiego", "addr:housenumber": "17A", "addr:city": "Inowrocław", "addr:postcode": "88-100", "amenity": "pharmacy" }, "geometry": { "type": "Point", "coordinates": [ 18.244658171092095, 52.782897266015603 ] } },
{ "type": "Feature", "properties": { "ref:csioz": 1099710, "addr:street": "Ignacego Paderewskiego", "addr:housenumber": "8", "addr:city": "Inowrocław", "addr:postcode": "88-100", "amenity": "pharmacy" }, "geometry": { "type": "Point", "coordinates": [ 18.260085089327543, 52.794062847725279 ] } },
{ "type": "Feature", "properties": { "ref:csioz": 1099778, "name": "Osiedlowa", "addr:street": "Niepodległości", "addr:housenumber": "70a/1", "addr:city": "Inowrocław", "addr:postcode": "88-100", "amenity": "pharmacy" }, "geometry": { "type": "Point", "coordinates": [ 18.252670613640319, 52.775792773368678 ] } },
{ "type": "Feature", "properties": { "ref:csioz": 1099911, "name": "W Przychodni", "addr:street": "Rybacka", "addr:housenumber": "20", "addr:city": "Kruszwica", "addr:postcode": "88-150", "amenity": "pharmacy" }, "geometry": { "type": "Point", "coordinates": [ 18.323264549414112, 52.676037109467231 ] } },
{ "type": "Feature", "properties": { "ref:csioz": 1099940, "name": "Św. Jana", "addr:street": "św. Jana", "addr:housenumber": "21", "addr:city": "Pakość", "addr:postcode": "88-170", "amenity": "pharmacy" }, "geometry": { "type": "Point", "coordinates": [ 18.087925197862926, 52.803517392684334 ] } },
{ "type": "Feature", "properties": { "ref:csioz": 1100099, "name": "Przy Toruńskiej", "addr:street": "Toruńska", "addr:housenumber": "60", "addr:city": "Inowrocław", "addr:postcode": "88-100", "amenity": "pharmacy" }, "geometry": { "type": "Point", "coordinates": [ 18.266985711645827, 52.801102301499526 ] } },
{ "type": "Feature", "properties": { "ref:csioz": 1100134, "name": "Eskulap", "addr:street": "Magazynowa", "addr:housenumber": "23", "addr:city": "Inowrocław", "addr:postcode": "88-100", "amenity": "pharmacy" }, "geometry": { "type": "Point", "coordinates": [ 18.244953330765426, 52.804151307936948 ] } },
{ "type": "Feature", "properties": { "ref:csioz": 1100169, "name": "Dr.Max", "addr:street": "św. Jana", "addr:housenumber": "19", "addr:city": "Pakość", "addr:postcode": "88-170", "amenity": "pharmacy" }, "geometry": { "type": "Point", "coordinates": [ 18.088503173384193, 52.803736166653614 ] } },
{ "type": "Feature", "properties": { "ref:csioz": 1100479, "name": "Alba", "addr:street": "Dworcowa", "addr:housenumber": "33", "addr:city": "Inowrocław", "addr:postcode": "88-100", "amenity": "pharmacy" }, "geometry": { "type": "Point", "coordinates": [ 18.252899615143424, 52.800792215212127 ] } },
{ "type": "Feature", "properties": { "ref:csioz": 1100877, "name": "Vita", "addr:street": "Długa", "addr:housenumber": "105", "addr:city": "Dąbrowa Biskupia", "addr:postcode": "88-133", "amenity": "pharmacy" }, "geometry": { "type": "Point", "coordinates": [ 18.537655101448536, 52.778016705457595 ] } },
{ "type": "Feature", "properties": { "ref:csioz": 1100992, "name": "Apteka Z Uśmiechem", "addr:street": "bp. Antoniego Laubitza", "addr:housenumber": "3", "addr:city": "Inowrocław", "addr:postcode": "88-100", "amenity": "pharmacy" }, "geometry": { "type": "Point", "coordinates": [ 18.257733758994675, 52.799976230164766 ] } },
{ "type": "Feature", "properties": { "ref:csioz": 1101060, "name": "Pod Orłem", "addr:street": "Bolesława Krzywoustego", "addr:housenumber": "23", "addr:city": "Inowrocław", "addr:postcode": "88-100", "amenity": "pharmacy" }, "geometry": { "type": "Point", "coordinates": [ 18.278159273540428, 52.793589866826046 ] } },
{ "type": "Feature", "properties": { "ref:csioz": 1101396, "name": "Apteka Dbam O Zdrowie", "addr:street": "Szarych Szeregów", "addr:housenumber": "18", "addr:city": "Inowrocław", "addr:postcode": "88-100", "amenity": "pharmacy" }, "geometry": { "type": "Point", "coordinates": [ 18.243175798055802, 52.780560935048463 ] } },
{ "type": "Feature", "properties": { "ref:csioz": 1101445, "name": "Rodzinna", "addr:street": "Dmowskiego", "addr:housenumber": "8", "addr:city": "Inowrocław", "addr:postcode": "88-100", "amenity": "pharmacy" }, "geometry": { "type": "Point", "coordinates": [ 18.251191529301298, 52.771495153325297 ] } },
{ "type": "Feature", "properties": { "ref:csioz": 1121137, "name": "Apteka Królewska", "addr:street": "Stanisława Staszica", "addr:housenumber": "19", "addr:city": "Inowrocław", "addr:postcode": "88-100", "amenity": "pharmacy" }, "geometry": { "type": "Point", "coordinates": [ 18.256578390145116, 52.795144563289497 ] } },
{ "type": "Feature", "properties": { "ref:csioz": 1170973, "name": "Szpital Wielospecjalistyczny Im. Dr. Ludwika Błażka W Inowrocławiu", "addr:street": "Poznańska", "addr:housenumber": "97", "addr:city": "Inowrocław", "addr:postcode": "88-100", "amenity": "pharmacy" }, "geometry": { "type": "Point", "coordinates": [ 18.262942063872117, 52.780849715467049 ] } },
{ "type": "Feature", "properties": { "ref:csioz": 1175169, "name": "\"'Benefactor - Galeria Solna' \"", "addr:street": "Wojska Polskiego", "addr:housenumber": "16", "addr:city": "Inowrocław", "addr:postcode": "88-100", "amenity": "pharmacy" }, "geometry": { "type": "Point", "coordinates": [ 18.24104647499572, 52.783933149449325 ] } },
{ "type": "Feature", "properties": { "ref:csioz": 1179834, "name": "Ziko Apteka", "addr:street": "Andrzeja", "addr:housenumber": "19", "addr:city": "Inowrocław", "addr:postcode": "88-100", "amenity": "pharmacy" }, "geometry": { "type": "Point", "coordinates": [ 18.26558650364721, 52.794339818944863 ] } },
{ "type": "Feature", "properties": { "ref:csioz": 1183326, "name": "Wracam Do Zdrowia", "addr:street": "Prezydenta Gabriela Narutowicza", "addr:housenumber": "62", "addr:city": "Inowrocław", "addr:postcode": "88-100", "amenity": "pharmacy" }, "geometry": { "type": "Point", "coordinates": [ 18.247332945336122, 52.797971302539359 ] } },
{ "type": "Feature", "properties": { "ref:csioz": 1187507, "name": "Apteka Żyj-Zdrowo.Com", "addr:street": "Poznańska", "addr:housenumber": "97", "addr:city": "Inowrocław", "addr:postcode": "88-100", "amenity": "pharmacy" }, "geometry": { "type": "Point", "coordinates": [ 18.262607370508583, 52.780591524735406 ] } },
{ "type": "Feature", "properties": { "ref:csioz": 1211868, "name": "Apteka Przyjazna Im. Mgr Farm. Z.Furche", "addr:street": "gen. Franciszka Kleeberga", "addr:housenumber": "1", "addr:city": "Inowrocław", "addr:postcode": "88-100", "amenity": "pharmacy" }, "geometry": { "type": "Point", "coordinates": [ 18.250969949099964, 52.786360177018182 ] } },
{ "type": "Feature", "properties": { "ref:csioz": 1215352, "name": "Apteka Gemini", "addr:street": "Wojska Polskiego", "addr:housenumber": "2", "addr:city": "Inowrocław", "addr:postcode": "88-100", "amenity": "pharmacy" }, "geometry": { "type": "Point", "coordinates": [ 18.251667999999704, 52.78636600001672 ] } },
{ "type": "Feature", "properties": { "ref:csioz": 1221214, "name": "Apteka Gemini", "addr:street": "Królowej Jadwigi", "addr:housenumber": "20", "addr:city": "Inowrocław", "addr:postcode": "88-100", "amenity": "pharmacy" }, "geometry": { "type": "Point", "coordinates": [ 18.258298773510976, 52.796410727573416 ] } },
{ "type": "Feature", "properties": { "ref:csioz": 1225239, "name": "Punkt Apteczny Parchanie", "addr:housenumber": "11", "addr:city": "Parchanie", "addr:postcode": "88-110", "amenity": "pharmacy" }, "geometry": { "type": "Point", "coordinates": [ 18.399114906597745, 52.803141478373156 ] } },
{ "type": "Feature", "properties": { "ref:csioz": 1196006, "name": "U Magistrów", "addr:street": "Przemysłowa", "addr:housenumber": "14", "addr:city": "Janikowo", "addr:postcode": "88-160", "amenity": "pharmacy" }, "geometry": { "type": "Point", "coordinates": [ 18.113686714734069, 52.754020553543143 ] } },
{ "type": "Feature", "properties": { "ref:csioz": 1229648, "addr:housenumber": "17A", "addr:city": "Szadłowice", "addr:postcode": "88-140", "amenity": "pharmacy" }, "geometry": { "type": "Point", "coordinates": [ 18.3346522297091, 52.845557990172765 ] } },
{ "type": "Feature", "properties": { "ref:csioz": 1099419, "name": "Pod Orłem", "addr:street": "Króla Jana III Sobieskiego", "addr:housenumber": "15", "addr:city": "Gniewkowo", "addr:postcode": "88-140", "amenity": "pharmacy" }, "geometry": { "type": "Point", "coordinates": [ 18.410541533795342, 52.89485293433232 ] } },
{ "type": "Feature", "properties": { "ref:csioz": 1099481, "addr:housenumber": "97", "addr:city": "Rojewo", "addr:postcode": "88-111", "amenity": "pharmacy" }, "geometry": { "type": "Point", "coordinates": [ 18.27292438059991, 52.900742163562256 ] } },
{ "type": "Feature", "properties": { "ref:csioz": 1100295, "name": "Waleriana", "addr:street": "Dworcowa", "addr:housenumber": "1", "addr:city": "Gniewkowo", "addr:postcode": "88-140", "amenity": "pharmacy" }, "geometry": { "type": "Point", "coordinates": [ 18.408349408696797, 52.894105978887019 ] } },
{ "type": "Feature", "properties": { "ref:csioz": 1101616, "name": "Centrum Zdrowia", "addr:street": "Rynek", "addr:housenumber": "3", "addr:flats": "4", "addr:city": "Gniewkowo", "addr:postcode": "88-140", "amenity": "pharmacy" }, "geometry": { "type": "Point", "coordinates": [ 18.406346228506816, 52.894884527400151 ] } },
{ "type": "Feature", "properties": { "ref:csioz": 1101257, "name": "Złotnicka", "addr:street": "Podgórna", "addr:housenumber": "4A", "addr:city": "Złotniki Kujawskie", "addr:postcode": "88-180", "amenity": "pharmacy" }, "geometry": { "type": "Point", "coordinates": [ 18.147235264012274, 52.90016015285363 ] } },
{ "type": "Feature", "properties": { "ref:csioz": 1227646, "name": "Panaceum", "addr:street": "Dworcowa", "addr:housenumber": "8", "addr:city": "Jaksice", "addr:postcode": "88-181", "amenity": "pharmacy" }, "geometry": { "type": "Point", "coordinates": [ 18.19605917522814, 52.854370131114379 ] } }
]
}
