{
"type": "FeatureCollection",
"name": "JPT_KOD_JE_1218",
"features": [
{ "type": "Feature", "properties": { "ref:csioz": 1034892, "addr:street": "Krakowska", "addr:housenumber": "138", "addr:city": "Andrychów", "addr:postcode": "34-120", "amenity": "pharmacy" }, "geometry": { "type": "Point", "coordinates": [ 19.335592506486012, 49.855843634375063 ] } },
{ "type": "Feature", "properties": { "ref:csioz": 1035009, "addr:street": "Wadowicka", "addr:housenumber": "3", "addr:city": "Wieprz", "addr:postcode": "34-122", "amenity": "pharmacy", "name": "Apteka W Przychodni Centrum Dla Zdrowia" }, "geometry": { "type": "Point", "coordinates": [ 19.372547883778978, 49.907813894954359 ] } },
{ "type": "Feature", "properties": { "ref:csioz": 1035166, "addr:housenumber": "363", "addr:city": "Leńcze", "addr:postcode": "34-142", "amenity": "pharmacy", "name": "Apteka Prywatna Mgr Farm. Gertruda Kawaler" }, "geometry": { "type": "Point", "coordinates": [ 19.73085312639309, 49.894426455126109 ] } },
{ "type": "Feature", "properties": { "ref:csioz": 1035401, "addr:street": "Legionów", "addr:housenumber": "1", "addr:city": "Andrychów", "addr:postcode": "34-120", "amenity": "pharmacy", "name": "Apfarm Gwarancja Niskich Cen" }, "geometry": { "type": "Point", "coordinates": [ 19.341070219824068, 49.853453805672366 ] } },
{ "type": "Feature", "properties": { "ref:csioz": 1036516, "addr:street": "Beskidzka", "addr:housenumber": "42", "addr:city": "Targanice", "addr:postcode": "34-120", "amenity": "pharmacy" }, "geometry": { "type": "Point", "coordinates": [ 19.329277278948474, 49.813321073525351 ] } },
{ "type": "Feature", "properties": { "ref:csioz": 1042020, "addr:street": "Jana Pawła II", "addr:housenumber": "7", "addr:city": "Kalwaria Zebrzydowska", "addr:postcode": "34-130", "amenity": "pharmacy", "name": "Twoja Apteka" }, "geometry": { "type": "Point", "coordinates": [ 19.6846886626541, 49.869207565110344 ] } },
{ "type": "Feature", "properties": { "ref:csioz": 1056797, "addr:street": "Podgórska", "addr:housenumber": "6", "addr:city": "Wadowice", "addr:postcode": "34-100", "amenity": "pharmacy", "name": "Apteka Rodzinna Centrum Dla Zdrowia" }, "geometry": { "type": "Point", "coordinates": [ 19.496813938009094, 49.874656255937197 ] } },
{ "type": "Feature", "properties": { "ref:csioz": 1074741, "addr:street": "Wolności", "addr:housenumber": "6", "addr:city": "Wadowice", "addr:postcode": "34-100", "amenity": "pharmacy", "name": "„Apteka Pod Karmelem”" }, "geometry": { "type": "Point", "coordinates": [ 19.490329277677517, 49.878717762133427 ] } },
{ "type": "Feature", "properties": { "ref:csioz": 1075113, "addr:street": "Targowa", "addr:housenumber": "2", "addr:city": "Kalwaria Zebrzydowska", "addr:postcode": "34-130", "amenity": "pharmacy" }, "geometry": { "type": "Point", "coordinates": [ 19.677125000000181, 49.869672000012329 ] } },
{ "type": "Feature", "properties": { "ref:csioz": 1075145, "addr:street": "Krakowska", "addr:housenumber": "62", "addr:city": "Andrychów", "addr:postcode": "34-120", "amenity": "pharmacy", "name": "Apteka Przy Samolocie Centrum Tanich Leków Marta Piskorz" }, "geometry": { "type": "Point", "coordinates": [ 19.351127526432862, 49.855996659441523 ] } },
{ "type": "Feature", "properties": { "ref:csioz": 1075974, "addr:street": "dr. J. Putka", "addr:housenumber": "4", "addr:city": "Wadowice", "addr:postcode": "34-100", "amenity": "pharmacy" }, "geometry": { "type": "Point", "coordinates": [ 19.504638591304495, 49.877563472125637 ] } },
{ "type": "Feature", "properties": { "ref:csioz": 1076350, "addr:street": "Stanisława Lenartowicza", "addr:housenumber": "40", "addr:city": "Andrychów", "addr:postcode": "34-120", "amenity": "pharmacy" }, "geometry": { "type": "Point", "coordinates": [ 19.354821173441529, 49.863867141780709 ] } },
{ "type": "Feature", "properties": { "ref:csioz": 1077610, "addr:street": "Centralna", "addr:housenumber": "1", "addr:city": "Wieprz", "addr:postcode": "34-122", "amenity": "pharmacy", "name": "\"Apteka \"\"Centrum\"\"\"" }, "geometry": { "type": "Point", "coordinates": [ 19.357268083911269, 49.890748280237048 ] } },
{ "type": "Feature", "properties": { "ref:csioz": 1076518, "addr:street": "Rynek", "addr:housenumber": "32", "addr:city": "Andrychów", "addr:postcode": "34-120", "amenity": "pharmacy", "name": "Doz Apteka. Dbam O Zdrowie. Pod Białym Orłem" }, "geometry": { "type": "Point", "coordinates": [ 19.341861472466604, 49.852747219752779 ] } },
{ "type": "Feature", "properties": { "ref:csioz": 1077570, "addr:housenumber": "191B", "addr:city": "Wysoka", "addr:postcode": "34-105", "amenity": "pharmacy", "name": "„Pharmavit”" }, "geometry": { "type": "Point", "coordinates": [ 19.603874890306713, 49.906648821833279 ] } },
{ "type": "Feature", "properties": { "ref:csioz": 1113455, "addr:street": "Krakowska", "addr:housenumber": "91", "addr:city": "Andrychów", "addr:postcode": "34-120", "amenity": "pharmacy", "name": "Doz Apteka. Dbam O Zdrowie. Pod Białym Orłem" }, "geometry": { "type": "Point", "coordinates": [ 19.332009341617585, 49.856020912388686 ] } },
{ "type": "Feature", "properties": { "ref:csioz": 1182280, "addr:street": "dr. J. Putka", "addr:housenumber": "7", "addr:city": "Wadowice", "addr:postcode": "34-100", "amenity": "pharmacy", "name": "Dr. Max" }, "geometry": { "type": "Point", "coordinates": [ 19.502387912225299, 49.87623415004861 ] } },
{ "type": "Feature", "properties": { "ref:csioz": 1187837, "addr:street": "Miła", "addr:housenumber": "9", "addr:city": "Inwałd", "addr:postcode": "34-120", "amenity": "pharmacy", "name": "Animar" }, "geometry": { "type": "Point", "coordinates": [ 19.388580347501836, 49.860195495141717 ] } },
{ "type": "Feature", "properties": { "ref:csioz": 1188599, "addr:street": "Starowiejska", "addr:housenumber": "3", "addr:city": "Andrychów", "addr:postcode": "34-120", "amenity": "pharmacy", "name": "Nowa Dobra" }, "geometry": { "type": "Point", "coordinates": [ 19.346326685125856, 49.856202045829164 ] } },
{ "type": "Feature", "properties": { "ref:csioz": 1190975, "addr:housenumber": "119A", "addr:city": "Klecza Górna", "addr:postcode": "34-124", "amenity": "pharmacy" }, "geometry": { "type": "Point", "coordinates": [ 19.563928403319011, 49.867434023863652 ] } },
{ "type": "Feature", "properties": { "ref:csioz": 1194905, "addr:street": "Górki", "addr:housenumber": "1", "addr:city": "Bachowice", "addr:postcode": "34-116", "amenity": "pharmacy" }, "geometry": { "type": "Point", "coordinates": [ 19.491308166713324, 49.965611023815043 ] } },
{ "type": "Feature", "properties": { "ref:csioz": 1196305, "addr:street": "Jana Pawła II", "addr:housenumber": "12", "addr:city": "Wadowice", "addr:postcode": "34-100", "amenity": "pharmacy" }, "geometry": { "type": "Point", "coordinates": [ 19.49180037976922, 49.883190725224701 ] } },
{ "type": "Feature", "properties": { "ref:csioz": 1213341, "addr:street": "Zatorska", "addr:housenumber": "1", "addr:city": "Wadowice", "addr:postcode": "34-100", "amenity": "pharmacy", "name": "Niezapominajka Dla Całej Rodziny" }, "geometry": { "type": "Point", "coordinates": [ 19.491787600003967, 49.883912053812445 ] } },
{ "type": "Feature", "properties": { "ref:csioz": 1036714, "addr:street": "Rynek", "addr:housenumber": "26A", "addr:city": "Andrychów", "addr:postcode": "34-120", "amenity": "pharmacy" }, "geometry": { "type": "Point", "coordinates": [ 19.341977438017551, 49.851836239872334 ] } },
{ "type": "Feature", "properties": { "ref:csioz": 1035298, "addr:street": "Krakowska", "addr:housenumber": "5", "addr:city": "Kalwaria Zebrzydowska", "addr:postcode": "34-130", "amenity": "pharmacy", "name": "Apteka Krakowska" }, "geometry": { "type": "Point", "coordinates": [ 19.678104674490097, 49.866957859499777 ] } },
{ "type": "Feature", "properties": { "ref:csioz": 1231165, "addr:housenumber": "226", "addr:city": "Mucharz", "addr:postcode": "34-106", "amenity": "pharmacy", "name": "PUNKT APTECZNY KATARZYNA CELAK" }, "geometry": { "type": "Point", "coordinates": [ 19.565531499343983, 49.807470338323022 ] } },
{ "type": "Feature", "properties": { "ref:csioz": 1036478, "addr:housenumber": "605", "addr:city": "Przytkowice", "addr:postcode": "34-141", "amenity": "pharmacy" }, "geometry": { "type": "Point", "coordinates": [ 19.693176887910738, 49.913625302421124 ] } },
{ "type": "Feature", "properties": { "ref:csioz": 1036493, "addr:street": "Główna", "addr:housenumber": "2", "addr:city": "Chocznia", "addr:postcode": "34-123", "amenity": "pharmacy" }, "geometry": { "type": "Point", "coordinates": [ 19.453727849573301, 49.873738648781845 ] } },
{ "type": "Feature", "properties": { "ref:csioz": 1037275, "addr:street": "Lwowska", "addr:housenumber": "72A", "addr:city": "Wadowice", "addr:postcode": "34-100", "amenity": "pharmacy", "name": "Wadowicka" }, "geometry": { "type": "Point", "coordinates": [ 19.502924617660504, 49.879050504169207 ] } },
{ "type": "Feature", "properties": { "ref:csioz": 1056209, "addr:street": "Krakowska", "addr:housenumber": "10", "addr:city": "Lanckorona", "addr:postcode": "34-143", "amenity": "pharmacy" }, "geometry": { "type": "Point", "coordinates": [ 19.719269866444407, 49.845477406743662 ] } },
{ "type": "Feature", "properties": { "ref:csioz": 1056364, "addr:street": "Karmelicka", "addr:housenumber": "10", "addr:city": "Wadowice", "addr:postcode": "34-100", "amenity": "pharmacy", "name": "Apteka Bądź Zdrów" }, "geometry": { "type": "Point", "coordinates": [ 19.49124338987049, 49.881279543806947 ] } },
{ "type": "Feature", "properties": { "ref:csioz": 1077148, "addr:street": "Kalwaryjska", "addr:housenumber": "1", "addr:city": "Brzeźnica", "addr:postcode": "34-114", "amenity": "pharmacy", "name": "Remedium" }, "geometry": { "type": "Point", "coordinates": [ 19.631669476580345, 49.965777292464949 ] } },
{ "type": "Feature", "properties": { "ref:csioz": 1077200, "addr:street": "Krakowska", "addr:housenumber": "83", "addr:city": "Andrychów", "addr:postcode": "34-120", "amenity": "pharmacy", "name": "Apteka Andrychowska Centrum Tanich Leków" }, "geometry": { "type": "Point", "coordinates": [ 19.334333459020211, 49.855752434370928 ] } },
{ "type": "Feature", "properties": { "ref:csioz": 1113698, "addr:street": "Obrońców Westerplatte", "addr:housenumber": "4", "addr:city": "Wadowice", "addr:postcode": "34-100", "amenity": "pharmacy", "name": "Apteka Medicus" }, "geometry": { "type": "Point", "coordinates": [ 19.491489422428334, 49.886607775788249 ] } },
{ "type": "Feature", "properties": { "ref:csioz": 1115078, "addr:housenumber": "626", "addr:city": "Stryszów", "addr:postcode": "34-146", "amenity": "pharmacy", "name": "Apteka Rodzinna Centrum Dla Zdrowia" }, "geometry": { "type": "Point", "coordinates": [ 19.637918724796851, 49.825415307493323 ] } },
{ "type": "Feature", "properties": { "ref:csioz": 1115952, "addr:street": "Kościuszki", "addr:housenumber": "22", "addr:city": "Wadowice", "addr:postcode": "34-100", "amenity": "pharmacy", "name": "Apteka Słoneczna" }, "geometry": { "type": "Point", "coordinates": [ 19.492274309849975, 49.882642292551324 ] } },
{ "type": "Feature", "properties": { "ref:csioz": 1117878, "addr:street": "Krakowska", "addr:housenumber": "37", "addr:city": "Łączany", "addr:postcode": "34-115", "amenity": "pharmacy" }, "geometry": { "type": "Point", "coordinates": [ 19.577034171541211, 49.98527756534358 ] } },
{ "type": "Feature", "properties": { "ref:csioz": 1231136, "addr:street": "Krakowska", "addr:housenumber": "18A", "addr:city": "Kalwaria Zebrzydowska", "addr:postcode": "34-130", "amenity": "pharmacy", "name": "HYGIEIA" }, "geometry": { "type": "Point", "coordinates": [ 19.68016688187873, 49.866104586332867 ] } },
{ "type": "Feature", "properties": { "ref:csioz": 1174017, "addr:street": "Włókniarzy", "addr:housenumber": "18A", "addr:city": "Andrychów", "addr:postcode": "34-120", "amenity": "pharmacy", "name": "Doz Apteka. Dbam O Zdrowie. Pod Białym Orłem" }, "geometry": { "type": "Point", "coordinates": [ 19.351153767229384, 49.861025005652749 ] } },
{ "type": "Feature", "properties": { "ref:csioz": 1189170, "addr:street": "Poprzeczna", "addr:housenumber": "10", "addr:city": "Wadowice", "addr:postcode": "34-100", "amenity": "pharmacy", "name": "Apteka Świat Leków" }, "geometry": { "type": "Point", "coordinates": [ 19.495326057864769, 49.880800783523028 ] } },
{ "type": "Feature", "properties": { "ref:csioz": 1230971, "addr:street": "Pałacowa", "addr:housenumber": "28", "addr:city": "Paszkówka", "addr:postcode": "34-113", "amenity": "pharmacy", "name": null }, "geometry": { "type": "Point", "coordinates": [ 19.686751810781988, 49.940176733736855 ] } },
{ "type": "Feature", "properties": { "ref:csioz": 1200901, "addr:street": "Rynek", "addr:housenumber": "16", "addr:city": "Spytkowice", "addr:postcode": "34-116", "amenity": "pharmacy", "name": "Apteka Rodzinna" }, "geometry": { "type": "Point", "coordinates": [ 19.511272866567943, 49.997236559891853 ] } },
{ "type": "Feature", "properties": { "ref:csioz": 1208597, "addr:street": "Wojska Polskiego", "addr:housenumber": "14", "addr:city": "Wadowice", "addr:postcode": "34-100", "amenity": "pharmacy", "name": "Hygieia" }, "geometry": { "type": "Point", "coordinates": [ 19.491467857959446, 49.890947588011869 ] } },
{ "type": "Feature", "properties": { "ref:csioz": 1208931, "addr:housenumber": "509", "addr:city": "Przytkowice", "addr:postcode": "34-141", "amenity": "pharmacy", "name": "Centrum Dla Zdrowia" }, "geometry": { "type": "Point", "coordinates": [ 19.699306416834855, 49.913139291949939 ] } },
{ "type": "Feature", "properties": { "ref:csioz": 1210769, "addr:street": "Wojska Polskiego", "addr:housenumber": "17", "addr:city": "Wadowice", "addr:postcode": "34-100", "amenity": "pharmacy", "name": "Apteka Podhalanin" }, "geometry": { "type": "Point", "coordinates": [ 19.490154010751159, 49.890920367836635 ] } },
{ "type": "Feature", "properties": { "ref:csioz": 1217228, "addr:street": "Stanisława Lenartowicza", "addr:housenumber": "7", "addr:city": "Andrychów", "addr:postcode": "34-120", "amenity": "pharmacy", "name": "Hygieia" }, "geometry": { "type": "Point", "coordinates": [ 19.353428028897394, 49.858614510066118 ] } },
{ "type": "Feature", "properties": { "ref:csioz": 1222897, "addr:street": "Rynek", "addr:housenumber": "32", "addr:city": "Spytkowice", "addr:postcode": "34-116", "amenity": "pharmacy", "name": "Apteka Centrum Dla Zdrowia" }, "geometry": { "type": "Point", "coordinates": [ 19.510306230194235, 49.995906406774623 ] } },
{ "type": "Feature", "properties": { "ref:csioz": 1229518, "addr:street": "Krakowska", "addr:housenumber": "83 G", "addr:city": "Andrychów", "addr:postcode": "34-120", "amenity": "pharmacy", "name": "Dr. Max" }, "geometry": { "type": "Point", "coordinates": [ 19.334449021923174, 49.855168701963919 ] } },
{ "type": "Feature", "properties": { "ref:csioz": 1229496, "addr:street": "Szkolna", "addr:housenumber": "42", "addr:city": "Roczyny", "addr:postcode": "34-120", "amenity": "pharmacy" }, "geometry": { "type": "Point", "coordinates": [ 19.306820210488738, 49.840380094156799 ] } },
{ "type": "Feature", "properties": { "ref:csioz": 1042310, "addr:housenumber": "148", "addr:city": "Brody", "addr:postcode": "34-130", "amenity": "pharmacy", "name": "\"Apteka \"\" Nad Cedronem\"\"\"" }, "geometry": { "type": "Point", "coordinates": [ 19.69560320612721, 49.866249346466446 ] } },
{ "type": "Feature", "properties": { "ref:csioz": 1075464, "addr:street": "27-go Stycznia", "addr:housenumber": "9", "addr:city": "Andrychów", "addr:postcode": "34-120", "amenity": "pharmacy", "name": "Dr. Max" }, "geometry": { "type": "Point", "coordinates": [ 19.344681679132993, 49.856252552359337 ] } },
{ "type": "Feature", "properties": { "ref:csioz": 1074863, "addr:street": "Sienkiewicza", "addr:housenumber": "6", "addr:city": "Wadowice", "addr:postcode": "34-100", "amenity": "pharmacy", "name": "Panaceum" }, "geometry": { "type": "Point", "coordinates": [ 19.496527189926809, 49.882329729152289 ] } },
{ "type": "Feature", "properties": { "ref:csioz": 1077725, "addr:street": "Krakowska", "addr:housenumber": "18", "addr:city": "Izdebnik", "addr:postcode": "34-144", "amenity": "pharmacy" }, "geometry": { "type": "Point", "coordinates": [ 19.766363677844542, 49.870485032928791 ] } }
]
}
