{
    "type": "FeatureCollection",
    "name": "JPT_KOD_JE_1862",
    "features": [
        {
            "type": "Feature",
            "properties": {
                "ref:csioz": 1136683,
                "addr:street": "Monte Cassino",
                "addr:housenumber": "18",
                "addr:city": "Przemyśl",
                "addr:postcode": "37-700",
                "amenity": "pharmacy"
            },
            "geometry": {
                "type": "Point",
                "coordinates": [
                    22.78200500007327,
                    49.80871200001302
                ]
            }
        },
        {
            "type": "Feature",
            "properties": {
                "ref:csioz": 1136724,
                "addr:street": "Jasińkiego",
                "addr:housenumber": "15",
                "addr:city": "Przemyśl",
                "addr:postcode": "37-700",
                "amenity": "pharmacy"
            },
            "geometry": {
                "type": "Point",
                "coordinates": [
                    22.799989000075392,
                    49.777072000013
                ]
            }
        },
        {
            "type": "Feature",
            "properties": {
                "ref:csioz": 1141014,
                "name": "Pogodna",
                "addr:street": "Jagiellońska",
                "addr:housenumber": "21",
                "addr:city": "Przemyśl",
                "addr:postcode": "37-700",
                "amenity": "pharmacy"
            },
            "geometry": {
                "type": "Point",
                "coordinates": [
                    22.772292538725214,
                    49.78336781491063
                ]
            }
        },
        {
            "type": "Feature",
            "properties": {
                "ref:csioz": 1141023,
                "addr:street": "Kamienny Most",
                "addr:housenumber": "2",
                "addr:city": "Przemyśl",
                "addr:postcode": "37-700",
                "amenity": "pharmacy"
            },
            "geometry": {
                "type": "Point",
                "coordinates": [
                    22.77210337718543,
                    49.78385199902229
                ]
            }
        },
        {
            "type": "Feature",
            "properties": {
                "ref:csioz": 1141067,
                "name": "Dr Zdrowie",
                "addr:street": "Lwowska",
                "addr:housenumber": "36",
                "addr:city": "Przemyśl",
                "addr:postcode": "37-700",
                "amenity": "pharmacy"
            },
            "geometry": {
                "type": "Point",
                "coordinates": [
                    22.808298000076213,
                    49.781330000013014
                ]
            }
        },
        {
            "type": "Feature",
            "properties": {
                "ref:csioz": 1141072,
                "addr:street": "Adama Mickiewicza",
                "addr:housenumber": "11",
                "addr:city": "Przemyśl",
                "addr:postcode": "37-700",
                "amenity": "pharmacy"
            },
            "geometry": {
                "type": "Point",
                "coordinates": [
                    22.777852738788017,
                    49.782542522204494
                ]
            }
        },
        {
            "type": "Feature",
            "properties": {
                "ref:csioz": 1141095,
                "addr:street": "Monte Cassino",
                "addr:housenumber": "18",
                "addr:city": "Przemyśl",
                "addr:postcode": "37-700",
                "amenity": "pharmacy"
            },
            "geometry": {
                "type": "Point",
                "coordinates": [
                    22.78200500007327,
                    49.80871200001302
                ]
            }
        },
        {
            "type": "Feature",
            "properties": {
                "ref:csioz": 1141128,
                "name": "Nad Sanem",
                "addr:street": "Plac Konstytucji 3 Maja",
                "addr:housenumber": "5",
                "addr:city": "Przemyśl",
                "addr:postcode": "37-700",
                "amenity": "pharmacy"
            },
            "geometry": {
                "type": "Point",
                "coordinates": [
                    22.76624143857067,
                    49.78585245264882
                ]
            }
        },
        {
            "type": "Feature",
            "properties": {
                "ref:csioz": 1141131,
                "name": "Przy Dworcu",
                "addr:street": "Plac Legionów",
                "addr:housenumber": "6",
                "addr:city": "Przemyśl",
                "addr:postcode": "37-700",
                "amenity": "pharmacy"
            },
            "geometry": {
                "type": "Point",
                "coordinates": [
                    22.776873268097393,
                    49.78311170957723
                ]
            }
        },
        {
            "type": "Feature",
            "properties": {
                "ref:csioz": 1141177,
                "name": "\"Apteka \"\"Słoneczna\"\"\"",
                "addr:street": "Juliusza Słowackiego",
                "addr:housenumber": "13",
                "addr:city": "Przemyśl",
                "addr:postcode": "37-700",
                "amenity": "pharmacy"
            },
            "geometry": {
                "type": "Point",
                "coordinates": [
                    22.775429274408367,
                    49.78120088939504
                ]
            }
        },
        {
            "type": "Feature",
            "properties": {
                "ref:csioz": 1141166,
                "name": "Dr.Max",
                "addr:street": "Serbańska",
                "addr:housenumber": "2",
                "addr:city": "Przemyśl",
                "addr:postcode": "37-700",
                "amenity": "pharmacy"
            },
            "geometry": {
                "type": "Point",
                "coordinates": [
                    22.77102673538958,
                    49.78205561603574
                ]
            }
        },
        {
            "type": "Feature",
            "properties": {
                "ref:csioz": 1141240,
                "name": "Pod Orłem",
                "addr:street": "3 Maja",
                "addr:housenumber": "1",
                "addr:city": "Przemyśl",
                "addr:postcode": "37-700",
                "amenity": "pharmacy"
            },
            "geometry": {
                "type": "Point",
                "coordinates": [
                    22.76641874113346,
                    49.78631355364935
                ]
            }
        },
        {
            "type": "Feature",
            "properties": {
                "ref:csioz": 1141254,
                "name": "Emka",
                "addr:street": "3 Maja",
                "addr:housenumber": "18",
                "addr:city": "Przemyśl",
                "addr:postcode": "37-700",
                "amenity": "pharmacy"
            },
            "geometry": {
                "type": "Point",
                "coordinates": [
                    22.766714820717585,
                    49.78819006209057
                ]
            }
        },
        {
            "type": "Feature",
            "properties": {
                "ref:csioz": 1141265,
                "name": "Niezapominajka Dla Całej Rodziny",
                "addr:street": "3 Maja",
                "addr:housenumber": "21",
                "addr:city": "Przemyśl",
                "addr:postcode": "37-700",
                "amenity": "pharmacy"
            },
            "geometry": {
                "type": "Point",
                "coordinates": [
                    22.766202792127064,
                    49.78818847707289
                ]
            }
        },
        {
            "type": "Feature",
            "properties": {
                "ref:csioz": 1141233,
                "name": "Dr.Max",
                "addr:street": "św. Jana Nepomucena",
                "addr:housenumber": "32",
                "addr:city": "Przemyśl",
                "addr:postcode": "37-700",
                "amenity": "pharmacy"
            },
            "geometry": {
                "type": "Point",
                "coordinates": [
                    22.75968869821003,
                    49.79682804705527
                ]
            }
        },
        {
            "type": "Feature",
            "properties": {
                "ref:csioz": 1151296,
                "addr:street": "Pułkownika Marcina Borelowskiego",
                "addr:housenumber": "10",
                "addr:city": "Przemyśl",
                "addr:postcode": "37-700",
                "amenity": "pharmacy"
            },
            "geometry": {
                "type": "Point",
                "coordinates": [
                    22.772377362430728,
                    49.79207792131532
                ]
            }
        },
        {
            "type": "Feature",
            "properties": {
                "ref:csioz": 1151314,
                "name": "Belissa",
                "addr:street": "Aleksandra Dworskiego",
                "addr:housenumber": "52",
                "addr:city": "Przemyśl",
                "addr:postcode": "37-700",
                "amenity": "pharmacy"
            },
            "geometry": {
                "type": "Point",
                "coordinates": [
                    22.784735605704835,
                    49.78055642078176
                ]
            }
        },
        {
            "type": "Feature",
            "properties": {
                "ref:csioz": 1165177,
                "name": "Farmacja 24",
                "addr:street": "3 Maja",
                "addr:housenumber": "31",
                "addr:flats": "s1",
                "addr:city": "Przemyśl",
                "addr:postcode": "37-700",
                "amenity": "pharmacy"
            },
            "geometry": {
                "type": "Point",
                "coordinates": [
                    22.766062289104106,
                    49.78945473779422
                ]
            }
        },
        {
            "type": "Feature",
            "properties": {
                "ref:csioz": 1165189,
                "name": "Farmacja 24",
                "addr:street": "Wojciecha Brudzewskiego",
                "addr:housenumber": "1",
                "addr:flats": "0034",
                "addr:city": "Przemyśl",
                "addr:postcode": "37-700",
                "amenity": "pharmacy"
            },
            "geometry": {
                "type": "Point",
                "coordinates": [
                    22.78287242154217,
                    49.79004148457789
                ]
            }
        },
        {
            "type": "Feature",
            "properties": {
                "ref:csioz": 1171444,
                "name": "Apteka Słoneczna",
                "addr:street": "Jagiellońska",
                "addr:housenumber": "12",
                "addr:city": "Przemyśl",
                "addr:postcode": "37-700",
                "amenity": "pharmacy"
            },
            "geometry": {
                "type": "Point",
                "coordinates": [
                    22.772523443012442,
                    49.78350675769932
                ]
            }
        },
        {
            "type": "Feature",
            "properties": {
                "ref:csioz": 1178522,
                "name": "Apteka Puls",
                "addr:street": "Lwowska",
                "addr:housenumber": "17a",
                "addr:city": "Przemyśl",
                "addr:postcode": "37-700",
                "amenity": "pharmacy"
            },
            "geometry": {
                "type": "Point",
                "coordinates": [
                    22.771557102080557,
                    49.79174057707303
                ]
            }
        },
        {
            "type": "Feature",
            "properties": {
                "ref:csioz": 1179245,
                "name": "Apteka Puls",
                "addr:street": "3 Maja",
                "addr:housenumber": "59",
                "addr:city": "Przemyśl",
                "addr:postcode": "37-700",
                "amenity": "pharmacy"
            },
            "geometry": {
                "type": "Point",
                "coordinates": [
                    22.765658303598645,
                    49.79274269978109
                ]
            }
        },
        {
            "type": "Feature",
            "properties": {
                "ref:csioz": 1137436,
                "addr:street": "Stefana Rogozińskiego",
                "addr:housenumber": "30",
                "addr:city": "Przemyśl",
                "addr:postcode": "37-700",
                "amenity": "pharmacy"
            },
            "geometry": {
                "type": "Point",
                "coordinates": [
                    22.776393106121656,
                    49.79293874302891
                ]
            }
        },
        {
            "type": "Feature",
            "properties": {
                "ref:csioz": 1140974,
                "name": "Słoneczna",
                "addr:street": "Wybrzeże Marszałka Ferdynanda Focha",
                "addr:housenumber": "31",
                "addr:city": "Przemyśl",
                "addr:postcode": "37-700",
                "amenity": "pharmacy"
            },
            "geometry": {
                "type": "Point",
                "coordinates": [
                    22.777185022719376,
                    49.79129278922681
                ]
            }
        },
        {
            "type": "Feature",
            "properties": {
                "ref:csioz": 1140982,
                "addr:street": "Grunwaldzka",
                "addr:housenumber": "58",
                "addr:city": "Przemyśl",
                "addr:postcode": "37-700",
                "amenity": "pharmacy"
            },
            "geometry": {
                "type": "Point",
                "coordinates": [
                    22.752997443748047,
                    49.785327170063695
                ]
            }
        },
        {
            "type": "Feature",
            "properties": {
                "ref:csioz": 1140996,
                "name": "Rodzinna",
                "addr:street": "Grunwaldzka",
                "addr:housenumber": "97",
                "addr:city": "Przemyśl",
                "addr:postcode": "37-700",
                "amenity": "pharmacy"
            },
            "geometry": {
                "type": "Point",
                "coordinates": [
                    22.752699963505563,
                    49.78473248460356
                ]
            }
        },
        {
            "type": "Feature",
            "properties": {
                "ref:csioz": 1141190,
                "name": "Złoty Liść",
                "addr:street": "Sportowa",
                "addr:housenumber": "4",
                "addr:city": "Przemyśl",
                "addr:postcode": "37-700",
                "amenity": "pharmacy"
            },
            "geometry": {
                "type": "Point",
                "coordinates": [
                    22.774034251950283,
                    49.78534359804149
                ]
            }
        },
        {
            "type": "Feature",
            "properties": {
                "ref:csioz": 1141009,
                "name": "Dr.Max",
                "addr:street": "Jagiellońska",
                "addr:housenumber": "6",
                "addr:city": "Przemyśl",
                "addr:postcode": "37-700",
                "amenity": "pharmacy"
            },
            "geometry": {
                "type": "Point",
                "coordinates": [
                    22.773545494637183,
                    49.7830299540954
                ]
            }
        },
        {
            "type": "Feature",
            "properties": {
                "ref:csioz": 1165547,
                "name": "Apteka Różana",
                "addr:street": "Św. Jana Nepomucena",
                "addr:housenumber": "13",
                "addr:flats": "2/3",
                "addr:city": "Przemyśl",
                "addr:postcode": "37-700",
                "amenity": "pharmacy"
            },
            "geometry": {
                "type": "Point",
                "coordinates": [
                    22.762658000071525,
                    49.78829800001295
                ]
            }
        },
        {
            "type": "Feature",
            "properties": {
                "ref:csioz": 1174194,
                "name": "Apteka Słoneczna",
                "addr:street": "Generała Władysława Sikorskiego",
                "addr:housenumber": "1B",
                "addr:city": "Przemyśl",
                "addr:postcode": "37-700",
                "amenity": "pharmacy"
            },
            "geometry": {
                "type": "Point",
                "coordinates": [
                    22.752116499220868,
                    49.79164784432879
                ]
            }
        },
        {
            "type": "Feature",
            "properties": {
                "ref:csioz": 1180997,
                "name": "Apteka W Rynku",
                "addr:street": "Rynek",
                "addr:housenumber": "13",
                "addr:city": "Przemyśl",
                "addr:postcode": "37-700",
                "amenity": "pharmacy"
            },
            "geometry": {
                "type": "Point",
                "coordinates": [
                    22.77018821364249,
                    49.78190905352944
                ]
            }
        },
        {
            "type": "Feature",
            "properties": {
                "ref:csioz": 1206359,
                "name": "Apteka Vita",
                "addr:street": "Biskupa Jakuba Glazera",
                "addr:housenumber": "11",
                "addr:city": "Przemyśl",
                "addr:postcode": "37-700",
                "amenity": "pharmacy"
            },
            "geometry": {
                "type": "Point",
                "coordinates": [
                    22.759201844153107,
                    49.78708586141097
                ]
            }
        },
        {
            "type": "Feature",
            "properties": {
                "ref:csioz": 1216783,
                "name": "Różana",
                "addr:street": "Plac na Bramie",
                "addr:housenumber": "12",
                "addr:city": "Przemyśl",
                "addr:postcode": "37-700",
                "amenity": "pharmacy"
            },
            "geometry": {
                "type": "Point",
                "coordinates": [
                    22.774299351801407,
                    49.78225672127935
                ]
            }
        },
        {
            "type": "Feature",
            "properties": {
                "ref:csioz": 1222587,
                "name": "Apteka Szpitalna Z Pracownią Leków Do Chemioterapii",
                "addr:street": "Monte Cassino",
                "addr:housenumber": "18",
                "addr:city": "Przemyśl",
                "addr:postcode": "37-700",
                "amenity": "pharmacy"
            },
            "geometry": {
                "type": "Point",
                "coordinates": [
                    22.78200500007327,
                    49.80871200001302
                ]
            }
        },
        {
            "type": "Feature",
            "properties": {
                "ref:csioz": 1224291,
                "name": "Apteka Lafarma",
                "addr:street": "Henryka Wieniawskiego",
                "addr:housenumber": "28",
                "addr:flats": "3",
                "addr:city": "Przemyśl",
                "addr:postcode": "37-700",
                "amenity": "pharmacy"
            },
            "geometry": {
                "type": "Point",
                "coordinates": [
                    22.751839245083865,
                    49.78449347453609
                ]
            }
        },
        {
            "type": "Feature",
            "properties": {
                "ref:csioz": 1228019,
                "name": "Centrum Medyczno-Charytatywne Im. Św. Józefa W Przemyślu",
                "addr:street": "Juliusza Słowackiego",
                "addr:housenumber": "85",
                "addr:city": "Przemyśl",
                "addr:postcode": "37-700",
                "amenity": "pharmacy"
            },
            "geometry": {
                "type": "Point",
                "coordinates": [
                    22.781158147986336,
                    49.77525088889213
                ]
            }
        },
        {
            "type": "Feature",
            "properties": {
                "ref:csioz": 1141206,
                "name": "Dr.Max",
                "addr:street": "Sportowa",
                "addr:housenumber": "6",
                "addr:city": "Przemyśl",
                "addr:postcode": "37-700",
                "amenity": "pharmacy"
            },
            "geometry": {
                "type": "Point",
                "coordinates": [
                    22.774782390038638,
                    49.785486389047506
                ]
            }
        }
    ]
}
