{
    "type": "FeatureCollection",
    "name": "JPT_KOD_JE_2464",
    "features": [
        {
            "type": "Feature",
            "properties": {
                "ref:csioz": 1057224,
                "name": "Centrum Położnicze Św. Łukasza Sp. Z O.O.",
                "addr:street": "Zaciszańska",
                "addr:housenumber": "25",
                "addr:city": "Częstochowa",
                "addr:postcode": "42-202",
                "amenity": "pharmacy"
            },
            "geometry": {
                "type": "Point",
                "coordinates": [
                    19.088461505858344,
                    50.79953776264338
                ]
            }
        },
        {
            "type": "Feature",
            "properties": {
                "ref:csioz": 1057235,
                "name": "Centrum Medyczne Św. Łukasza Spółka Z Ograniczoną Odpowiedzialnością",
                "addr:street": "Zaciszańska",
                "addr:housenumber": "25a",
                "addr:city": "Częstochowa",
                "addr:postcode": "42-202",
                "amenity": "pharmacy"
            },
            "geometry": {
                "type": "Point",
                "coordinates": [
                    19.088548031962603,
                    50.79903673868079
                ]
            }
        },
        {
            "type": "Feature",
            "properties": {
                "ref:csioz": 1057387,
                "name": "\"Zakład Opiekuńczo-Leczniczy Prowadzony Przez Zgromadzenie Małych Sióstr Niepokalanego Serca Maryi \"\"Honoratek\"\"\"",
                "addr:street": "Ogrodowa",
                "addr:housenumber": "35",
                "addr:city": "Częstochowa",
                "addr:postcode": "42-200",
                "amenity": "pharmacy"
            },
            "geometry": {
                "type": "Point",
                "coordinates": [
                    19.126089965724013,
                    50.806131667112055
                ]
            }
        },
        {
            "type": "Feature",
            "properties": {
                "ref:csioz": 1060366,
                "name": "Bursztynowa",
                "addr:street": "Aleja Najświętszej Maryi Panny",
                "addr:housenumber": "24",
                "addr:city": "Częstochowa",
                "addr:postcode": "42-207",
                "amenity": "pharmacy"
            },
            "geometry": {
                "type": "Point",
                "coordinates": [
                    19.118739120657185,
                    50.81213702741477
                ]
            }
        },
        {
            "type": "Feature",
            "properties": {
                "ref:csioz": 1060377,
                "name": "Amarantowa",
                "addr:street": "Aleja Najświętszej Maryi Panny",
                "addr:housenumber": "3",
                "addr:city": "Częstochowa",
                "addr:postcode": "42-217",
                "amenity": "pharmacy"
            },
            "geometry": {
                "type": "Point",
                "coordinates": [
                    19.124941453594673,
                    50.811590473638866
                ]
            }
        },
        {
            "type": "Feature",
            "properties": {
                "ref:csioz": 1060408,
                "name": "Super-Pharm",
                "addr:street": "Aleja Wojska Polskiego",
                "addr:housenumber": "207",
                "addr:city": "Częstochowa",
                "addr:postcode": "42-202",
                "amenity": "pharmacy"
            },
            "geometry": {
                "type": "Point",
                "coordinates": [
                    19.132973279418245,
                    50.80783690756218
                ]
            }
        },
        {
            "type": "Feature",
            "properties": {
                "ref:csioz": 1060419,
                "name": "Brak Nazwy",
                "addr:street": "Aleja Armii Krajowej",
                "addr:housenumber": "1",
                "addr:city": "Częstochowa",
                "addr:postcode": "42-200",
                "amenity": "pharmacy"
            },
            "geometry": {
                "type": "Point",
                "coordinates": [
                    19.118088000000043,
                    50.815995000013686
                ]
            }
        },
        {
            "type": "Feature",
            "properties": {
                "ref:csioz": 1060443,
                "name": "Apteka Prywatna",
                "addr:street": "Krzysztofa Kamila Baczyńskiego",
                "addr:housenumber": "6",
                "addr:city": "Częstochowa",
                "addr:postcode": "42-224",
                "amenity": "pharmacy"
            },
            "geometry": {
                "type": "Point",
                "coordinates": [
                    19.127520504449862,
                    50.83716611835272
                ]
            }
        },
        {
            "type": "Feature",
            "properties": {
                "ref:csioz": 1060462,
                "name": "Brak Nazwy",
                "addr:street": "Bialska",
                "addr:housenumber": "104",
                "addr:city": "Częstochowa",
                "addr:postcode": "42-200",
                "amenity": "pharmacy"
            },
            "geometry": {
                "type": "Point",
                "coordinates": [
                    19.08917200000003,
                    50.82965200001371
                ]
            }
        },
        {
            "type": "Feature",
            "properties": {
                "ref:csioz": 1060470,
                "name": "Apteka Aronia",
                "addr:street": "Bohaterów Katynia",
                "addr:housenumber": "25A",
                "addr:city": "Częstochowa",
                "addr:postcode": "42-200",
                "amenity": "pharmacy"
            },
            "geometry": {
                "type": "Point",
                "coordinates": [
                    19.150507934124718,
                    50.772735979515545
                ]
            }
        },
        {
            "type": "Feature",
            "properties": {
                "ref:csioz": 1060481,
                "name": "Brak Nazwy",
                "addr:street": "Brzozowa",
                "addr:housenumber": "2",
                "addr:city": "Częstochowa",
                "addr:postcode": "42-200",
                "amenity": "pharmacy"
            },
            "geometry": {
                "type": "Point",
                "coordinates": [
                    19.142542000000034,
                    50.78351200001363
                ]
            }
        },
        {
            "type": "Feature",
            "properties": {
                "ref:csioz": 1060561,
                "name": "Cynamonowa",
                "addr:street": "Ferdynanda Focha",
                "addr:housenumber": "7",
                "addr:city": "Częstochowa",
                "addr:postcode": "42-200",
                "amenity": "pharmacy"
            },
            "geometry": {
                "type": "Point",
                "coordinates": [
                    19.115715000000034,
                    50.80624500001366
                ]
            }
        },
        {
            "type": "Feature",
            "properties": {
                "ref:csioz": 1060573,
                "name": "Waga",
                "addr:street": "Andersa",
                "addr:housenumber": "12",
                "addr:city": "Częstochowa",
                "addr:postcode": "42-200",
                "amenity": "pharmacy"
            },
            "geometry": {
                "type": "Point",
                "coordinates": [
                    19.130847073108484,
                    50.84777759424813
                ]
            }
        },
        {
            "type": "Feature",
            "properties": {
                "ref:csioz": 1060585,
                "name": "Apteka Vita",
                "addr:street": "Witolda Gombrowicza",
                "addr:housenumber": "2",
                "addr:city": "Częstochowa",
                "addr:postcode": "42-224",
                "amenity": "pharmacy"
            },
            "geometry": {
                "type": "Point",
                "coordinates": [
                    19.133542382622995,
                    50.83604710866747
                ]
            }
        },
        {
            "type": "Feature",
            "properties": {
                "ref:csioz": 1060599,
                "name": "Brak Nazwy",
                "addr:street": "Zbigniewa Herberta",
                "addr:housenumber": "2",
                "addr:city": "Częstochowa",
                "addr:postcode": "42-224",
                "amenity": "pharmacy"
            },
            "geometry": {
                "type": "Point",
                "coordinates": [
                    19.131527487766856,
                    50.83876965906319
                ]
            }
        },
        {
            "type": "Feature",
            "properties": {
                "ref:csioz": 1060613,
                "name": "Natural",
                "addr:street": "Jarosława Iwaszkiewicza",
                "addr:housenumber": "11",
                "addr:city": "Częstochowa",
                "addr:postcode": "42-200",
                "amenity": "pharmacy"
            },
            "geometry": {
                "type": "Point",
                "coordinates": [
                    19.123455507539834,
                    50.83914810878838
                ]
            }
        },
        {
            "type": "Feature",
            "properties": {
                "ref:csioz": 1060637,
                "name": "Brak Nazwy",
                "addr:street": "Jesienna",
                "addr:housenumber": "44",
                "addr:city": "Częstochowa",
                "addr:postcode": "42-208",
                "amenity": "pharmacy"
            },
            "geometry": {
                "type": "Point",
                "coordinates": [
                    19.144607826095324,
                    50.76990400924131
                ]
            }
        },
        {
            "type": "Feature",
            "properties": {
                "ref:csioz": 1060786,
                "name": "Brak Nazy",
                "addr:street": "Kazimierza Michałowskiego",
                "addr:housenumber": "17",
                "addr:city": "Częstochowa",
                "addr:postcode": "42-200",
                "amenity": "pharmacy"
            },
            "geometry": {
                "type": "Point",
                "coordinates": [
                    19.11887099669177,
                    50.84126979159237
                ]
            }
        },
        {
            "type": "Feature",
            "properties": {
                "ref:csioz": 1060793,
                "name": "Brak Nazwy",
                "addr:street": "Mireckiego",
                "addr:housenumber": "29 A",
                "addr:city": "Częstochowa",
                "addr:postcode": "42-200",
                "amenity": "pharmacy"
            },
            "geometry": {
                "type": "Point",
                "coordinates": [
                    19.15243880056165,
                    50.77758049103378
                ]
            }
        },
        {
            "type": "Feature",
            "properties": {
                "ref:csioz": 1060817,
                "name": "Brak Nazwy",
                "addr:street": "Mirowska",
                "addr:housenumber": "9",
                "addr:city": "Częstochowa",
                "addr:postcode": "42-200",
                "amenity": "pharmacy"
            },
            "geometry": {
                "type": "Point",
                "coordinates": [
                    19.13171137082948,
                    50.811766203948764
                ]
            }
        },
        {
            "type": "Feature",
            "properties": {
                "ref:csioz": 1060825,
                "name": "Brak Nazwy",
                "addr:street": "Ignacego Mościckiego",
                "addr:housenumber": "7",
                "addr:city": "Częstochowa",
                "addr:postcode": "42-200",
                "amenity": "pharmacy"
            },
            "geometry": {
                "type": "Point",
                "coordinates": [
                    19.097929940955243,
                    50.82038635415713
                ]
            }
        },
        {
            "type": "Feature",
            "properties": {
                "ref:csioz": 1060830,
                "name": "Osiedlowa",
                "addr:street": "Aleja Niepodległości",
                "addr:housenumber": "27",
                "addr:city": "Częstochowa",
                "addr:postcode": "42-216",
                "amenity": "pharmacy"
            },
            "geometry": {
                "type": "Point",
                "coordinates": [
                    19.132819055350808,
                    50.790107187921926
                ]
            }
        },
        {
            "type": "Feature",
            "properties": {
                "ref:csioz": 1060858,
                "name": "Apteka Od Serca",
                "addr:street": "Norwida",
                "addr:housenumber": "11",
                "addr:city": "Częstochowa",
                "addr:postcode": "42-200",
                "amenity": "pharmacy"
            },
            "geometry": {
                "type": "Point",
                "coordinates": [
                    19.163356000000043,
                    50.839046000013724
                ]
            }
        },
        {
            "type": "Feature",
            "properties": {
                "ref:csioz": 1060874,
                "name": "Peonia",
                "addr:street": "Obrońców Poczty Gdańskiej",
                "addr:housenumber": "8",
                "addr:city": "Częstochowa",
                "addr:postcode": "42-200",
                "amenity": "pharmacy"
            },
            "geometry": {
                "type": "Point",
                "coordinates": [
                    19.107729632247676,
                    50.8314214357214
                ]
            }
        },
        {
            "type": "Feature",
            "properties": {
                "ref:csioz": 1060882,
                "name": "Brak Nazwy",
                "addr:street": "Obrońców Westerplatte",
                "addr:housenumber": "21",
                "addr:city": "Częstochowa",
                "addr:postcode": "42-200",
                "amenity": "pharmacy"
            },
            "geometry": {
                "type": "Point",
                "coordinates": [
                    19.113354621529748,
                    50.83234315366631
                ]
            }
        },
        {
            "type": "Feature",
            "properties": {
                "ref:csioz": 1061019,
                "name": "Fides",
                "addr:street": "Aleja Pokoju",
                "addr:housenumber": "10",
                "addr:city": "Częstochowa",
                "addr:postcode": "42-200",
                "amenity": "pharmacy"
            },
            "geometry": {
                "type": "Point",
                "coordinates": [
                    19.148999717209094,
                    50.78625930883515
                ]
            }
        },
        {
            "type": "Feature",
            "properties": {
                "ref:csioz": 1061024,
                "name": "Fides",
                "addr:street": "Aleja Pokoju",
                "addr:housenumber": "5",
                "addr:city": "Częstochowa",
                "addr:postcode": "42-200",
                "amenity": "pharmacy"
            },
            "geometry": {
                "type": "Point",
                "coordinates": [
                    19.14601051414587,
                    50.78577033730958
                ]
            }
        },
        {
            "type": "Feature",
            "properties": {
                "ref:csioz": 1061035,
                "name": "Słoneczna",
                "addr:street": "gen. Ignacego Prądzyńskiego",
                "addr:housenumber": "1",
                "addr:city": "Częstochowa",
                "addr:postcode": "42-202",
                "amenity": "pharmacy"
            },
            "geometry": {
                "type": "Point",
                "coordinates": [
                    19.11879491842875,
                    50.821658576268355
                ]
            }
        },
        {
            "type": "Feature",
            "properties": {
                "ref:csioz": 1061043,
                "name": "Apteka 7",
                "addr:street": "Prusa",
                "addr:housenumber": "4",
                "addr:city": "Częstochowa",
                "addr:postcode": "42-200",
                "amenity": "pharmacy"
            },
            "geometry": {
                "type": "Point",
                "coordinates": [
                    19.150041448008245,
                    50.783868592906856
                ]
            }
        },
        {
            "type": "Feature",
            "properties": {
                "ref:csioz": 1061056,
                "name": "Brak Nazwy",
                "addr:street": "Kazimierza Pużaka",
                "addr:housenumber": "5",
                "addr:city": "Częstochowa",
                "addr:postcode": "42-200",
                "amenity": "pharmacy"
            },
            "geometry": {
                "type": "Point",
                "coordinates": [
                    19.13535278014428,
                    50.83973194191792
                ]
            }
        },
        {
            "type": "Feature",
            "properties": {
                "ref:csioz": 1061070,
                "name": "Brak Nazwy",
                "addr:street": "św. Rocha",
                "addr:housenumber": "7",
                "addr:city": "Częstochowa",
                "addr:postcode": "42-200",
                "amenity": "pharmacy"
            },
            "geometry": {
                "type": "Point",
                "coordinates": [
                    19.09303028870334,
                    50.81676876204709
                ]
            }
        },
        {
            "type": "Feature",
            "properties": {
                "ref:csioz": 1061081,
                "name": "Brak Nazwy",
                "addr:street": "Sabinowska",
                "addr:housenumber": "112",
                "addr:city": "Częstochowa",
                "addr:postcode": "42-200",
                "amenity": "pharmacy"
            },
            "geometry": {
                "type": "Point",
                "coordinates": [
                    19.098293581432547,
                    50.78088496477477
                ]
            }
        },
        {
            "type": "Feature",
            "properties": {
                "ref:csioz": 1061100,
                "name": "Pulsatilla",
                "addr:street": "Sejmowa",
                "addr:housenumber": "28",
                "addr:city": "Częstochowa",
                "addr:postcode": "42-200",
                "amenity": "pharmacy"
            },
            "geometry": {
                "type": "Point",
                "coordinates": [
                    19.10285067346508,
                    50.849705577852774
                ]
            }
        },
        {
            "type": "Feature",
            "properties": {
                "ref:csioz": 1061145,
                "name": "Jana",
                "addr:street": "Barbary św.",
                "addr:housenumber": "73",
                "addr:city": "Częstochowa",
                "addr:postcode": "42-226",
                "amenity": "pharmacy"
            },
            "geometry": {
                "type": "Point",
                "coordinates": [
                    19.091433019015962,
                    50.80398119812244
                ]
            }
        },
        {
            "type": "Feature",
            "properties": {
                "ref:csioz": 1061159,
                "name": "4 Pory Roku",
                "addr:street": "Warszawska",
                "addr:housenumber": "2",
                "addr:city": "Częstochowa",
                "addr:postcode": "42-200",
                "amenity": "pharmacy"
            },
            "geometry": {
                "type": "Point",
                "coordinates": [
                    19.128592000000044,
                    50.812822000013654
                ]
            }
        },
        {
            "type": "Feature",
            "properties": {
                "ref:csioz": 1061184,
                "name": "Brak Nazwy",
                "addr:street": "Wieluńska",
                "addr:housenumber": "18",
                "addr:city": "Częstochowa",
                "addr:postcode": "42-200",
                "amenity": "pharmacy"
            },
            "geometry": {
                "type": "Point",
                "coordinates": [
                    19.098254173976628,
                    50.815580013671685
                ]
            }
        },
        {
            "type": "Feature",
            "properties": {
                "ref:csioz": 1061231,
                "name": "Wrzosowa",
                "addr:street": "Aleja Wolności",
                "addr:housenumber": "46",
                "addr:city": "Częstochowa",
                "addr:postcode": "42-200",
                "amenity": "pharmacy"
            },
            "geometry": {
                "type": "Point",
                "coordinates": [
                    19.117199753447686,
                    50.80424774397222
                ]
            }
        },
        {
            "type": "Feature",
            "properties": {
                "ref:csioz": 1061253,
                "name": "Brak Nazwy",
                "addr:street": "Wręczycka",
                "addr:housenumber": "29",
                "addr:city": "Częstochowa",
                "addr:postcode": "42-202",
                "amenity": "pharmacy"
            },
            "geometry": {
                "type": "Point",
                "coordinates": [
                    19.07839707332349,
                    50.821782929782934
                ]
            }
        },
        {
            "type": "Feature",
            "properties": {
                "ref:csioz": 1061266,
                "name": "Magnolia",
                "addr:street": "Wręczycka",
                "addr:housenumber": "88",
                "addr:city": "Częstochowa",
                "addr:postcode": "42-200",
                "amenity": "pharmacy"
            },
            "geometry": {
                "type": "Point",
                "coordinates": [
                    19.06977311721964,
                    50.8213732558624
                ]
            }
        },
        {
            "type": "Feature",
            "properties": {
                "ref:csioz": 1074114,
                "name": "Spzoz- Wojewódzki Szpital Specjalistyczny Im Nmp",
                "addr:street": "Bialska",
                "addr:housenumber": "104",
                "addr:city": "Częstochowa",
                "addr:postcode": "42-200",
                "amenity": "pharmacy"
            },
            "geometry": {
                "type": "Point",
                "coordinates": [
                    19.08917200000003,
                    50.82965200001371
                ]
            }
        },
        {
            "type": "Feature",
            "properties": {
                "ref:csioz": 1074123,
                "name": "Miejski Szpital Zespolony",
                "addr:street": "Mirowska",
                "addr:housenumber": "15",
                "addr:city": "Częstochowa",
                "addr:postcode": "42-200",
                "amenity": "pharmacy"
            },
            "geometry": {
                "type": "Point",
                "coordinates": [
                    19.133279480311042,
                    50.81189500546005
                ]
            }
        },
        {
            "type": "Feature",
            "properties": {
                "ref:csioz": 1112624,
                "name": "\"Szpital Centrum Medyczne \"\"Suliga\"\"\"",
                "addr:street": "Meliorantów",
                "addr:housenumber": "3",
                "addr:city": "Częstochowa",
                "addr:postcode": "42-209",
                "amenity": "pharmacy"
            },
            "geometry": {
                "type": "Point",
                "coordinates": [
                    19.167662806603797,
                    50.85812943977216
                ]
            }
        },
        {
            "type": "Feature",
            "properties": {
                "ref:csioz": 1112991,
                "name": "\"Niepubliczny Zakład Pielęgniarsko-Opiekuńczy \"\"Z Ufnością W Trzecie Tysiąclecie\"\"\"",
                "addr:street": "Michałowskiego",
                "addr:housenumber": "30",
                "addr:city": "Częstochowa",
                "addr:postcode": "42-200",
                "amenity": "pharmacy"
            },
            "geometry": {
                "type": "Point",
                "coordinates": [
                    19.12401401113945,
                    50.84401532319602
                ]
            }
        },
        {
            "type": "Feature",
            "properties": {
                "ref:csioz": 1115861,
                "name": "\"Zakład Opieki Paliatywnej 'Palium'\"",
                "addr:street": "Krakowska",
                "addr:housenumber": "45a",
                "addr:city": "Częstochowa",
                "addr:postcode": "42-202",
                "amenity": "pharmacy"
            },
            "geometry": {
                "type": "Point",
                "coordinates": [
                    19.131436650689917,
                    50.80354908878017
                ]
            }
        },
        {
            "type": "Feature",
            "properties": {
                "ref:csioz": 1121894,
                "name": "Dr. Max",
                "addr:street": "Gajowa",
                "addr:housenumber": "17",
                "addr:city": "Częstochowa",
                "addr:postcode": "42-229",
                "amenity": "pharmacy"
            },
            "geometry": {
                "type": "Point",
                "coordinates": [
                    19.13620499947851,
                    50.78110222512571
                ]
            }
        },
        {
            "type": "Feature",
            "properties": {
                "ref:csioz": 1165924,
                "name": "Pistacjowa",
                "addr:street": "Dekabrystów",
                "addr:housenumber": "9",
                "addr:city": "Częstochowa",
                "addr:postcode": "42-218",
                "amenity": "pharmacy"
            },
            "geometry": {
                "type": "Point",
                "coordinates": [
                    19.108934000000033,
                    50.825000000013695
                ]
            }
        },
        {
            "type": "Feature",
            "properties": {
                "ref:csioz": 1174256,
                "name": "Apteka Zdrowit",
                "addr:street": "Inwalidów Wojennych",
                "addr:housenumber": "3",
                "addr:city": "Częstochowa",
                "addr:postcode": "42-200",
                "amenity": "pharmacy"
            },
            "geometry": {
                "type": "Point",
                "coordinates": [
                    19.119282933256887,
                    50.832434324366815
                ]
            }
        },
        {
            "type": "Feature",
            "properties": {
                "ref:csioz": 1176165,
                "name": "Apteka Św. Rocha",
                "addr:street": "Radomska",
                "addr:housenumber": "4",
                "addr:city": "Częstochowa",
                "addr:postcode": "42-200",
                "amenity": "pharmacy"
            },
            "geometry": {
                "type": "Point",
                "coordinates": [
                    19.06798862553864,
                    50.83021706153758
                ]
            }
        },
        {
            "type": "Feature",
            "properties": {
                "ref:csioz": 1176351,
                "name": "Koralowa",
                "addr:street": "Warszawska",
                "addr:housenumber": "360",
                "addr:city": "Częstochowa",
                "addr:postcode": "42-209",
                "amenity": "pharmacy"
            },
            "geometry": {
                "type": "Point",
                "coordinates": [
                    19.15615728426259,
                    50.83711873030308
                ]
            }
        },
        {
            "type": "Feature",
            "properties": {
                "ref:csioz": 1176704,
                "name": "Kolorowa Apteka",
                "addr:street": "św. Rocha",
                "addr:housenumber": "250",
                "addr:city": "Częstochowa",
                "addr:postcode": "42-221",
                "amenity": "pharmacy"
            },
            "geometry": {
                "type": "Point",
                "coordinates": [
                    19.06103250403349,
                    50.83672287604594
                ]
            }
        },
        {
            "type": "Feature",
            "properties": {
                "ref:csioz": 1177328,
                "name": "Apteka Corax",
                "addr:street": "Okólna",
                "addr:housenumber": "113a",
                "addr:city": "Częstochowa",
                "addr:postcode": "42-200",
                "amenity": "pharmacy"
            },
            "geometry": {
                "type": "Point",
                "coordinates": [
                    19.10669031199657,
                    50.827355322091755
                ]
            }
        },
        {
            "type": "Feature",
            "properties": {
                "ref:csioz": 1180128,
                "name": "Poziomkowa",
                "addr:street": "Zapolskiej",
                "addr:housenumber": "7",
                "addr:city": "Częstochowa",
                "addr:postcode": "42-200",
                "amenity": "pharmacy"
            },
            "geometry": {
                "type": "Point",
                "coordinates": [
                    19.121104864241776,
                    50.83053850930721
                ]
            }
        },
        {
            "type": "Feature",
            "properties": {
                "ref:csioz": 1192835,
                "name": "Apteka Przy Rondzie",
                "addr:street": "Aleja Wolności",
                "addr:housenumber": "68",
                "addr:city": "Częstochowa",
                "addr:postcode": "42-200",
                "amenity": "pharmacy"
            },
            "geometry": {
                "type": "Point",
                "coordinates": [
                    19.117545641094544,
                    50.80138121806864
                ]
            }
        },
        {
            "type": "Feature",
            "properties": {
                "ref:csioz": 1193147,
                "name": "Ziko Apteka",
                "addr:street": "Aleja Wolności",
                "addr:housenumber": "4",
                "addr:city": "Częstochowa",
                "addr:postcode": "42-217",
                "amenity": "pharmacy"
            },
            "geometry": {
                "type": "Point",
                "coordinates": [
                    19.117943119544254,
                    50.810926661433655
                ]
            }
        },
        {
            "type": "Feature",
            "properties": {
                "ref:csioz": 1203985,
                "name": "Alfamedica - Lecznictwo Ambulatoryjne",
                "addr:street": "Kilińskiego",
                "addr:housenumber": "166",
                "addr:city": "Częstochowa",
                "addr:postcode": "42-218",
                "amenity": "pharmacy"
            },
            "geometry": {
                "type": "Point",
                "coordinates": [
                    19.110945319860278,
                    50.82862574683739
                ]
            }
        },
        {
            "type": "Feature",
            "properties": {
                "ref:csioz": 1057306,
                "name": "\"Szpital Niepubliczny Zakład Opieki Zdrowotnej Polskiej Grupy Medycznej Im. Polonii Świata, Częstochowskie Centrum Kardiologii\"",
                "addr:street": "Mickiewicza",
                "addr:housenumber": "12",
                "addr:city": "Częstochowa",
                "addr:postcode": "42-200",
                "amenity": "pharmacy"
            },
            "geometry": {
                "type": "Point",
                "coordinates": [
                    19.115035731464687,
                    50.80119009957798
                ]
            }
        },
        {
            "type": "Feature",
            "properties": {
                "ref:csioz": 1060283,
                "name": "Pod Klasztorem",
                "addr:street": "7 Kamienic",
                "addr:housenumber": "27",
                "addr:city": "Częstochowa",
                "addr:postcode": "42-226",
                "amenity": "pharmacy"
            },
            "geometry": {
                "type": "Point",
                "coordinates": [
                    19.09763822687937,
                    50.81031664477042
                ]
            }
        },
        {
            "type": "Feature",
            "properties": {
                "ref:csioz": 1060344,
                "name": "Zielona",
                "addr:street": "Aleja Najświętszej Maryi Panny",
                "addr:housenumber": "16",
                "addr:city": "Częstochowa",
                "addr:postcode": "42-200",
                "amenity": "pharmacy"
            },
            "geometry": {
                "type": "Point",
                "coordinates": [
                    19.120617338975528,
                    50.81210920105349
                ]
            }
        },
        {
            "type": "Feature",
            "properties": {
                "ref:csioz": 1060353,
                "name": "Apteka Dbam O Zdrowie",
                "addr:street": "Aleja Najświętszej Maryi Panny",
                "addr:housenumber": "2",
                "addr:city": "Częstochowa",
                "addr:postcode": "42-200",
                "amenity": "pharmacy"
            },
            "geometry": {
                "type": "Point",
                "coordinates": [
                    19.12523171996195,
                    50.81199565061569
                ]
            }
        },
        {
            "type": "Feature",
            "properties": {
                "ref:csioz": 1060504,
                "name": "Nasza",
                "addr:street": "Jana Henryka Dąbrowskiego",
                "addr:housenumber": "40",
                "addr:city": "Częstochowa",
                "addr:postcode": "42-200",
                "amenity": "pharmacy"
            },
            "geometry": {
                "type": "Point",
                "coordinates": [
                    19.11292991385341,
                    50.81842371268529
                ]
            }
        },
        {
            "type": "Feature",
            "properties": {
                "ref:csioz": 1060520,
                "name": "Galen",
                "addr:street": "Drogowców",
                "addr:housenumber": "43",
                "addr:city": "Częstochowa",
                "addr:postcode": "42-200",
                "amenity": "pharmacy"
            },
            "geometry": {
                "type": "Point",
                "coordinates": [
                    19.145103001388613,
                    50.82378879899284
                ]
            }
        },
        {
            "type": "Feature",
            "properties": {
                "ref:csioz": 1060548,
                "name": "Św. Łukasza",
                "addr:street": "Ferdynanda Focha",
                "addr:housenumber": "4",
                "addr:city": "Częstochowa",
                "addr:postcode": "42-200",
                "amenity": "pharmacy"
            },
            "geometry": {
                "type": "Point",
                "coordinates": [
                    19.11718600000003,
                    50.80722000001367
                ]
            }
        },
        {
            "type": "Feature",
            "properties": {
                "ref:csioz": 1060557,
                "name": "Św. Łukasza",
                "addr:street": "Ferdynanda Focha",
                "addr:housenumber": "4",
                "addr:city": "Częstochowa",
                "addr:postcode": "42-217",
                "amenity": "pharmacy"
            },
            "geometry": {
                "type": "Point",
                "coordinates": [
                    19.11718600000003,
                    50.80722000001367
                ]
            }
        },
        {
            "type": "Feature",
            "properties": {
                "ref:csioz": 1060668,
                "name": "Złota",
                "addr:street": "Kilińskiego",
                "addr:housenumber": "2",
                "addr:city": "Częstochowa",
                "addr:postcode": "42-200",
                "amenity": "pharmacy"
            },
            "geometry": {
                "type": "Point",
                "coordinates": [
                    19.114189000000025,
                    50.81237800001367
                ]
            }
        },
        {
            "type": "Feature",
            "properties": {
                "ref:csioz": 1060676,
                "name": "Dr Zdrowie",
                "addr:street": "Kisielewskiego",
                "addr:housenumber": "8",
                "addr:city": "Częstochowa",
                "addr:postcode": "42-200",
                "amenity": "pharmacy"
            },
            "geometry": {
                "type": "Point",
                "coordinates": [
                    19.116318000000035,
                    50.837357000013704
                ]
            }
        },
        {
            "type": "Feature",
            "properties": {
                "ref:csioz": 1060684,
                "name": "Brak Nazwy",
                "addr:street": "Konarskiego",
                "addr:housenumber": "2",
                "addr:city": "Częstochowa",
                "addr:postcode": "42-200",
                "amenity": "pharmacy"
            },
            "geometry": {
                "type": "Point",
                "coordinates": [
                    19.160119000000048,
                    50.83942300001372
                ]
            }
        },
        {
            "type": "Feature",
            "properties": {
                "ref:csioz": 1060692,
                "name": "Apteka W Przychodni",
                "addr:street": "Kopalniana",
                "addr:housenumber": "4",
                "addr:city": "Częstochowa",
                "addr:postcode": "42-271",
                "amenity": "pharmacy"
            },
            "geometry": {
                "type": "Point",
                "coordinates": [
                    19.055733705209462,
                    50.76337243302428
                ]
            }
        },
        {
            "type": "Feature",
            "properties": {
                "ref:csioz": 1060710,
                "name": "Nowa Farmacja",
                "addr:street": "Kopernika",
                "addr:housenumber": "45",
                "addr:city": "Częstochowa",
                "addr:postcode": "42-217",
                "amenity": "pharmacy"
            },
            "geometry": {
                "type": "Point",
                "coordinates": [
                    19.109381992138196,
                    50.80820649232596
                ]
            }
        },
        {
            "type": "Feature",
            "properties": {
                "ref:csioz": 1060729,
                "name": "Turkusowa",
                "addr:street": "Kordeckiego",
                "addr:housenumber": "11",
                "addr:city": "Częstochowa",
                "addr:postcode": "42-200",
                "amenity": "pharmacy"
            },
            "geometry": {
                "type": "Point",
                "coordinates": [
                    19.093913067429895,
                    50.8099445580628
                ]
            }
        },
        {
            "type": "Feature",
            "properties": {
                "ref:csioz": 1060732,
                "name": "Św. Wincentego",
                "addr:street": "Kordeckiego",
                "addr:housenumber": "49",
                "addr:city": "Częstochowa",
                "addr:postcode": "42-200",
                "amenity": "pharmacy"
            },
            "geometry": {
                "type": "Point",
                "coordinates": [
                    19.086778193978258,
                    50.80800138992353
                ]
            }
        },
        {
            "type": "Feature",
            "properties": {
                "ref:csioz": 1060911,
                "name": "Pod Wagą",
                "addr:street": "Olsztyńska",
                "addr:housenumber": "68",
                "addr:city": "Częstochowa",
                "addr:postcode": "42-200",
                "amenity": "pharmacy"
            },
            "geometry": {
                "type": "Point",
                "coordinates": [
                    19.139059524165084,
                    50.80594821362746
                ]
            }
        },
        {
            "type": "Feature",
            "properties": {
                "ref:csioz": 1060922,
                "name": "Brak Nazwy",
                "addr:street": "Orkana",
                "addr:housenumber": "61/67A",
                "addr:city": "Częstochowa",
                "addr:postcode": "42-200",
                "amenity": "pharmacy"
            },
            "geometry": {
                "type": "Point",
                "coordinates": [
                    19.133088402925924,
                    50.77731778515252
                ]
            }
        },
        {
            "type": "Feature",
            "properties": {
                "ref:csioz": 1060933,
                "name": "Brak Nazwy",
                "addr:street": "Orkana",
                "addr:housenumber": "93",
                "addr:city": "Częstochowa",
                "addr:postcode": "42-229",
                "amenity": "pharmacy"
            },
            "geometry": {
                "type": "Point",
                "coordinates": [
                    19.132208092095127,
                    50.77888327222797
                ]
            }
        },
        {
            "type": "Feature",
            "properties": {
                "ref:csioz": 1060954,
                "name": "Biovita",
                "addr:street": "Orzechowa",
                "addr:housenumber": "14 A",
                "addr:city": "Częstochowa",
                "addr:postcode": "42-280",
                "amenity": "pharmacy"
            },
            "geometry": {
                "type": "Point",
                "coordinates": [
                    19.04041715530747,
                    50.794538342449655
                ]
            }
        },
        {
            "type": "Feature",
            "properties": {
                "ref:csioz": 1060965,
                "name": "Brak Nazwy",
                "addr:street": "Ossowskiego",
                "addr:housenumber": "12",
                "addr:city": "Częstochowa",
                "addr:postcode": "42-207",
                "amenity": "pharmacy"
            },
            "geometry": {
                "type": "Point",
                "coordinates": [
                    19.145892000000043,
                    50.78367600001363
                ]
            }
        },
        {
            "type": "Feature",
            "properties": {
                "ref:csioz": 1060987,
                "name": "Oliwkowa",
                "addr:street": "Piastowska",
                "addr:housenumber": "80/82",
                "addr:city": "Częstochowa",
                "addr:postcode": "42-200",
                "amenity": "pharmacy"
            },
            "geometry": {
                "type": "Point",
                "coordinates": [
                    19.105082745129714,
                    50.79583879237276
                ]
            }
        },
        {
            "type": "Feature",
            "properties": {
                "ref:csioz": 1110902,
                "addr:street": "Mehoffera",
                "addr:housenumber": "61",
                "addr:city": "Częstochowa",
                "addr:postcode": "42-202",
                "amenity": "pharmacy"
            },
            "geometry": {
                "type": "Point",
                "coordinates": [
                    19.085515548213614,
                    50.78847593603095
                ]
            }
        },
        {
            "type": "Feature",
            "properties": {
                "ref:csioz": 1112761,
                "name": "Combi-Med Chirurgia Krótkoterminowa",
                "addr:street": "Dekabrystów",
                "addr:housenumber": "17",
                "addr:city": "Częstochowa",
                "addr:postcode": "42-218",
                "amenity": "pharmacy"
            },
            "geometry": {
                "type": "Point",
                "coordinates": [
                    19.11067300000003,
                    50.82535400001368
                ]
            }
        },
        {
            "type": "Feature",
            "properties": {
                "ref:csioz": 1115523,
                "name": "Centrum Medyczne Klara - Szpital",
                "addr:street": "Wały Dwernickiego",
                "addr:housenumber": "43/45",
                "addr:city": "Częstochowa",
                "addr:postcode": "42-202",
                "amenity": "pharmacy"
            },
            "geometry": {
                "type": "Point",
                "coordinates": [
                    19.121675924029795,
                    50.81702090851904
                ]
            }
        },
        {
            "type": "Feature",
            "properties": {
                "ref:csioz": 1119416,
                "name": "Apteka Nowa Farmacja W Centrum Medycznym Klara",
                "addr:street": "Wały Dwernickiego",
                "addr:housenumber": "43",
                "addr:city": "Częstochowa",
                "addr:postcode": "42-202",
                "amenity": "pharmacy"
            },
            "geometry": {
                "type": "Point",
                "coordinates": [
                    19.12164000000004,
                    50.816937000013674
                ]
            }
        },
        {
            "type": "Feature",
            "properties": {
                "ref:csioz": 1120512,
                "name": "Euro-Apteka",
                "addr:street": "Okulickiego",
                "addr:housenumber": "52",
                "addr:city": "Częstochowa",
                "addr:postcode": "42-218",
                "amenity": "pharmacy"
            },
            "geometry": {
                "type": "Point",
                "coordinates": [
                    19.09870640909723,
                    50.82469200411247
                ]
            }
        },
        {
            "type": "Feature",
            "properties": {
                "ref:csioz": 1120520,
                "name": "Apteka W Dźbowie",
                "addr:street": "Plac Walecznych",
                "addr:housenumber": "1",
                "addr:city": "Częstochowa",
                "addr:postcode": "42-271",
                "amenity": "pharmacy"
            },
            "geometry": {
                "type": "Point",
                "coordinates": [
                    19.059096824660028,
                    50.76203862014073
                ]
            }
        },
        {
            "type": "Feature",
            "properties": {
                "ref:csioz": 1122495,
                "name": "Apteka Nowa Farmacja Plus",
                "addr:street": "Aleja Najświętszej Maryi Panny",
                "addr:housenumber": "11",
                "addr:city": "Częstochowa",
                "addr:postcode": "42-200",
                "amenity": "pharmacy"
            },
            "geometry": {
                "type": "Point",
                "coordinates": [
                    19.12320770492824,
                    50.81162408041595
                ]
            }
        },
        {
            "type": "Feature",
            "properties": {
                "ref:csioz": 1122581,
                "name": "Ośrodek Rehabilitacyjno-Wychowawczy Dla Młodzieży Uzależnionej",
                "addr:street": "Rejtana",
                "addr:housenumber": "7B",
                "addr:city": "Częstochowa",
                "addr:postcode": "42-200",
                "amenity": "pharmacy"
            },
            "geometry": {
                "type": "Point",
                "coordinates": [
                    19.133728670615877,
                    50.79692735711167
                ]
            }
        },
        {
            "type": "Feature",
            "properties": {
                "ref:csioz": 1173518,
                "name": "Apteka Na Kucelinie",
                "addr:street": "Aleja Pokoju",
                "addr:housenumber": "44",
                "addr:city": "Częstochowa",
                "addr:postcode": "42-200",
                "amenity": "pharmacy"
            },
            "geometry": {
                "type": "Point",
                "coordinates": [
                    19.172612433848805,
                    50.789419858154346
                ]
            }
        },
        {
            "type": "Feature",
            "properties": {
                "ref:csioz": 1177315,
                "name": "Apteka Główna",
                "addr:street": "Aleja Wolności",
                "addr:housenumber": "10",
                "addr:city": "Częstochowa",
                "addr:postcode": "42-217",
                "amenity": "pharmacy"
            },
            "geometry": {
                "type": "Point",
                "coordinates": [
                    19.117959089019973,
                    50.810329556573514
                ]
            }
        },
        {
            "type": "Feature",
            "properties": {
                "ref:csioz": 1185895,
                "name": "Limonkowa",
                "addr:street": "Aleja Wyzwolenia",
                "addr:housenumber": "7",
                "addr:city": "Częstochowa",
                "addr:postcode": "42-224",
                "amenity": "pharmacy"
            },
            "geometry": {
                "type": "Point",
                "coordinates": [
                    19.126514236356368,
                    50.839131744525496
                ]
            }
        },
        {
            "type": "Feature",
            "properties": {
                "ref:csioz": 1189234,
                "addr:street": "Wielkoborska",
                "addr:housenumber": "37",
                "addr:city": "Częstochowa",
                "addr:postcode": "42-202",
                "amenity": "pharmacy"
            },
            "geometry": {
                "type": "Point",
                "coordinates": [
                    19.054920000000013,
                    50.819071000013686
                ]
            }
        },
        {
            "type": "Feature",
            "properties": {
                "ref:csioz": 1199458,
                "name": "Apteka Prima",
                "addr:street": "Aleja Najświętszej Maryi Panny",
                "addr:housenumber": "50",
                "addr:city": "Częstochowa",
                "addr:postcode": "42-217",
                "amenity": "pharmacy"
            },
            "geometry": {
                "type": "Point",
                "coordinates": [
                    19.111221874217996,
                    50.81228627811529
                ]
            }
        },
        {
            "type": "Feature",
            "properties": {
                "ref:csioz": 1200215,
                "name": "-",
                "addr:street": "Aleja Niepodległości",
                "addr:housenumber": "32",
                "addr:city": "Częstochowa",
                "addr:postcode": "42-216",
                "amenity": "pharmacy"
            },
            "geometry": {
                "type": "Point",
                "coordinates": [
                    19.13644706046748,
                    50.78689320502628
                ]
            }
        },
        {
            "type": "Feature",
            "properties": {
                "ref:csioz": 1204223,
                "name": "Niezapominajka Dla Całej Rodziny",
                "addr:street": "Aleja Pokoju",
                "addr:housenumber": "7",
                "addr:city": "Częstochowa",
                "addr:postcode": "42-207",
                "amenity": "pharmacy"
            },
            "geometry": {
                "type": "Point",
                "coordinates": [
                    19.147046403915738,
                    50.786119675894035
                ]
            }
        },
        {
            "type": "Feature",
            "properties": {
                "ref:csioz": 1206181,
                "name": "Prima",
                "addr:street": "Aleja Armii Krajowej",
                "addr:housenumber": "64",
                "addr:city": "Częstochowa",
                "addr:postcode": "42-200",
                "amenity": "pharmacy"
            },
            "geometry": {
                "type": "Point",
                "coordinates": [
                    19.116899597466677,
                    50.82710664383979
                ]
            }
        },
        {
            "type": "Feature",
            "properties": {
                "ref:csioz": 1206197,
                "name": "Kolorowa Apteka",
                "addr:street": "Księżycowa",
                "addr:housenumber": "5",
                "addr:city": "Częstochowa",
                "addr:postcode": "42-216",
                "amenity": "pharmacy"
            },
            "geometry": {
                "type": "Point",
                "coordinates": [
                    19.121205570409497,
                    50.82431946391745
                ]
            }
        },
        {
            "type": "Feature",
            "properties": {
                "ref:csioz": 1206064,
                "name": "Apteka Św.Floriana",
                "addr:street": "Łukasińskiego",
                "addr:housenumber": "37",
                "addr:city": "Częstochowa",
                "addr:postcode": "42-207",
                "amenity": "pharmacy"
            },
            "geometry": {
                "type": "Point",
                "coordinates": [
                    19.154387931534863,
                    50.784733765286354
                ]
            }
        },
        {
            "type": "Feature",
            "properties": {
                "ref:csioz": 1208305,
                "name": "Apteka Corax",
                "addr:street": "Dekabrystów",
                "addr:housenumber": "17/19",
                "addr:city": "Częstochowa",
                "addr:postcode": "42-200",
                "amenity": "pharmacy"
            },
            "geometry": {
                "type": "Point",
                "coordinates": [
                    19.110872224470935,
                    50.825360751671646
                ]
            }
        },
        {
            "type": "Feature",
            "properties": {
                "ref:csioz": 1208686,
                "name": "Nasza",
                "addr:street": "Kilińskiego",
                "addr:housenumber": "72/74",
                "addr:city": "Częstochowa",
                "addr:postcode": "42-218",
                "amenity": "pharmacy"
            },
            "geometry": {
                "type": "Point",
                "coordinates": [
                    19.114449598790472,
                    50.819444339352046
                ]
            }
        },
        {
            "type": "Feature",
            "properties": {
                "ref:csioz": 1211704,
                "name": "Kolorowa Apteka",
                "addr:street": "dr. Orłowskiego",
                "addr:housenumber": "3",
                "addr:city": "Częstochowa",
                "addr:postcode": "42-280",
                "amenity": "pharmacy"
            },
            "geometry": {
                "type": "Point",
                "coordinates": [
                    19.039867463571458,
                    50.796281411280404
                ]
            }
        },
        {
            "type": "Feature",
            "properties": {
                "ref:csioz": 1214023,
                "name": "Niezapominajka Dla Całej Rodziny",
                "addr:street": "Dekabrystów",
                "addr:housenumber": "41b",
                "addr:city": "Częstochowa",
                "addr:postcode": "42-215",
                "amenity": "pharmacy"
            },
            "geometry": {
                "type": "Point",
                "coordinates": [
                    19.117278012252402,
                    50.82638083687542
                ]
            }
        },
        {
            "type": "Feature",
            "properties": {
                "ref:csioz": 1215632,
                "name": "Apteka Zdrowit +",
                "addr:street": "Jagiellońska",
                "addr:housenumber": "1",
                "addr:city": "Częstochowa",
                "addr:postcode": "42-216",
                "amenity": "pharmacy"
            },
            "geometry": {
                "type": "Point",
                "coordinates": [
                    19.141055849454396,
                    50.7829947042502
                ]
            }
        },
        {
            "type": "Feature",
            "properties": {
                "ref:csioz": 1216293,
                "name": "Apteka Gemini",
                "addr:street": "Aleja Najświętszej Maryi Panny",
                "addr:housenumber": "18",
                "addr:city": "Częstochowa",
                "addr:postcode": "42-220",
                "amenity": "pharmacy"
            },
            "geometry": {
                "type": "Point",
                "coordinates": [
                    19.120101003729406,
                    50.81211065392318
                ]
            }
        },
        {
            "type": "Feature",
            "properties": {
                "ref:csioz": 1218242,
                "name": "Apteka Zdrowit +",
                "addr:street": "Sosabowskiego",
                "addr:housenumber": "21",
                "addr:city": "Częstochowa",
                "addr:postcode": "42-224",
                "amenity": "pharmacy"
            },
            "geometry": {
                "type": "Point",
                "coordinates": [
                    19.128396761032548,
                    50.845059217773404
                ]
            }
        },
        {
            "type": "Feature",
            "properties": {
                "ref:csioz": 1218402,
                "name": "Super-Pharm Apteka",
                "addr:street": "Kościuszki",
                "addr:housenumber": "1",
                "addr:city": "Częstochowa",
                "addr:postcode": "42-200",
                "amenity": "pharmacy"
            },
            "geometry": {
                "type": "Point",
                "coordinates": [
                    19.118095767429068,
                    50.812898463493894
                ]
            }
        },
        {
            "type": "Feature",
            "properties": {
                "ref:csioz": 1218546,
                "name": "Miodowa",
                "addr:street": "Zana",
                "addr:housenumber": "6",
                "addr:city": "Częstochowa",
                "addr:postcode": "42-217",
                "amenity": "pharmacy"
            },
            "geometry": {
                "type": "Point",
                "coordinates": [
                    19.10671920118136,
                    50.80183550260152
                ]
            }
        },
        {
            "type": "Feature",
            "properties": {
                "ref:csioz": 1219164,
                "name": "Błękitna",
                "addr:street": "Wolności",
                "addr:housenumber": "34",
                "addr:city": "Częstochowa",
                "addr:postcode": "42-217",
                "amenity": "pharmacy"
            },
            "geometry": {
                "type": "Point",
                "coordinates": [
                    19.117782193569965,
                    50.806681216984494
                ]
            }
        },
        {
            "type": "Feature",
            "properties": {
                "ref:csioz": 1219688,
                "name": "Pawełczak Wiesław - Szpital",
                "addr:street": "Jaracza",
                "addr:housenumber": "4",
                "addr:city": "Częstochowa",
                "addr:postcode": "42-217",
                "amenity": "pharmacy"
            },
            "geometry": {
                "type": "Point",
                "coordinates": [
                    19.106379053357006,
                    50.80968828101246
                ]
            }
        },
        {
            "type": "Feature",
            "properties": {
                "ref:csioz": 1221563,
                "name": "Kolorowa Apteka Sezam",
                "addr:street": "Niepodległości",
                "addr:housenumber": "39A",
                "addr:city": "Częstochowa",
                "addr:postcode": "42-216",
                "amenity": "pharmacy"
            },
            "geometry": {
                "type": "Point",
                "coordinates": [
                    19.14100600000004,
                    50.78515200001362
                ]
            }
        },
        {
            "type": "Feature",
            "properties": {
                "ref:csioz": 1223716,
                "name": "Nzoz Provisus",
                "addr:street": "Rędzińska",
                "addr:housenumber": "112",
                "addr:city": "Częstochowa",
                "addr:postcode": "42-209",
                "amenity": "pharmacy"
            },
            "geometry": {
                "type": "Point",
                "coordinates": [
                    19.185240635257404,
                    50.845244301736656
                ]
            }
        },
        {
            "type": "Feature",
            "properties": {
                "ref:csioz": 1225366,
                "name": "Apteka Diamentowa",
                "addr:street": "Jagiellońska",
                "addr:housenumber": "3/9",
                "addr:city": "Częstochowa",
                "addr:postcode": "42-216",
                "amenity": "pharmacy"
            },
            "geometry": {
                "type": "Point",
                "coordinates": [
                    19.139786208600775,
                    50.78335018734876
                ]
            }
        },
        {
            "type": "Feature",
            "properties": {
                "ref:csioz": 1170434,
                "name": "\"Prywatne Centrum Medyczne \"\"Medyk-Centrum\"\" Jan Bińczyk Szpital\"",
                "addr:street": "Aleja Wolności",
                "addr:housenumber": "34",
                "addr:city": "Częstochowa",
                "addr:postcode": "42-200",
                "amenity": "pharmacy"
            },
            "geometry": {
                "type": "Point",
                "coordinates": [
                    19.117782193569965,
                    50.806681216984494
                ]
            }
        },
        {
            "type": "Feature",
            "properties": {
                "ref:csioz": 1184738,
                "name": "\"Centrum Medyczne \"\"Olmedical\"\" - Szpital\"",
                "addr:street": "Krynicka",
                "addr:housenumber": "1",
                "addr:city": "Częstochowa",
                "addr:postcode": "42-221",
                "amenity": "pharmacy"
            },
            "geometry": {
                "type": "Point",
                "coordinates": [
                    19.089385000000018,
                    50.82523400001369
                ]
            }
        },
        {
            "type": "Feature",
            "properties": {
                "ref:csioz": 1205323,
                "name": "\"Centrum Zdrowia Psychicznego \"\"Egomedica\"\" Szpitalnictwo - Oddziały Dzienne\"",
                "addr:street": "Orkana",
                "addr:housenumber": "139B",
                "addr:city": "Częstochowa",
                "addr:postcode": "42-200",
                "amenity": "pharmacy"
            },
            "geometry": {
                "type": "Point",
                "coordinates": [
                    19.129383644398565,
                    50.78148655205904
                ]
            }
        },
        {
            "type": "Feature",
            "properties": {
                "ref:csioz": 1057270,
                "name": "\"Nzoz Centrum Opieki I Rehabilitacji \"\"Zdrowie\"\"\"",
                "addr:street": "Łukasińskiego mjra Waleriana",
                "addr:housenumber": "42",
                "addr:city": "Częstochowa",
                "addr:postcode": "42-200",
                "amenity": "pharmacy"
            },
            "geometry": {
                "type": "Point",
                "coordinates": [
                    19.154451000000044,
                    50.782650000013625
                ]
            }
        }
    ]
}