{
    "type": "FeatureCollection",
    "name": "JPT_KOD_JE_1809",
    "features": [
        {
            "type": "Feature",
            "properties": {
                "ref:csioz": 1138309,
                "name": "Apteka Szpitalna Spzoz",
                "addr:street": "Mickiewicza",
                "addr:housenumber": "168",
                "addr:city": "Lubaczów",
                "addr:postcode": "37-600",
                "amenity": "pharmacy"
            },
            "geometry": {
                "type": "Point",
                "coordinates": [
                    23.123245231631966,
                    50.171136068207296
                ]
            }
        },
        {
            "type": "Feature",
            "properties": {
                "ref:csioz": 1143370,
                "name": "Apteka Rodzinna",
                "addr:street": "Mikołaja Kopernika",
                "addr:housenumber": "1",
                "addr:city": "Lubaczów",
                "addr:postcode": "37-600",
                "amenity": "pharmacy"
            },
            "geometry": {
                "type": "Point",
                "coordinates": [
                    23.124792995603908,
                    50.1587066304651
                ]
            }
        },
        {
            "type": "Feature",
            "properties": {
                "ref:csioz": 1143381,
                "name": "Arnica",
                "addr:street": "Tadeusza Kościuszki",
                "addr:housenumber": "12",
                "addr:city": "Lubaczów",
                "addr:postcode": "37-600",
                "amenity": "pharmacy"
            },
            "geometry": {
                "type": "Point",
                "coordinates": [
                    23.125852329598263,
                    50.15750070583219
                ]
            }
        },
        {
            "type": "Feature",
            "properties": {
                "ref:csioz": 1143397,
                "name": "Pharmex",
                "addr:street": "Unii Lubelskiej",
                "addr:housenumber": "3C",
                "addr:city": "Lubaczów",
                "addr:postcode": "37-600",
                "amenity": "pharmacy"
            },
            "geometry": {
                "type": "Point",
                "coordinates": [
                    23.119178923739263,
                    50.15849964400821
                ]
            }
        },
        {
            "type": "Feature",
            "properties": {
                "ref:csioz": 1165919,
                "name": "Antidotum",
                "addr:street": "Adama Mickiewicza",
                "addr:housenumber": "168M",
                "addr:city": "Lubaczów",
                "addr:postcode": "37-600",
                "amenity": "pharmacy"
            },
            "geometry": {
                "type": "Point",
                "coordinates": [
                    23.123345000109566,
                    50.17110400001431
                ]
            }
        },
        {
            "type": "Feature",
            "properties": {
                "ref:csioz": 1202851,
                "name": "Apteka Medica",
                "addr:street": "Przyjaźni",
                "addr:housenumber": "6",
                "addr:city": "Horyniec-Zdrój",
                "addr:postcode": "37-620",
                "amenity": "pharmacy"
            },
            "geometry": {
                "type": "Point",
                "coordinates": [
                    23.363076037779784,
                    50.1910006634729
                ]
            }
        },
        {
            "type": "Feature",
            "properties": {
                "ref:csioz": 1202867,
                "name": "Apteka Medica",
                "addr:street": "Kazimierza Wielkiego",
                "addr:housenumber": "2",
                "addr:city": "Lubaczów",
                "addr:postcode": "37-600",
                "amenity": "pharmacy"
            },
            "geometry": {
                "type": "Point",
                "coordinates": [
                    23.121071389064433,
                    50.15732461323765
                ]
            }
        },
        {
            "type": "Feature",
            "properties": {
                "ref:csioz": 1136660,
                "addr:housenumber": "131",
                "addr:postcode": "37-611",
                "amenity": "pharmacy",
                "addr:place": "Niemstów"
            },
            "geometry": {
                "type": "Point",
                "coordinates": [
                    23.037038628777122,
                    50.25577230001202
                ]
            }
        },
        {
            "type": "Feature",
            "properties": {
                "ref:csioz": 1136762,
                "addr:housenumber": "18",
                "addr:postcode": "37-620",
                "amenity": "pharmacy",
                "addr:place": "Podemszczyzna"
            },
            "geometry": {
                "type": "Point",
                "coordinates": [
                    23.294474595155517,
                    50.213694731643464
                ]
            }
        },
        {
            "type": "Feature",
            "properties": {
                "ref:csioz": 1136866,
                "addr:street": "Sanatoryjna",
                "addr:housenumber": "2",
                "addr:city": "Horyniec-Zdrój",
                "addr:postcode": "37-620",
                "amenity": "pharmacy"
            },
            "geometry": {
                "type": "Point",
                "coordinates": [
                    23.357765811210275,
                    50.19707544057213
                ]
            }
        },
        {
            "type": "Feature",
            "properties": {
                "ref:csioz": 1137160,
                "addr:street": "Pałacowa",
                "addr:housenumber": "5",
                "addr:city": "Nowe Sioło",
                "addr:postcode": "37-611",
                "amenity": "pharmacy"
            },
            "geometry": {
                "type": "Point",
                "coordinates": [
                    23.156593625139365,
                    50.23864659726526
                ]
            }
        },
        {
            "type": "Feature",
            "properties": {
                "ref:csioz": 1143324,
                "name": "Galium",
                "addr:street": "Mickiewicza",
                "addr:housenumber": "3",
                "addr:city": "Cieszanów",
                "addr:postcode": "37-611",
                "amenity": "pharmacy"
            },
            "geometry": {
                "type": "Point",
                "coordinates": [
                    23.132515309426218,
                    50.24543236363477
                ]
            }
        },
        {
            "type": "Feature",
            "properties": {
                "ref:csioz": 1143335,
                "name": "Słoneczko",
                "addr:street": "Rynek",
                "addr:housenumber": "12",
                "addr:city": "Cieszanów",
                "addr:postcode": "37-611",
                "amenity": "pharmacy"
            },
            "geometry": {
                "type": "Point",
                "coordinates": [
                    23.130069439102417,
                    50.24488917731128
                ]
            }
        },
        {
            "type": "Feature",
            "properties": {
                "ref:csioz": 1143356,
                "addr:street": "Przyjaźni",
                "addr:housenumber": "7",
                "addr:city": "Horyniec-Zdrój",
                "addr:postcode": "37-620",
                "amenity": "pharmacy"
            },
            "geometry": {
                "type": "Point",
                "coordinates": [
                    23.362833470402077,
                    50.19069302501325
                ]
            }
        },
        {
            "type": "Feature",
            "properties": {
                "ref:csioz": 1143362,
                "name": "Arnica Bis",
                "addr:street": "Stanisława Konery",
                "addr:housenumber": "6",
                "addr:city": "Lubaczów",
                "addr:postcode": "37-600",
                "amenity": "pharmacy"
            },
            "geometry": {
                "type": "Point",
                "coordinates": [
                    23.129042521130938,
                    50.1560364021876
                ]
            }
        },
        {
            "type": "Feature",
            "properties": {
                "ref:csioz": 1143416,
                "name": "Apteka Medica",
                "addr:street": "Rynek",
                "addr:housenumber": "2-3",
                "addr:flats": "3",
                "addr:city": "Lubaczów",
                "addr:postcode": "37-600",
                "amenity": "pharmacy"
            },
            "geometry": {
                "type": "Point",
                "coordinates": [
                    23.12276620811038,
                    50.15795633740899
                ]
            }
        },
        {
            "type": "Feature",
            "properties": {
                "ref:csioz": 1143427,
                "addr:street": "Rynek",
                "addr:housenumber": "2a",
                "addr:city": "Narol",
                "addr:postcode": "37-610",
                "amenity": "pharmacy"
            },
            "geometry": {
                "type": "Point",
                "coordinates": [
                    23.328345000137578,
                    50.3483160000153
                ]
            }
        },
        {
            "type": "Feature",
            "properties": {
                "ref:csioz": 1143403,
                "name": "Dr.Max",
                "addr:street": "Józefa Piłsudskiego",
                "addr:housenumber": "6",
                "addr:city": "Lubaczów",
                "addr:postcode": "37-600",
                "amenity": "pharmacy"
            },
            "geometry": {
                "type": "Point",
                "coordinates": [
                    23.122934681431417,
                    50.15878671781523
                ]
            }
        },
        {
            "type": "Feature",
            "properties": {
                "ref:csioz": 1143442,
                "name": "Rodzinna",
                "addr:street": "Rynek",
                "addr:housenumber": "6",
                "addr:city": "Oleszyce",
                "addr:postcode": "37-630",
                "amenity": "pharmacy"
            },
            "geometry": {
                "type": "Point",
                "coordinates": [
                    23.03037457551338,
                    50.16868364838437
                ]
            }
        },
        {
            "type": "Feature",
            "properties": {
                "ref:csioz": 1143450,
                "name": "Lobelia",
                "addr:street": "Zamkowa",
                "addr:housenumber": "10",
                "addr:city": "Oleszyce",
                "addr:postcode": "37-630",
                "amenity": "pharmacy"
            },
            "geometry": {
                "type": "Point",
                "coordinates": [
                    23.033316165476297,
                    50.167819808907915
                ]
            }
        },
        {
            "type": "Feature",
            "properties": {
                "ref:csioz": 1143475,
                "addr:street": "Tadeusza Kościuszki",
                "addr:housenumber": "74",
                "addr:city": "Stary Dzików",
                "addr:postcode": "37-632",
                "amenity": "pharmacy"
            },
            "geometry": {
                "type": "Point",
                "coordinates": [
                    22.93389252572111,
                    50.24450251698026
                ]
            }
        },
        {
            "type": "Feature",
            "properties": {
                "ref:csioz": 1143488,
                "addr:street": "Cerkiewna",
                "addr:housenumber": "5",
                "addr:city": "Wielkie Oczy",
                "addr:postcode": "37-627",
                "amenity": "pharmacy"
            },
            "geometry": {
                "type": "Point",
                "coordinates": [
                    23.164182010781495,
                    50.02454303057464
                ]
            }
        },
        {
            "type": "Feature",
            "properties": {
                "ref:csioz": 1200767,
                "name": "Rodzinna",
                "addr:street": "Cerkiewna",
                "addr:housenumber": "2",
                "addr:city": "Cieszanów",
                "addr:postcode": "37-611",
                "amenity": "pharmacy"
            },
            "geometry": {
                "type": "Point",
                "coordinates": [
                    23.129087517885104,
                    50.24598685026721
                ]
            }
        },
        {
            "type": "Feature",
            "properties": {
                "ref:csioz": 1220053,
                "name": "Różana",
                "addr:street": "Św. Anny",
                "addr:housenumber": "8",
                "addr:city": "Lubaczów",
                "addr:postcode": "37-600",
                "amenity": "pharmacy"
            },
            "geometry": {
                "type": "Point",
                "coordinates": [
                    23.123591000109798,
                    50.1581400000143
                ]
            }
        },
        {
            "type": "Feature",
            "properties": {
                "ref:csioz": 1229908,
                "addr:housenumber": "121A",
                "addr:postcode": "37-613",
                "amenity": "pharmacy",
                "addr:place": "Ruda Różaniecka"
            },
            "geometry": {
                "type": "Point",
                "coordinates": [
                    23.181139234944133,
                    50.3221602159373
                ]
            }
        }
    ]
}