{
"type": "FeatureCollection",
"name": "JPT_KOD_JE_3214",
"features": [
{ "type": "Feature", "properties": { "ref:csioz": 1164988, "addr:street": "Szkolna", "addr:housenumber": "20", "addr:city": "Kobylanka", "addr:postcode": "73-108", "amenity": "pharmacy" }, "geometry": { "type": "Point", "coordinates": [ 14.866204208130686, 53.340429401313912 ] } },
{ "type": "Feature", "properties": { "ref:csioz": 1126281, "addr:street": "Rumuńska", "addr:housenumber": "9A-G", "addr:city": "Stargard Szczeciński", "addr:postcode": "73-110", "amenity": "pharmacy", "name": "Apteka Lukrecja", "addr:flats": "2" }, "geometry": { "type": "Point", "coordinates": [ 15.013093941969139, 53.344294859403057 ] } },
{ "type": "Feature", "properties": { "ref:csioz": 1151619, "addr:street": "Marszałka Józefa Piłsudskiego", "addr:housenumber": "9", "addr:city": "Stargard Szczeciński", "addr:postcode": "73-110", "amenity": "pharmacy", "name": "\"Apteka Cef@Rm 36,6\"" }, "geometry": { "type": "Point", "coordinates": [ 15.036021056567092, 53.340848880266002 ] } },
{ "type": "Feature", "properties": { "ref:csioz": 1165023, "addr:street": "Marszałka Józefa Piłsudskiego", "addr:housenumber": "16", "addr:city": "Stargard Szczeciński", "addr:postcode": "73-110", "amenity": "pharmacy", "name": "\"Apteka Cef@Rm 36,6\"", "addr:flats": "2" }, "geometry": { "type": "Point", "coordinates": [ 15.035279777773106, 53.341905622505848 ] } },
{ "type": "Feature", "properties": { "ref:csioz": 1167885, "addr:street": "Marszałka Józefa Piłsudskiego", "addr:housenumber": "23", "addr:city": "Stargard Szczeciński", "addr:postcode": "73-110", "amenity": "pharmacy", "name": "Apteka Gemini", "addr:flats": "5" }, "geometry": { "type": "Point", "coordinates": [ 15.03381045028439, 53.342464777712131 ] } },
{ "type": "Feature", "properties": { "ref:csioz": 1168126, "addr:street": "Szczecińska", "addr:housenumber": "81", "addr:city": "Stargard Szczeciński", "addr:postcode": "73-110", "amenity": "pharmacy", "name": "\"Apteka Cef@Rm 36,6\"" }, "geometry": { "type": "Point", "coordinates": [ 14.989950056798977, 53.341402286765621 ] } },
{ "type": "Feature", "properties": { "ref:csioz": 1168846, "addr:street": "Staromiejska", "addr:housenumber": "11", "addr:city": "Ińsko", "addr:postcode": "73-140", "amenity": "pharmacy", "name": "Ina" }, "geometry": { "type": "Point", "coordinates": [ 15.548534060919392, 53.436597201726144 ] } },
{ "type": "Feature", "properties": { "ref:csioz": 1169012, "addr:street": "Pierwszej Brygady", "addr:housenumber": "18", "addr:city": "Stargard Szczeciński", "addr:postcode": "73-110", "amenity": "pharmacy", "name": "Przy Luxpolu" }, "geometry": { "type": "Point", "coordinates": [ 15.026341289459449, 53.342316240894675 ] } },
{ "type": "Feature", "properties": { "ref:csioz": 1192047, "addr:street": "Stanisława Staszica", "addr:housenumber": "30-48", "addr:city": "Dobrzany", "addr:postcode": "73-130", "amenity": "pharmacy", "name": "Doz Apteka.Dbam O Zdrowie.Medica", "addr:flats": "4" }, "geometry": { "type": "Point", "coordinates": [ 15.429957032606611, 53.355783756062074 ] } },
{ "type": "Feature", "properties": { "ref:csioz": 1210306, "addr:street": "Kardynała Stefana  Wyszyńskiego", "addr:housenumber": "6c", "addr:city": "Stargard", "addr:postcode": "73-110", "amenity": "pharmacy", "name": "Apteka Gemini" }, "geometry": { "type": "Point", "coordinates": [ 15.03574099994435, 53.339499000018932 ] } },
{ "type": "Feature", "properties": { "ref:csioz": 1151942, "addr:street": "Armii Krajowej", "addr:housenumber": "74", "addr:city": "Chociwel", "addr:postcode": "73-120", "amenity": "pharmacy", "name": "Kelina" }, "geometry": { "type": "Point", "coordinates": [ 15.339188164602039, 53.46867850426991 ] } },
{ "type": "Feature", "properties": { "ref:csioz": 1152271, "addr:street": "Mikołaja Reja", "addr:housenumber": "5A", "addr:city": "Stargard Szczeciński", "addr:postcode": "73-110", "amenity": "pharmacy", "name": "Nowa" }, "geometry": { "type": "Point", "coordinates": [ 15.032079099636316, 53.342559201150962 ] } },
{ "type": "Feature", "properties": { "ref:csioz": 1166019, "addr:street": "Rynek Staromiejski", "addr:housenumber": "5", "addr:city": "Stargard Szczeciński", "addr:postcode": "73-110", "amenity": "pharmacy", "name": "Staromiejska" }, "geometry": { "type": "Point", "coordinates": [ 15.045623230920624, 53.336642059213801 ] } },
{ "type": "Feature", "properties": { "ref:csioz": 1167288, "addr:street": "Armii Krajowej", "addr:housenumber": "7U", "addr:city": "Stargard Szczeciński", "addr:postcode": "73-110", "amenity": "pharmacy", "name": "Apteka Aloes", "addr:flats": "2" }, "geometry": { "type": "Point", "coordinates": [ 15.035816999944117, 53.314924000018884 ] } },
{ "type": "Feature", "properties": { "ref:csioz": 1167300, "addr:housenumber": "30c", "addr:city": "Stara Dąbrowa", "addr:postcode": "73-112", "amenity": "pharmacy" }, "geometry": { "type": "Point", "coordinates": [ 15.140856083078106, 53.421558211178727 ] } },
{ "type": "Feature", "properties": { "ref:csioz": 1167453, "addr:street": "Wojska Polskiego", "addr:housenumber": "12a", "addr:city": "Stargard Szczeciński", "addr:postcode": "73-110", "amenity": "pharmacy", "name": "Apteka Vita" }, "geometry": { "type": "Point", "coordinates": [ 15.036199878648567, 53.34236440311409 ] } },
{ "type": "Feature", "properties": { "ref:csioz": 1167952, "addr:street": "Pomorska", "addr:housenumber": "31", "addr:city": "Suchań", "addr:postcode": "73-132", "amenity": "pharmacy", "name": "Centrum" }, "geometry": { "type": "Point", "coordinates": [ 15.319564004036001, 53.280089926096856 ] } },
{ "type": "Feature", "properties": { "ref:csioz": 1167971, "addr:street": "Hetmana Stefana Czarnieckiego", "addr:housenumber": "1c", "addr:city": "Stargard Szczeciński", "addr:postcode": "73-110", "amenity": "pharmacy", "name": "Centrum" }, "geometry": { "type": "Point", "coordinates": [ 15.03733118185939, 53.33910340082582 ] } },
{ "type": "Feature", "properties": { "ref:csioz": 1168147, "addr:street": "Mikołaja Reja", "addr:housenumber": "13", "addr:city": "Stargard Szczeciński", "addr:postcode": "73-110", "amenity": "pharmacy", "name": "\"Apteka Cef@Rm 36,6\"" }, "geometry": { "type": "Point", "coordinates": [ 15.03265886267665, 53.343349775399425 ] } },
{ "type": "Feature", "properties": { "ref:csioz": 1168183, "addr:street": "Grodzka", "addr:housenumber": "6", "addr:city": "Stargard Szczeciński", "addr:postcode": "73-110", "amenity": "pharmacy", "name": "Grodzka", "addr:flats": "7" }, "geometry": { "type": "Point", "coordinates": [ 15.044692999944923, 53.337478000018912 ] } },
{ "type": "Feature", "properties": { "ref:csioz": 1168194, "addr:street": "Kardynała Stefana Wyszyńskiego", "addr:housenumber": "21a", "addr:city": "Stargard Szczeciński", "addr:postcode": "73-110", "amenity": "pharmacy", "name": "Śródmiejska" }, "geometry": { "type": "Point", "coordinates": [ 15.035960043013747, 53.339205376887072 ] } },
{ "type": "Feature", "properties": { "ref:csioz": 1168208, "addr:street": "Bolesława Chrobrego", "addr:housenumber": "8", "addr:city": "Stargard Szczeciński", "addr:postcode": "73-110", "amenity": "pharmacy", "name": "W Galerii" }, "geometry": { "type": "Point", "coordinates": [ 15.044904249183235, 53.338744803757407 ] } },
{ "type": "Feature", "properties": { "ref:csioz": 1168224, "addr:street": "Aleja Żołnierza", "addr:housenumber": "37", "addr:city": "Stargard", "addr:postcode": "73-110", "amenity": "pharmacy", "name": "Dbam O Zdrowie" }, "geometry": { "type": "Point", "coordinates": [ 15.012242999942753, 53.336284000018985 ] } },
{ "type": "Feature", "properties": { "ref:csioz": 1168499, "addr:street": "Bolesława Chrobrego", "addr:housenumber": "3a", "addr:city": "Stargard Szczeciński", "addr:postcode": "73-110", "amenity": "pharmacy", "name": "Alfa" }, "geometry": { "type": "Point", "coordinates": [ 15.042465430529347, 53.339171163643122 ] } },
{ "type": "Feature", "properties": { "ref:csioz": 1168602, "addr:street": "Tadeusza Kościuszki", "addr:housenumber": "73", "addr:city": "Stargard Szczeciński", "addr:postcode": "73-110", "amenity": "pharmacy", "name": "Apteka Lekosfera Dga4" }, "geometry": { "type": "Point", "coordinates": [ 15.026434285232813, 53.332982106562923 ] } },
{ "type": "Feature", "properties": { "ref:csioz": 1168775, "addr:street": "Zielona", "addr:housenumber": "25A", "addr:city": "Ińsko", "addr:postcode": "73-140", "amenity": "pharmacy", "name": "Granulka" }, "geometry": { "type": "Point", "coordinates": [ 15.543917909779422, 53.435846790623145 ] } },
{ "type": "Feature", "properties": { "ref:csioz": 1169142, "addr:street": "Jana Pawła II", "addr:housenumber": "24c", "addr:city": "Dobrzany", "addr:postcode": "73-130", "amenity": "pharmacy", "name": "Nowa" }, "geometry": { "type": "Point", "coordinates": [ 15.428418639868802, 53.360497214018046 ] } },
{ "type": "Feature", "properties": { "ref:csioz": 1174208, "addr:street": "Hetmana Stefana Czarnieckiego", "addr:housenumber": "2c", "addr:city": "Stargard Szczeciński", "addr:postcode": "73-110", "amenity": "pharmacy", "name": "Apteka Natura" }, "geometry": { "type": "Point", "coordinates": [ 15.037535168974109, 53.338832243050412 ] } },
{ "type": "Feature", "properties": { "ref:csioz": 1174219, "addr:street": "Henryka Wieniawskiego", "addr:housenumber": "1", "addr:city": "Stargard Szczeciński", "addr:postcode": "73-110", "amenity": "pharmacy", "name": "Apteka Natura" }, "geometry": { "type": "Point", "coordinates": [ 15.010884803567615, 53.341063620400739 ] } },
{ "type": "Feature", "properties": { "ref:csioz": 1174224, "addr:street": "Pogodna", "addr:housenumber": "4", "addr:city": "Stargard Szczeciński", "addr:postcode": "73-110", "amenity": "pharmacy", "name": "Apteka Natura", "addr:flats": "2" }, "geometry": { "type": "Point", "coordinates": [ 15.015557222918281, 53.333325099340172 ] } },
{ "type": "Feature", "properties": { "ref:csioz": 1174235, "addr:street": "Kardynała Stefana Wyszyńskiego", "addr:housenumber": "22c", "addr:city": "Stargard Szczeciński", "addr:postcode": "73-110", "amenity": "pharmacy", "name": "Twoja Apteka" }, "geometry": { "type": "Point", "coordinates": [ 15.036240999944374, 53.339242000018942 ] } },
{ "type": "Feature", "properties": { "ref:csioz": 1178789, "addr:street": "11 Listopada", "addr:housenumber": "21a", "addr:city": "Stargard Szczeciński", "addr:postcode": "73-110", "amenity": "pharmacy", "name": "Apteka Dyżurna" }, "geometry": { "type": "Point", "coordinates": [ 15.021223090612724, 53.337966322515449 ] } },
{ "type": "Feature", "properties": { "ref:csioz": 1191694, "addr:street": "Mieszka I", "addr:housenumber": "2", "addr:city": "Marianowo", "addr:postcode": "73-121", "amenity": "pharmacy", "name": "Medica" }, "geometry": { "type": "Point", "coordinates": [ 15.265553704417622, 53.381696224696292 ] } },
{ "type": "Feature", "properties": { "ref:csioz": 1199463, "addr:street": "Aleja Żołnierza", "addr:housenumber": "\"8, 10\"", "addr:city": "Stargard Szczeciński", "addr:postcode": "73-110", "amenity": "pharmacy", "name": "Miętowa" }, "geometry": { "type": "Point", "coordinates": [ 15.019059601731142, 53.337930939938218 ] } },
{ "type": "Feature", "properties": { "ref:csioz": 1202256, "addr:street": "Armii Krajowej", "addr:housenumber": "64b", "addr:city": "Chociwel", "addr:postcode": "73-120", "amenity": "pharmacy", "name": "Malva" }, "geometry": { "type": "Point", "coordinates": [ 15.336539029053284, 53.468112689925668 ] } },
{ "type": "Feature", "properties": { "ref:csioz": 1203182, "addr:street": "Osiedle Zachód", "addr:housenumber": "A17", "addr:city": "Stargard", "addr:postcode": "73-110", "amenity": "pharmacy", "name": "Doz Apteka. Dbam O Zdrowie. Medica" }, "geometry": { "type": "Point", "coordinates": [ 15.012020358123999, 53.340087262849693 ] } },
{ "type": "Feature", "properties": { "ref:csioz": 1211757, "addr:street": "Wiejska", "addr:housenumber": "15", "addr:city": "Dolice", "addr:postcode": "73-115", "amenity": "pharmacy", "name": "Wieża Zdrowia" }, "geometry": { "type": "Point", "coordinates": [ 15.203895641705831, 53.18971132928646 ] } },
{ "type": "Feature", "properties": { "ref:csioz": 1219967, "addr:street": "Marszałka Józefa Piłsudskiego", "addr:housenumber": "90", "addr:city": "Stargard", "addr:postcode": "73-110", "amenity": "pharmacy", "name": "Centrum Zdrowia" }, "geometry": { "type": "Point", "coordinates": [ 15.03055242436327, 53.34670708571187 ] } },
{ "type": "Feature", "properties": { "ref:csioz": 1221238, "addr:street": "Władysława Broniewskiego", "addr:housenumber": "29", "addr:city": "Stargard", "addr:postcode": "73-110", "amenity": "pharmacy", "name": "Apteka Epiona" }, "geometry": { "type": "Point", "coordinates": [ 15.020340462892747, 53.29546445717601 ] } }
]
}
