{
"type": "FeatureCollection",
"name": "woj_podkarpackie-pow_debicki-JPT_KOD_JE_1803_mr",
"crs": { "type": "name", "properties": { "name": "urn:ogc:def:crs:OGC:1.3:CRS84" } },
"features": [
{ "type": "Feature", "properties": { "ref:csioz": 1125511, "name": "Vita", "addr:housenumber": "78", "addr:city": "Smarżowa", "addr:postcode": "39-231", "amenity": "pharmacy", "addr:street": null, "addr:flats": null }, "geometry": { "type": "Point", "coordinates": [ 21.457907053829473, 49.922064365369735 ] } },
{ "type": "Feature", "properties": { "ref:csioz": 1138258, "name": "Apteka Szpitalna Zoz", "addr:housenumber": "91", "addr:city": "Dębica", "addr:postcode": "39-200", "amenity": "pharmacy", "addr:street": "Krakowska", "addr:flats": null }, "geometry": { "type": "Point", "coordinates": [ 21.393012922078285, 50.039107233570064 ] } },
{ "type": "Feature", "properties": { "ref:csioz": 1144683, "name": "\"Apteka \"\"Panaceum\"\"\"", "addr:housenumber": "52C", "addr:city": "Dębica", "addr:postcode": "39-200", "amenity": "pharmacy", "addr:street": "Cmentarna", "addr:flats": null }, "geometry": { "type": "Point", "coordinates": [ 21.426704787414529, 50.056056309416071 ] } },
{ "type": "Feature", "properties": { "ref:csioz": 1144844, "name": "Apteka Św. Łukasza", "addr:housenumber": "66", "addr:city": "Dębica", "addr:postcode": "39-200", "amenity": "pharmacy", "addr:street": "Rzeszowska", "addr:flats": "48" }, "geometry": { "type": "Point", "coordinates": [ 21.418870838367642, 50.052963669282285 ] } },
{ "type": "Feature", "properties": { "ref:csioz": 1144853, "name": "Dr.Max", "addr:housenumber": "114", "addr:city": "Dębica", "addr:postcode": "39-200", "amenity": "pharmacy", "addr:street": "Rzeszowska", "addr:flats": null }, "geometry": { "type": "Point", "coordinates": [ 21.435510710226716, 50.054109907083856 ] } },
{ "type": "Feature", "properties": { "ref:csioz": 1144900, "name": "Vita", "addr:housenumber": "5", "addr:city": "Brzostek", "addr:postcode": "39-230", "amenity": "pharmacy", "addr:street": "Szkolna", "addr:flats": null }, "geometry": { "type": "Point", "coordinates": [ 21.412401029064988, 49.879233938351106 ] } },
{ "type": "Feature", "properties": { "ref:csioz": 1144866, "name": "Apteka W Rynku", "addr:housenumber": "29", "addr:city": "Dębica", "addr:postcode": "39-200", "amenity": "pharmacy", "addr:street": "Rynek", "addr:flats": null }, "geometry": { "type": "Point", "coordinates": [ 21.40883638608117, 50.050549533502362 ] } },
{ "type": "Feature", "properties": { "ref:csioz": 1144890, "name": "\"Apteka \"\"Na Węgierskiej Ii\"\"\"", "addr:housenumber": "4", "addr:city": "Brzostek", "addr:postcode": "39-230", "amenity": "pharmacy", "addr:street": "11-go Listopada", "addr:flats": null }, "geometry": { "type": "Point", "coordinates": [ 21.409466941212131, 49.88032802466347 ] } },
{ "type": "Feature", "properties": { "ref:csioz": 1144937, "name": "Galen", "addr:housenumber": "245F", "addr:city": "Nagawczyna", "addr:postcode": "39-200", "amenity": "pharmacy", "addr:street": null, "addr:flats": null }, "geometry": { "type": "Point", "coordinates": [ 21.452612629867886, 50.056187828680962 ] } },
{ "type": "Feature", "properties": { "ref:csioz": 1164564, "name": "Apteka Farmacja 24", "addr:housenumber": "2", "addr:city": "Dębica", "addr:postcode": "39-200", "amenity": "pharmacy", "addr:street": "Rzemieślnicza", "addr:flats": null }, "geometry": { "type": "Point", "coordinates": [ 21.416583210346793, 50.049029925440855 ] } },
{ "type": "Feature", "properties": { "ref:csioz": 1166348, "name": "Apteka Im. Jana Pawła Ii", "addr:housenumber": "9", "addr:city": "Brzostek", "addr:postcode": "39-230", "amenity": "pharmacy", "addr:street": "Mariana Nałęcza-Mysłowskiego", "addr:flats": null }, "geometry": { "type": "Point", "coordinates": [ 21.412480712341058, 49.881645347536875 ] } },
{ "type": "Feature", "properties": { "ref:csioz": 1201956, "name": "Apteka Słoneczna", "addr:housenumber": "5", "addr:city": "Dębica", "addr:postcode": "39-200", "amenity": "pharmacy", "addr:street": "Rynek", "addr:flats": null }, "geometry": { "type": "Point", "coordinates": [ 21.410214676223863, 50.051368691999741 ] } },
{ "type": "Feature", "properties": { "ref:csioz": 1144694, "name": "Rodzinna", "addr:housenumber": "4", "addr:city": "Dębica", "addr:postcode": "39-200", "amenity": "pharmacy", "addr:street": "Czarnieckiego", "addr:flats": null }, "geometry": { "type": "Point", "coordinates": [ 21.411027778850656, 50.049703159775611 ] } },
{ "type": "Feature", "properties": { "ref:csioz": 1144708, "name": "Apteka Dbam O Zdrowie", "addr:housenumber": "19", "addr:city": "Dębica", "addr:postcode": "39-200", "amenity": "pharmacy", "addr:street": "Głowackiego", "addr:flats": null }, "geometry": { "type": "Point", "coordinates": [ 21.412822380331828, 50.054067971134423 ] } },
{ "type": "Feature", "properties": { "ref:csioz": 1144719, "name": "Melisa", "addr:housenumber": "9", "addr:city": "Dębica", "addr:postcode": "39-200", "amenity": "pharmacy", "addr:street": "Kolejowa", "addr:flats": null }, "geometry": { "type": "Point", "coordinates": [ 21.407500829494829, 50.050357626247894 ] } },
{ "type": "Feature", "properties": { "ref:csioz": 1144743, "name": "Apteka Dbam O Zdrowie", "addr:housenumber": "4", "addr:city": "Dębica", "addr:postcode": "39-200", "amenity": "pharmacy", "addr:street": "Krakowska", "addr:flats": null }, "geometry": { "type": "Point", "coordinates": [ 21.403041226039399, 50.04668829956298 ] } },
{ "type": "Feature", "properties": { "ref:csioz": 1144762, "name": "Medella", "addr:housenumber": "88a", "addr:city": "Dębica", "addr:postcode": "39-200", "amenity": "pharmacy", "addr:street": "Krakowska", "addr:flats": null }, "geometry": { "type": "Point", "coordinates": [ 21.401499000007359, 50.044625000012601 ] } },
{ "type": "Feature", "properties": { "ref:csioz": 1144770, "name": "Apteka Słoneczna", "addr:housenumber": "91", "addr:city": "Dębica", "addr:postcode": "39-200", "amenity": "pharmacy", "addr:street": "Krakowska", "addr:flats": null }, "geometry": { "type": "Point", "coordinates": [ 21.393012922078285, 50.039107233570064 ] } },
{ "type": "Feature", "properties": { "ref:csioz": 1144984, "name": null, "addr:housenumber": "36B", "addr:city": "Pustków-Osiedle", "addr:postcode": "39-206", "amenity": "pharmacy", "addr:street": null, "addr:flats": null }, "geometry": { "type": "Point", "coordinates": [ 21.510143309497476, 50.112940841127177 ] } },
{ "type": "Feature", "properties": { "ref:csioz": 1144735, "name": "Pod Gryfem", "addr:housenumber": "34", "addr:city": "Dębica", "addr:postcode": "39-200", "amenity": "pharmacy", "addr:street": "Kolejowa", "addr:flats": null }, "geometry": { "type": "Point", "coordinates": [ 21.407027377412955, 50.052170675635146 ] } },
{ "type": "Feature", "properties": { "ref:csioz": 1144756, "name": "Centrum", "addr:housenumber": "10", "addr:city": "Dębica", "addr:postcode": "39-200", "amenity": "pharmacy", "addr:street": "Krakowska", "addr:flats": null }, "geometry": { "type": "Point", "coordinates": [ 21.407565060162678, 50.049484429043531 ] } },
{ "type": "Feature", "properties": { "ref:csioz": 1193559, "name": "Niezapominajka Dla Całej Rodziny", "addr:housenumber": "44", "addr:city": "Dębica", "addr:postcode": "39-200", "amenity": "pharmacy", "addr:street": "Kolejowa", "addr:flats": null }, "geometry": { "type": "Point", "coordinates": [ 21.40616505202112, 50.053399596544203 ] } },
{ "type": "Feature", "properties": { "ref:csioz": 1196725, "name": "Witaminka", "addr:housenumber": "147a", "addr:city": "Żyraków", "addr:postcode": "39-204", "amenity": "pharmacy", "addr:street": null, "addr:flats": null }, "geometry": { "type": "Point", "coordinates": [ 21.392794477527222, 50.084461814702991 ] } },
{ "type": "Feature", "properties": { "ref:csioz": 1200665, "name": "Dr.Max", "addr:housenumber": "116", "addr:city": "Dębica", "addr:postcode": "39-200", "amenity": "pharmacy", "addr:street": "Rzeszowska", "addr:flats": null }, "geometry": { "type": "Point", "coordinates": [ 21.437063207323177, 50.054484151856549 ] } },
{ "type": "Feature", "properties": { "ref:csioz": 1204127, "name": "Niezapominajka Dla Całej Rodziny", "addr:housenumber": "18", "addr:city": "Dębica", "addr:postcode": "39-200", "amenity": "pharmacy", "addr:street": "Kolejowa", "addr:flats": null }, "geometry": { "type": "Point", "coordinates": [ 21.407326795117505, 50.050675705426279 ] } },
{ "type": "Feature", "properties": { "ref:csioz": 1213877, "name": "Alba", "addr:housenumber": "131", "addr:city": "Dębica", "addr:postcode": "39-200", "amenity": "pharmacy", "addr:street": "Rzeszowska", "addr:flats": null }, "geometry": { "type": "Point", "coordinates": [ 21.430571852526747, 50.055323148705895 ] } },
{ "type": "Feature", "properties": { "ref:csioz": 1144815, "name": "\"Apteka \"\"Arnika\"\"\"", "addr:housenumber": "16", "addr:city": "Dębica", "addr:postcode": "39-200", "amenity": "pharmacy", "addr:street": "Piłsudskiego", "addr:flats": null }, "geometry": { "type": "Point", "coordinates": [ 21.40260530896149, 50.057482618219709 ] } },
{ "type": "Feature", "properties": { "ref:csioz": 1144797, "name": "\"Apteka \"\"Galeria Dębicka\"\"\"", "addr:housenumber": "2", "addr:city": "Dębica", "addr:postcode": "39-200", "amenity": "pharmacy", "addr:street": "ks. Nosala", "addr:flats": null }, "geometry": { "type": "Point", "coordinates": [ 21.411679788961944, 50.046174080937817 ] } },
{ "type": "Feature", "properties": { "ref:csioz": 1144781, "name": "Millennium", "addr:housenumber": "94e", "addr:city": "Dębica", "addr:postcode": "39-200", "amenity": "pharmacy", "addr:street": "Krakowska", "addr:flats": null }, "geometry": { "type": "Point", "coordinates": [ 21.384969659585636, 50.035672349411662 ] } },
{ "type": "Feature", "properties": { "ref:csioz": 1125492, "name": "Pod Jesionem", "addr:housenumber": "142B", "addr:city": "Róża", "addr:postcode": "39-215", "amenity": "pharmacy", "addr:street": null, "addr:flats": null }, "geometry": { "type": "Point", "coordinates": [ 21.312918042487787, 50.111319664284565 ] } },
{ "type": "Feature", "properties": { "ref:csioz": 1125468, "name": "Dbam O Zdrowie", "addr:housenumber": "25B", "addr:city": "Jodłowa", "addr:postcode": "38-218", "amenity": "pharmacy", "addr:street": null, "addr:flats": null }, "geometry": { "type": "Point", "coordinates": [ 21.305026018687254, 49.877192234504264 ] } },
{ "type": "Feature", "properties": { "ref:csioz": 1144913, "name": "Apteka Słoneczna", "addr:housenumber": "3", "addr:city": "Czarna", "addr:postcode": "39-215", "amenity": "pharmacy", "addr:street": "Konarskiego", "addr:flats": null }, "geometry": { "type": "Point", "coordinates": [ 21.24683236832767, 50.062721676629621 ] } },
{ "type": "Feature", "properties": { "ref:csioz": 1144921, "name": "Apteka W Jodłowej", "addr:housenumber": "29", "addr:city": "Jodłowa", "addr:postcode": "39-225", "amenity": "pharmacy", "addr:street": null, "addr:flats": null }, "geometry": { "type": "Point", "coordinates": [ 21.303229933027762, 49.876187746270887 ] } },
{ "type": "Feature", "properties": { "ref:csioz": 1165962, "name": "Witaminka I", "addr:housenumber": "8", "addr:city": "Czarna", "addr:postcode": "39-215", "amenity": "pharmacy", "addr:street": "Dworcowa", "addr:flats": null }, "geometry": { "type": "Point", "coordinates": [ 21.248869750586461, 50.061218670521626 ] } },
{ "type": "Feature", "properties": { "ref:csioz": 1144945, "name": "Apteka Lubelska", "addr:housenumber": "28", "addr:city": "Pilzno", "addr:postcode": "39-220", "amenity": "pharmacy", "addr:street": "Legionów", "addr:flats": null }, "geometry": { "type": "Point", "coordinates": [ 21.285048000005848, 49.981947000012482 ] } },
{ "type": "Feature", "properties": { "ref:csioz": 1144968, "name": "Apteka Janiga", "addr:housenumber": "12", "addr:city": "Pilzno", "addr:postcode": "39-220", "amenity": "pharmacy", "addr:street": "Rynek", "addr:flats": null }, "geometry": { "type": "Point", "coordinates": [ 21.29184870665669, 49.97849673305231 ] } },
{ "type": "Feature", "properties": { "ref:csioz": 1144976, "name": "\"Apteka \"\"Na Węgierskiej\"\"\"", "addr:housenumber": "5", "addr:city": "Pilzno", "addr:postcode": "39-220", "amenity": "pharmacy", "addr:street": "Węgierska", "addr:flats": null }, "geometry": { "type": "Point", "coordinates": [ 21.292314462164942, 49.977915432150823 ] } },
{ "type": "Feature", "properties": { "ref:csioz": 1144959, "name": "\"Apteka \"\"Adonis\"\"\"", "addr:housenumber": "5", "addr:city": "Pilzno", "addr:postcode": "39-220", "amenity": "pharmacy", "addr:street": "Rynek", "addr:flats": null }, "geometry": { "type": "Point", "coordinates": [ 21.290784749140276, 49.978784188163601 ] } },
{ "type": "Feature", "properties": { "ref:csioz": 1224804, "name": "Melilotus", "addr:housenumber": "186A", "addr:city": "Róża", "addr:postcode": "39-216", "amenity": "pharmacy", "addr:street": null, "addr:flats": null }, "geometry": { "type": "Point", "coordinates": [ 21.314286421915632, 50.113031820361051 ] } },
{ "type": "Feature", "properties": { "ref:csioz": 1203362, "name": "Arnika", "addr:housenumber": "16", "addr:city": "Jodłowa", "addr:postcode": "39-225", "amenity": "pharmacy", "addr:street": null, "addr:flats": null }, "geometry": { "type": "Point", "coordinates": [ 21.30462511512167, 49.87742951001615 ] } },
{ "type": "Feature", "properties": { "ref:csioz": 1230079, "name": "Arnika", "addr:housenumber": "", "addr:city": "Straszęcin", "addr:postcode": "39-209", "amenity": "pharmacy", "addr:street": null, "addr:flats": null }, "geometry": { "type": "Point", "coordinates": [ 21.364275530621892, 50.062564533186112 ] } },
{ "type": "Feature", "properties": { "ref:csioz": 1230862, "name": "POD JESIONEM 2", "addr:housenumber": "208a", "addr:city": "Zawada", "addr:postcode": "39-200", "amenity": "pharmacy", "addr:street": null, "addr:flats": null }, "geometry": { "type": "Point", "coordinates": [ 21.484481260060587, 50.054822313672297 ] } }
]
}
