{
"type": "FeatureCollection",
"name": "JPT_KOD_JE_0601",
"features": [
{ "type": "Feature", "properties": { "ref:csioz": 1106102, "addr:street": "Plac Jagielloński", "addr:housenumber": "29", "addr:city": "Łomazy", "addr:postcode": "21-532", "amenity": "pharmacy" }, "geometry": { "type": "Point", "coordinates": [ 23.175234858801598, 51.903443989737418 ] } },
{ "type": "Feature", "properties": { "ref:csioz": 1122816, "addr:street": "Batalionów Chłopskich", "addr:housenumber": "122", "addr:city": "Rossosz", "addr:postcode": "21-533", "amenity": "pharmacy" }, "geometry": { "type": "Point", "coordinates": [ 23.13533901370144, 51.857673027978592 ] } },
{ "type": "Feature", "properties": { "ref:csioz": 1155758, "addr:street": "Rynek", "addr:housenumber": "1", "addr:city": "Piszczac", "addr:postcode": "21-530", "amenity": "pharmacy" }, "geometry": { "type": "Point", "coordinates": [ 23.374138969424543, 51.981538349135171 ] } },
{ "type": "Feature", "properties": { "ref:csioz": 1156076, "addr:housenumber": "26A", "addr:city": "Tuczna", "addr:postcode": "21-523", "amenity": "pharmacy" }, "geometry": { "type": "Point", "coordinates": [ 23.416954650269926, 51.882104494560544 ] } },
{ "type": "Feature", "properties": { "ref:csioz": 1156469, "addr:street": "Rynek", "addr:housenumber": "9B", "addr:city": "Sławatycze", "addr:postcode": "21-515", "amenity": "pharmacy", "name": "\"Apteka Prywatna Unifarm S.C. A. Grzejszczyk, J. Żawka\"" }, "geometry": { "type": "Point", "coordinates": [ 23.554103827865411, 51.762355315422518 ] } },
{ "type": "Feature", "properties": { "ref:csioz": 1188424, "addr:street": "1 Maja", "addr:housenumber": "1", "addr:city": "Kodeń", "addr:postcode": "21-509", "amenity": "pharmacy", "name": "Doz Apteka. Dbam O Zdrowie." }, "geometry": { "type": "Point", "coordinates": [ 23.607064000147552, 51.914726000019357 ] } },
{ "type": "Feature", "properties": { "ref:csioz": 1194203, "addr:street": "Rynek", "addr:housenumber": "23", "addr:city": "Wisznice", "addr:postcode": "21-580", "amenity": "pharmacy", "name": "Centrum" }, "geometry": { "type": "Point", "coordinates": [ 23.208923171385802, 51.788760821389133 ] } },
{ "type": "Feature", "properties": { "ref:csioz": 1199222, "addr:housenumber": "55", "addr:city": "Rokitno", "addr:postcode": "21-504", "amenity": "pharmacy", "name": "Punkt Apteczny Rokitno" }, "geometry": { "type": "Point", "coordinates": [ 23.290518831853291, 52.121393410843879 ] } },
{ "type": "Feature", "properties": { "ref:csioz": 1155423, "addr:street": "Sienkiewicza", "addr:housenumber": "28", "addr:city": "Terespol", "addr:postcode": "21-550", "amenity": "pharmacy", "name": "Apteka Dbam O Zdrowie" }, "geometry": { "type": "Point", "coordinates": [ 23.613188332061817, 52.076125192936686 ] } },
{ "type": "Feature", "properties": { "ref:csioz": 1155915, "addr:street": "Rynek", "addr:housenumber": "10", "addr:city": "Wisznice", "addr:postcode": "21-580", "amenity": "pharmacy" }, "geometry": { "type": "Point", "coordinates": [ 23.20863001794865, 51.787656243941925 ] } },
{ "type": "Feature", "properties": { "ref:csioz": 1155928, "addr:street": "Słoneczna", "addr:housenumber": "1", "addr:city": "Zalesie", "addr:postcode": "21-512", "amenity": "pharmacy" }, "geometry": { "type": "Point", "coordinates": [ 23.362249201129387, 52.036264709306622 ] } },
{ "type": "Feature", "properties": { "ref:csioz": 1156149, "addr:street": "1 Maja", "addr:housenumber": "33", "addr:city": "Kodeń", "addr:postcode": "21-509", "amenity": "pharmacy" }, "geometry": { "type": "Point", "coordinates": [ 23.607544023659287, 51.918372023303732 ] } },
{ "type": "Feature", "properties": { "ref:csioz": 1156158, "addr:street": "Stacyjna", "addr:housenumber": "7", "addr:city": "Terespol", "addr:postcode": "21-550", "amenity": "pharmacy" }, "geometry": { "type": "Point", "coordinates": [ 23.601767274957176, 52.072401865158874 ] } },
{ "type": "Feature", "properties": { "ref:csioz": 1156210, "addr:street": "Rynek", "addr:housenumber": "35c", "addr:city": "Wisznice", "addr:postcode": "21-580", "amenity": "pharmacy", "name": "Apteka Renata Rozwadowska" }, "geometry": { "type": "Point", "coordinates": [ 23.209654266856642, 51.788306418332802 ] } },
{ "type": "Feature", "properties": { "ref:csioz": 1156403, "addr:street": "Rynek", "addr:housenumber": "28", "addr:city": "Piszczac", "addr:postcode": "21-530", "amenity": "pharmacy" }, "geometry": { "type": "Point", "coordinates": [ 23.375752419265865, 51.980853570705619 ] } },
{ "type": "Feature", "properties": { "ref:csioz": 1157407, "addr:street": "Sienkiewicza", "addr:housenumber": "16", "addr:city": "Terespol", "addr:postcode": "21-550", "amenity": "pharmacy", "name": "Dr. Max", "addr:flats": "2" }, "geometry": { "type": "Point", "coordinates": [ 23.614052677065629, 52.074435523239963 ] } },
{ "type": "Feature", "properties": { "ref:csioz": 1184622, "addr:street": "Wojska Polskiego", "addr:housenumber": "85A", "addr:city": "Terespol", "addr:postcode": "21-550", "amenity": "pharmacy", "name": "Dr. Max" }, "geometry": { "type": "Point", "coordinates": [ 23.603555004442168, 52.070444740921971 ] } },
{ "type": "Feature", "properties": { "ref:csioz": 1188965, "addr:street": "Słoneczna", "addr:housenumber": "32", "addr:city": "Małaszewicze", "addr:postcode": "21-150", "amenity": "pharmacy", "name": "Farmacja 24" }, "geometry": { "type": "Point", "coordinates": [ 23.528603345265523, 52.023585991329121 ] } },
{ "type": "Feature", "properties": { "ref:csioz": 1204937, "addr:housenumber": "21A", "addr:city": "Woskrzenice Duże", "addr:postcode": "21-500", "amenity": "pharmacy", "name": "Punkt Apteczny Urtica Iii" }, "geometry": { "type": "Point", "coordinates": [ 23.270131632991504, 52.033511325810473 ] } },
{ "type": "Feature", "properties": { "ref:csioz": 1229792, "addr:street": "Batalionów Chłopskich", "addr:housenumber": "120", "addr:city": "Rossosz", "addr:postcode": "21-533", "amenity": "pharmacy", "name": "Punkt Apteczny Vikamed" }, "geometry": { "type": "Point", "coordinates": [ 23.135671818966642, 51.857896841952957 ] } },
{ "type": "Feature", "properties": { "ref:csioz": 1174986, "addr:street": "Partyzantów", "addr:housenumber": "10", "addr:city": "Janów Podlaski", "addr:postcode": "21-505", "amenity": "pharmacy", "name": "Apteka Janowska", "addr:flats": "7" }, "geometry": { "type": "Point", "coordinates": [ 23.208394607365694, 52.196876912426916 ] } },
{ "type": "Feature", "properties": { "ref:csioz": 1156021, "addr:street": "Szkolna", "addr:housenumber": "10", "addr:city": "Drelów", "addr:postcode": "21-570", "amenity": "pharmacy" }, "geometry": { "type": "Point", "coordinates": [ 22.867657847945825, 51.911488327740123 ] } },
{ "type": "Feature", "properties": { "ref:csioz": 1156241, "addr:street": "Warszawska", "addr:housenumber": "17", "addr:city": "Międzyrzec Podlaski", "addr:postcode": "21-560", "amenity": "pharmacy", "name": "Nasze Apteki" }, "geometry": { "type": "Point", "coordinates": [ 22.785534015321272, 51.984945948025256 ] } },
{ "type": "Feature", "properties": { "ref:csioz": 1194170, "addr:street": "Partyzantów", "addr:housenumber": "47", "addr:city": "Międzyrzec Podlaski", "addr:postcode": "21-560", "amenity": "pharmacy", "name": "Centrum" }, "geometry": { "type": "Point", "coordinates": [ 22.783016905397719, 51.978291092453581 ] } },
{ "type": "Feature", "properties": { "ref:csioz": 1117673, "addr:street": "Prymasa Stefana Wyszyńskiego", "addr:housenumber": "18", "addr:city": "Międzyrzec Podlaski", "addr:postcode": "21-560", "amenity": "pharmacy", "name": "Centrum", "addr:flats": "21" }, "geometry": { "type": "Point", "coordinates": [ 22.794726988116235, 51.991985818774232 ] } },
{ "type": "Feature", "properties": { "ref:csioz": 1155495, "addr:street": "Żelazna", "addr:housenumber": "1c", "addr:city": "Międzyrzec Podlaski", "addr:postcode": "21-560", "amenity": "pharmacy", "name": "Doz Apteka Dbam O Zdrowie Fidelis" }, "geometry": { "type": "Point", "coordinates": [ 22.785670931695119, 51.984254940403765 ] } },
{ "type": "Feature", "properties": { "ref:csioz": 1155902, "addr:street": "Kardynała Wyszyńskiego", "addr:housenumber": "3", "addr:city": "Konstantynów", "addr:postcode": "21-543", "amenity": "pharmacy", "name": "Apteka" }, "geometry": { "type": "Point", "coordinates": [ 23.088920893151531, 52.206391771832969 ] } },
{ "type": "Feature", "properties": { "ref:csioz": 1155977, "addr:street": "Bialska", "addr:housenumber": "20", "addr:city": "Leśna Podlaska", "addr:postcode": "21-542", "amenity": "pharmacy" }, "geometry": { "type": "Point", "coordinates": [ 23.030174931515099, 52.130567701777061 ] } },
{ "type": "Feature", "properties": { "ref:csioz": 1156196, "addr:street": "Jana Pawła II", "addr:housenumber": "15A", "addr:city": "Międzyrzec Podlaski", "addr:postcode": "21-560", "amenity": "pharmacy", "name": "Apteka Pharmacon" }, "geometry": { "type": "Point", "coordinates": [ 22.784188000054982, 51.983408000016347 ] } },
{ "type": "Feature", "properties": { "ref:csioz": 1156335, "addr:street": "Lubelska", "addr:housenumber": "7", "addr:city": "Międzyrzec Podlaski", "addr:postcode": "21-560", "amenity": "pharmacy", "name": "Centrum" }, "geometry": { "type": "Point", "coordinates": [ 22.784594524160891, 51.984975620229733 ] } },
{ "type": "Feature", "properties": { "ref:csioz": 1197084, "addr:housenumber": "8", "addr:city": "Tłuściec", "addr:postcode": "21-564", "amenity": "pharmacy", "name": "Punkt Apteczny W Tłuścu Dorota Dziewulska" }, "geometry": { "type": "Point", "coordinates": [ 22.706201201115061, 52.029505389291401 ] } },
{ "type": "Feature", "properties": { "ref:csioz": 1210986, "addr:street": "Warszawska", "addr:housenumber": "36", "addr:city": "Międzyrzec Podlaski", "addr:postcode": "21-560", "amenity": "pharmacy", "name": "Dr. Max" }, "geometry": { "type": "Point", "coordinates": [ 22.779907471988796, 51.989135417513005 ] } },
{ "type": "Feature", "properties": { "ref:csioz": 1216961, "addr:street": "Rymarska", "addr:housenumber": "12", "addr:city": "Międzyrzec Podlaski", "addr:postcode": "21-560", "amenity": "pharmacy", "name": "Apteka Rodzinna Sikorski Spółka Jawna" }, "geometry": { "type": "Point", "coordinates": [ 22.786233376440816, 51.983583267398942 ] } },
{ "type": "Feature", "properties": { "ref:csioz": 1221626, "addr:street": "Nadbrzeżna", "addr:housenumber": "2", "addr:city": "Międzyrzec Podlaski", "addr:postcode": "21-560", "amenity": "pharmacy", "name": "Apteka Dr. Optima" }, "geometry": { "type": "Point", "coordinates": [ 22.785456473156913, 51.982452534935952 ] } },
{ "type": "Feature", "properties": { "ref:csioz": 1207492, "addr:housenumber": "76", "addr:city": "Rogoźnica", "addr:postcode": "21-560", "amenity": "pharmacy", "name": "\"Punkt Apteczny \"\"U Tomka\"\"\"" }, "geometry": { "type": "Point", "coordinates": [ 22.868207960569936, 52.02830556250801 ] } },
{ "type": "Feature", "properties": { "ref:csioz": 1231037, "addr:street": "Brzeska", "addr:housenumber": "2", "addr:city": "Międzyrzec Podlaski", "addr:postcode": null, "amenity": "pharmacy", "name": "Apteka od Serca", "addr:flats": null }, "geometry": { "type": "Point", "coordinates": [ 22.788143515864405, 51.98410303942503 ] } },
{ "type": "Feature", "properties": { "ref:csioz": 1156182, "addr:street": null, "addr:housenumber": "63", "addr:city": "Sosnówka", "addr:postcode": "21-518", "amenity": "pharmacy", "name": null, "addr:flats": null }, "geometry": { "type": "Point", "coordinates": [ 23.341455277319195, 51.749955944727205 ] } }
]
}
